{"type":"FeatureCollection","features":[{"type":"Feature","geometry":{"type":"Polygon","coordinates":[[[8.18578,43.99642],[8.15987,44.0142],[8.02309,44.06031],[7.91594,44.20433],[7.69328,44.6384],[7.67894,44.95536],[7.94096,45.27849],[8.10746,45.45273],[8.37876,45.65289],[8.69038,45.73067],[9.45808,45.7376],[9.91153,45.88564],[10.22689,45.95877],[10.64944,46.10369],[11.28593,46.2445],[11.85621,46.40716],[12.31693,46.42239],[12.40184,46.4106],[12.45343,46.29658],[12.65027,46.0362],[12.68797,45.94936],[12.77567,45.6134],[12.53782,45.49501],[12.40965,45.50442],[12.31973,45.4705],[12.2373,45.41136],[12.20926,45.36376],[12.16984,45.32315],[12.2257,45.26409],[12.24234,45.21538],[12.29488,45.2207],[12.29204,45.14177],[12.22968,44.99636],[12.23028,44.93808],[12.21438,44.88936],[12.16536,44.79436],[12.15581,44.73299],[12.19115,44.69181],[12.24914,44.67967],[12.28051,44.63466],[12.22546,44.5435],[12.22767,44.49264],[12.24031,44.44031],[12.28013,44.34013],[12.32183,44.3009],[12.41903,44.18434],[12.46805,44.13673],[12.55721,44.07822],[12.63824,44.01153],[12.6863,43.98584],[12.83869,43.95057],[12.88597,43.93081],[13.06158,43.80601],[13.15287,43.75141],[13.24874,43.70572],[13.29099,43.67365],[13.43707,43.62053],[13.48629,43.60962],[13.53622,43.61519],[13.56965,43.57627],[13.61674,43.55341],[13.62637,43.50368],[13.64632,43.4542],[13.78166,43.22731],[13.81334,43.12847],[13.86993,42.99235],[13.91632,42.90276],[13.93511,42.79751],[13.97034,42.75879],[13.98704,42.71134],[14.01587,42.66922],[14.15433,42.51633],[14.28621,42.42905],[14.38033,42.38271],[14.41692,42.34783],[14.44667,42.30465],[14.48668,42.27393],[14.52877,42.24584],[14.62198,42.20037],[14.67239,42.19048],[14.7178,42.16851],[14.72917,42.11888],[14.76287,42.08052],[14.8045,42.05202],[14.85373,42.03341],[15.00367,41.9953],[15.09598,41.94895],[15.24977,41.91514],[15.30092,41.92457],[15.40593,41.91084],[15.61313,41.92421],[15.66306,41.91195],[15.68635,41.86609],[15.73555,41.85249],[15.78572,41.85003],[15.80509,41.89624],[15.83707,41.93636],[15.89096,41.94351],[15.9414,41.93595],[16.04288,41.94558],[16.09378,41.9329],[16.13591,41.90572],[16.185,41.88839],[16.19255,41.83846],[16.18254,41.78921],[16.14781,41.75251],[16.02126,41.66482],[15.97357,41.64805],[15.85868,41.55988],[15.84635,41.50937],[15.90202,41.50396],[15.93886,41.46698],[16.00002,41.43274],[16.44386,41.2758],[16.53926,41.24023],[16.58567,41.21637],[16.73544,41.17636],[16.93409,41.09992],[17.04069,41.09005],[17.13562,41.04074],[17.18509,41.02686],[17.3421,40.93878],[17.37674,40.90253],[17.42113,40.87334],[17.55704,40.80231],[17.70805,40.75689],[17.85029,40.69082],[17.952,40.67647],[18.04177,40.63026],[18.05099,40.57986],[18.08614,40.54342],[18.12644,40.51288],[18.22448,40.47842],[18.41916,40.31297],[18.45375,40.27608],[18.46119,40.20396],[18.50153,40.17395],[18.52591,40.12889],[18.40987,39.9616],[18.38207,39.80997],[18.33651,39.78937],[18.30017,39.82384],[18.1992,39.83636],[18.15268,39.86109],[18.03216,39.95724],[17.99957,39.99999],[18.00945,40.10114],[17.98565,40.14535],[17.94291,40.17579],[17.90906,40.24297],[17.86242,40.26899],[17.7604,40.28911],[17.65639,40.29733],[17.55055,40.29017],[17.49888,40.29783],[17.45512,40.32458],[17.40549,40.33182],[17.26475,40.39533],[17.21704,40.46057],[17.1408,40.51106],[17.08943,40.51563],[16.98966,40.49085],[16.90483,40.43528],[16.87088,40.39807],[16.8512,40.35208],[16.7763,40.28267],[16.73031,40.19225],[16.69703,40.15447],[16.61073,40.11084],[16.62292,40.05609],[16.62575,40.00552],[16.64164,39.95804],[16.53951,39.86558],[16.5044,39.82566],[16.4901,39.77565],[16.51689,39.73129],[16.5349,39.68341],[16.57773,39.65672],[16.62308,39.63197],[16.78016,39.62186],[16.85777,39.55109],[16.95499,39.50292],[17.00529,39.49147],[17.03168,39.44788],[17.07358,39.419],[17.1196,39.39811],[17.15803,39.36384],[17.12661,39.32435],[17.11328,39.27463],[17.11989,39.22349],[17.14799,39.18067],[17.11095,39.11766],[17.13027,39.07072],[17.16721,39.03353],[17.17182,38.9835],[17.15796,38.93409],[17.12348,38.89631],[17.07573,38.91183],[17.02482,38.90744],[16.98531,38.94026],[16.93465,38.93376],[16.78341,38.89301],[16.59516,38.80629],[16.56927,38.7621],[16.55626,38.71368],[16.57422,38.6644],[16.58843,38.51128],[16.5892,38.4571],[16.56605,38.41258],[16.52612,38.37976],[16.33488,38.29419],[16.29496,38.26194],[16.18679,38.14612],[16.1593,38.10325],[16.1299,38.00609],[16.09855,37.96525],[16.00491,37.92717],[15.95461,37.92183],[15.905,37.93594],[15.85467,37.93367],[15.80328,37.92264],[15.75286,37.92578],[15.70247,37.94232],[15.65987,37.96998],[15.63825,38.0179],[15.64014,38.17756],[15.64812,38.26473],[15.73929,38.26543],[15.78775,38.28054],[15.8418,38.36615],[15.87596,38.4032],[15.90129,38.44795],[15.92361,38.49482],[15.92435,38.54524],[15.84604,38.61132],[15.86729,38.65674],[15.95741,38.70695],[16.00431,38.7252],[16.08747,38.71848],[16.18533,38.75085],[16.21457,38.79372],[16.22282,38.84479],[16.21351,38.89617],[16.18193,38.93582],[16.14186,38.96791],[16.11561,39.01084],[16.07578,39.10496],[16.06305,39.15602],[16.0541,39.26267],[16.03395,39.36603],[16.01343,39.41971],[15.9833,39.46068],[15.90957,39.53237],[15.87731,39.57416],[15.82098,39.72028],[15.81965,39.77104],[15.79186,39.84899],[15.78619,39.89953],[15.75002,39.93491],[15.72661,39.9794],[15.68724,40.01028],[15.5974,40.05732],[15.54582,40.05974],[15.49784,40.04253],[15.40763,39.99297],[15.35583,39.99051],[15.2616,40.02803],[15.24748,40.07658],[15.15856,40.12916],[15.12289,40.16441],[15.03771,40.1648],[14.91914,40.26252],[14.92689,40.31334],[14.95738,40.35343],[14.98038,40.39902],[14.95143,40.44004],[14.90452,40.53372],[14.79984,40.65046],[14.75224,40.6699],[14.60617,40.63007],[14.56098,40.60662],[14.45649,40.61524],[14.39492,40.65779],[14.43508,40.69155],[14.45192,40.74034],[14.35734,40.77686],[14.31915,40.81144],[14.2716,40.83279],[14.22108,40.83144],[14.18143,40.79858],[14.04207,40.84717],[14.03107,40.89609],[13.97785,40.96379],[13.9036,41.03735],[13.8905,41.08604],[13.8604,41.12848],[13.74483,41.23604],[13.69415,41.25188],[13.59291,41.2565],[13.57441,41.20902],[13.47779,41.24324],[13.43311,41.26595],[13.33521,41.29515],[13.28099,41.29891],[13.17915,41.28111],[13.09203,41.22856],[13.0421,41.23397],[13.03174,41.28382],[13.00081,41.32554],[12.91872,41.38952],[12.83749,41.41391],[12.73429,41.42559],[12.6877,41.44906],[12.63533,41.45084],[12.49325,41.59846],[12.45172,41.63015],[12.40793,41.66165],[12.26788,41.7314],[12.22487,41.75901],[12.18294,41.852],[12.14956,41.89316],[12.10894,41.92315],[11.92599,42.02613],[11.87668,42.04102],[11.82554,42.03117],[11.76817,42.11624],[11.73379,42.15355],[11.7015,42.22741],[11.66328,42.26095],[11.57872,42.31649],[11.48448,42.36474],[11.38216,42.40257],[11.27628,42.41288],[11.22289,42.40594],[11.18684,42.37016],[11.13617,42.36991],[11.09279,42.39778],[11.1196,42.4403],[11.16837,42.45143],[11.18431,42.50058],[11.16355,42.54817],[11.11763,42.57153],[11.05485,42.65428],[10.97263,42.71358],[10.93989,42.75238],[10.88943,42.76426],[10.84187,42.78499],[10.77766,42.79012],[10.74459,42.82779],[10.75719,42.87707],[10.73354,42.92178],[10.64244,42.96681],[10.59231,42.97835],[10.54296,42.9665],[10.50172,42.93586],[10.45944,42.96522],[10.52026,43.04731],[10.53014,43.09896],[10.52419,43.19962],[10.51169,43.24866],[10.41519,43.37096],[10.39407,43.41836],[10.35347,43.45019],[10.31804,43.48935],[10.29744,43.53603],[10.26107,43.78095],[10.239,43.82713],[10.20607,43.92383],[10.12654,43.99622],[10.08319,44.02285],[10.03537,44.04133],[9.93351,44.05814],[9.88875,44.08575],[9.84044,44.07222],[9.7639,44.08893],[9.67286,44.13474],[9.62311,44.14815],[9.58837,44.18466],[9.49582,44.22529],[9.45225,44.25313],[9.40425,44.26965],[9.33763,44.31951],[9.28867,44.33754],[9.19027,44.31306],[9.11343,44.37866],[9.01078,44.38988],[8.80616,44.43453],[8.75433,44.43314],[8.70352,44.417],[8.51838,44.32995],[8.4753,44.30356],[8.43795,44.26769],[8.4261,44.21876],[8.38467,44.18839],[8.33413,44.17896],[8.28919,44.15322],[8.24978,44.11747],[8.18578,43.99642]]]},"properties":{"kind":"province","source":"awmc-provinces-60bc"}},{"type":"Feature","geometry":{"type":"Polygon","coordinates":[[[9.47969,42.87183],[9.48199,42.80674],[9.46092,42.75968],[9.44803,42.71079],[9.45618,42.65941],[9.49569,42.62654],[9.51851,42.58081],[9.53075,42.53115],[9.54078,42.42698],[9.53604,42.37437],[9.55379,42.32744],[9.56272,42.27646],[9.56099,42.22155],[9.54244,42.17268],[9.54968,42.12275],[9.51997,42.0786],[9.44843,42.00779],[9.41495,41.96489],[9.40515,41.86512],[9.39988,41.69897],[9.33175,41.60145],[9.30974,41.55413],[9.27633,41.51423],[9.20993,41.37139],[9.16489,41.39638],[9.11521,41.40451],[9.08084,41.44308],[9.03776,41.46891],[8.98699,41.48549],[8.93555,41.48885],[8.84085,41.5265],[8.78935,41.60008],[8.80456,41.65037],[8.83426,41.70701],[8.73297,41.73246],[8.69128,41.76147],[8.72028,41.80282],[8.7641,41.82695],[8.77968,41.87565],[8.76772,41.92435],[8.6664,41.90838],[8.61429,41.92422],[8.61244,41.97433],[8.66124,41.99025],[8.69231,42.0306],[8.68044,42.10276],[8.63661,42.12841],[8.58632,42.14379],[8.56362,42.24238],[8.62483,42.30885],[8.59386,42.39081],[8.63901,42.41328],[8.66748,42.4553],[8.66358,42.50585],[8.70113,42.54159],[8.7223,42.58829],[8.79898,42.58189],[8.82936,42.62263],[8.93018,42.64494],[8.98057,42.64437],[9.02512,42.67102],[9.0623,42.70553],[9.10907,42.73047],[9.21079,42.74265],[9.25572,42.71765],[9.30591,42.7025],[9.33476,42.74413],[9.33145,42.79444],[9.30712,42.83873],[9.32996,42.93701],[9.33126,42.98797],[9.37419,43.0145],[9.42408,43.01027],[9.45887,42.97209],[9.46236,42.92101],[9.47969,42.87183]]]},"properties":{"kind":"province","source":"awmc-provinces-60bc"}},{"type":"Feature","geometry":{"type":"Polygon","coordinates":[[[10.35133,42.80705],[10.38717,42.72546],[10.30992,42.75832],[10.26038,42.74988],[10.21348,42.72788],[10.16257,42.7349],[10.11367,42.75212],[10.11078,42.80313],[10.16048,42.81541],[10.21172,42.81196],[10.25554,42.83957],[10.35133,42.80705]]]},"properties":{"kind":"province","source":"awmc-provinces-60bc"}},{"type":"Feature","geometry":{"type":"Polygon","coordinates":[[[9.37837,41.24283],[9.38519,41.18867],[9.4218,41.15294],[9.47188,41.15739],[9.52233,41.14757],[9.55028,41.10597],[9.52119,41.06425],[9.58794,41.00379],[9.56438,40.95174],[9.62884,40.90597],[9.66795,40.8393],[9.69761,40.72678],[9.74113,40.70141],[9.73843,40.65051],[9.7599,40.604],[9.82569,40.52591],[9.79379,40.48648],[9.7721,40.44065],[9.74168,40.39944],[9.69962,40.36991],[9.62838,40.29693],[9.61269,40.24853],[9.62691,40.19716],[9.6517,40.15183],[9.68908,40.11551],[9.70818,40.06918],[9.69618,40.01919],[9.68915,39.85768],[9.67328,39.80919],[9.67377,39.75797],[9.65922,39.65681],[9.63395,39.55233],[9.625,39.44853],[9.5945,39.3518],[9.621,39.30774],[9.58006,39.27891],[9.56289,39.23116],[9.5703,39.18162],[9.53673,39.14308],[9.48518,39.14066],[9.43422,39.1471],[9.38575,39.16248],[9.34557,39.19344],[9.29886,39.21471],[9.2489,39.22306],[9.16171,39.22802],[9.11617,39.20588],[9.06549,39.21377],[9.02505,39.1814],[9.00632,39.13261],[9.0273,39.084],[9.01529,39.03479],[8.98656,38.99321],[8.90659,38.92973],[8.8599,38.90843],[8.80936,38.90523],[8.71433,38.94165],[8.66435,38.93117],[8.63527,38.88882],[8.5909,38.9148],[8.60181,38.96388],[8.56759,39.00251],[8.55142,39.05003],[8.49462,39.08921],[8.45165,39.06267],[8.43825,39.01362],[8.38991,38.99565],[8.35874,39.0356],[8.34528,39.08427],[8.39541,39.15561],[8.37786,39.21628],[8.38974,39.26663],[8.41609,39.31127],[8.38784,39.35489],[8.37889,39.40626],[8.38732,39.45618],[8.40576,39.50321],[8.45659,39.56907],[8.45005,39.72467],[8.46914,39.77248],[8.52891,39.77208],[8.54604,39.82021],[8.53465,39.86956],[8.5096,39.91623],[8.46044,39.90067],[8.41004,39.91042],[8.39087,39.95687],[8.39579,40.00755],[8.38949,40.05751],[8.4388,40.07057],[8.47672,40.10695],[8.45113,40.20025],[8.46377,40.25161],[8.46176,40.30414],[8.42796,40.34555],[8.37868,40.36439],[8.39922,40.41029],[8.38991,40.4596],[8.36089,40.50288],[8.3192,40.5351],[8.31018,40.58504],[8.26219,40.60122],[8.21247,40.58663],[8.1641,40.64356],[8.18475,40.69591],[8.15129,40.73473],[8.15474,40.78494],[8.21859,40.91487],[8.30674,40.87164],[8.35883,40.85373],[8.46005,40.84022],[8.56394,40.86056],[8.70026,40.9354],[8.7516,40.93333],[8.79812,40.9568],[8.8397,40.98494],[8.86694,41.03045],[8.95221,41.08596],[8.98923,41.12318],[9.03544,41.14432],[9.08562,41.14077],[9.12974,41.16522],[9.15314,41.21012],[9.15629,41.2603],[9.20749,41.2707],[9.2925,41.22188],[9.37837,41.24283]]]},"properties":{"kind":"province","source":"awmc-provinces-60bc"}},{"type":"Feature","geometry":{"type":"Polygon","coordinates":[[[15.5993,38.28018],[15.55704,38.22346],[15.54405,38.17374],[15.51208,38.13301],[15.48993,38.0875],[15.45767,38.04105],[15.37681,37.97856],[15.35112,37.93443],[15.28068,37.86016],[15.21822,37.77943],[15.18872,37.68145],[15.16191,37.63867],[15.16216,37.58724],[15.12248,37.55594],[15.08684,37.51639],[15.08256,37.36182],[15.13838,37.32069],[15.19038,37.31088],[15.23174,37.28032],[15.24666,37.13905],[15.28721,37.10872],[15.27945,37.0587],[15.22026,36.991],[15.17284,36.96748],[15.13522,36.9299],[15.10448,36.88733],[15.08901,36.83976],[15.08265,36.78809],[15.1039,36.74114],[15.09618,36.68908],[15.04589,36.6908],[15.00243,36.71935],[14.94115,36.72842],[14.89164,36.74762],[14.83977,36.7516],[14.79225,36.73163],[14.69112,36.74313],[14.54912,36.80678],[14.49899,36.81297],[14.45466,36.84101],[14.43763,36.88847],[14.37473,36.97255],[14.28998,37.04189],[14.19916,37.09606],[14.09538,37.11487],[13.94035,37.12556],[13.88811,37.1195],[13.84311,37.14209],[13.74395,37.17273],[13.6513,37.22002],[13.56896,37.27979],[13.43608,37.31477],[13.39481,37.3459],[13.34684,37.36542],[13.26105,37.42205],[13.22743,37.4639],[13.18407,37.49264],[13.07856,37.51218],[13.02862,37.50437],[12.99506,37.54313],[12.95034,37.57033],[12.8462,37.58979],[12.74348,37.57163],[12.69185,37.57751],[12.64345,37.59164],[12.56503,37.65859],[12.51162,37.65923],[12.47075,37.69119],[12.4602,37.74236],[12.42821,37.78221],[12.46427,37.92934],[12.49059,37.97241],[12.50753,38.02105],[12.54765,38.05186],[12.59714,38.06959],[12.67971,38.12083],[12.7391,38.17479],[12.83802,38.0673],[12.88372,38.04258],[12.93368,38.0326],[13.03228,38.06481],[13.05583,38.11174],[13.06932,38.16067],[13.10355,38.19815],[13.15291,38.18338],[13.2029,38.18463],[13.24647,38.21099],[13.29727,38.21932],[13.3464,38.20301],[13.37082,38.14318],[13.40438,38.10471],[13.45389,38.09736],[13.49775,38.12203],[13.5416,38.09673],[13.56787,38.05139],[13.71294,37.98865],[13.76527,37.97751],[13.91325,38.03283],[13.96168,38.04755],[14.01588,38.05476],[14.06545,38.04192],[14.20997,38.02963],[14.26188,38.01593],[14.36414,38.03193],[14.4144,38.04716],[14.46561,38.04589],[14.61235,38.08719],[14.65714,38.11207],[14.74067,38.17731],[14.78921,38.1637],[14.89048,38.18393],[14.94095,38.17868],[14.98875,38.15816],[15.04106,38.16253],[15.08354,38.13573],[15.13128,38.15268],[15.1751,38.17967],[15.20714,38.2214],[15.24772,38.25113],[15.28723,38.21941],[15.35578,38.24075],[15.49902,38.31061],[15.55172,38.30338],[15.5993,38.28018]]]},"properties":{"kind":"province","source":"awmc-provinces-60bc"}},{"type":"Feature","geometry":{"type":"Polygon","coordinates":[[[9.58734,34.18428],[9.48566,34.23959],[9.33343,34.38642],[9.25477,34.48082],[8.87234,35.00942],[8.71237,35.29293],[8.63736,35.40081],[8.58525,35.59439],[8.45803,35.9553],[8.43323,36.05402],[8.41282,36.19449],[8.36543,36.32649],[8.34578,36.34527],[8.35788,36.34745],[8.35461,36.38229],[8.36249,36.42676],[8.34635,36.47831],[8.3058,36.54756],[8.24535,36.7783],[8.1849,36.94629],[8.27587,36.94031],[8.37864,36.94665],[8.42645,36.93014],[8.47691,36.93124],[8.6721,36.98505],[8.72205,36.9926],[8.77096,36.98142],[8.82111,36.98789],[8.86983,37.00882],[8.91182,37.03917],[8.94928,37.07475],[8.97813,37.11707],[9.01835,37.14954],[9.06238,37.17399],[9.11224,37.18312],[9.15617,37.20733],[9.20938,37.26115],[9.25485,37.23962],[9.35267,37.26614],[9.39747,37.28949],[9.49891,37.29807],[9.65111,37.35752],[9.70863,37.361],[9.81961,37.34549],[9.86045,37.31141],[9.9449,37.26662],[9.99658,37.26639],[10.05194,37.27534],[10.09835,37.25295],[10.15038,37.23697],[10.19714,37.20496],[10.06828,37.12622],[10.09503,37.0304],[10.14591,37.01975],[10.19305,36.99867],[10.24404,36.94969],[10.30208,36.91239],[10.33561,36.8719],[10.29775,36.83437],[10.24787,36.83936],[10.22747,36.79312],[10.31299,36.75783],[10.35466,36.72829],[10.41201,36.72451],[10.51608,36.75603],[10.58416,36.86887],[10.62195,36.90477],[10.67249,36.90203],[10.72483,36.90806],[10.80959,36.96348],[10.88125,36.99582],[10.90374,37.04212],[10.94686,37.06752],[10.99788,37.07309],[11.04576,37.09176],[11.07606,37.05152],[11.07367,37.00061],[11.10559,36.96036],[11.10495,36.90993],[11.1294,36.86586],[11.04492,36.80989],[11.00518,36.77808],[10.97082,36.73972],[10.91502,36.65022],[10.88292,36.61025],[10.8385,36.51521],[10.80455,36.47689],[10.69121,36.4383],[10.64826,36.40994],[10.59786,36.41527],[10.55512,36.3892],[10.4704,36.25293],[10.47357,36.14654],[10.50095,36.04376],[10.64567,35.83225],[10.68471,35.80044],[10.73317,35.78476],[10.81943,35.80009],[10.84733,35.70663],[10.89247,35.68372],[10.99996,35.66619],[11.04455,35.64013],[11.03314,35.59055],[11.06071,35.54563],[11.0391,35.44769],[11.03465,35.39695],[11.04487,35.3472],[11.11074,35.25911],[11.08076,35.1884],[11.03507,35.16676],[11.03419,35.11553],[11.02375,35.06581],[10.95581,34.98782],[10.85444,34.81198],[10.81378,34.78221],[10.77908,34.74543],[10.75457,34.7004],[10.71129,34.67438],[10.66224,34.66001],[10.62019,34.62954],[10.56569,34.54201],[10.46262,34.53239],[10.32674,34.44271],[10.22677,34.42569],[10.16817,34.39485],[10.14496,34.34834],[10.09713,34.32285],[10.0673,34.27608],[10.03073,34.23589],[9.97761,34.20992],[9.99733,34.16316],[10.00082,34.10989],[10.03343,34.0684],[10.07525,33.99876],[9.82196,34.07771],[9.58734,34.18428]],[[9.82921,37.26879],[9.7837,37.24627],[9.78039,37.19325],[9.81185,37.15204],[9.86492,37.16189],[9.9119,37.18181],[9.90418,37.23156],[9.82921,37.26879]]]},"properties":{"kind":"province","source":"awmc-provinces-60bc"}},{"type":"Feature","geometry":{"type":"Polygon","coordinates":[[[9.82923,37.26202],[9.90419,37.22479],[9.91191,37.17504],[9.86494,37.15512],[9.81187,37.14527],[9.78042,37.18648],[9.78373,37.2395],[9.82923,37.26202]]]},"properties":{"kind":"province","source":"awmc-provinces-60bc"}},{"type":"Feature","geometry":{"type":"Polygon","coordinates":[[[11.99579,36.76577],[11.94671,36.83169],[12.03684,36.81334],[11.99579,36.76577]]]},"properties":{"kind":"province","source":"awmc-provinces-60bc"}}]}