{"type":"FeatureCollection","features":[{"type":"Feature","geometry":{"type":"MultiPolygon","coordinates":[[[[12.46933,41.8837],[12.46671,41.88786],[12.46005,41.89215],[12.46862,41.89845],[12.46505,41.90273],[12.47207,41.90452],[12.47528,41.90726],[12.47599,41.90868],[12.47528,41.91368],[12.47849,41.91439],[12.4798,41.91356],[12.48087,41.91071],[12.4823,41.90952],[12.48777,41.91297],[12.49419,41.91309],[12.49681,41.91249],[12.49883,41.91047],[12.50336,41.91059],[12.50692,41.91249],[12.51133,41.90904],[12.5124,41.90749],[12.51275,41.90618],[12.51097,41.90559],[12.5099,41.90416],[12.51026,41.90262],[12.51787,41.89655],[12.51609,41.89298],[12.51775,41.89227],[12.51906,41.88977],[12.50514,41.88584],[12.49943,41.88608],[12.49741,41.88477],[12.49812,41.88299],[12.49991,41.88132],[12.5005,41.87846],[12.50181,41.87692],[12.50098,41.87585],[12.49146,41.87561],[12.48682,41.87739],[12.48146,41.87751],[12.4779,41.87882],[12.47242,41.87835],[12.47147,41.87918],[12.47123,41.88168],[12.47218,41.88322],[12.46933,41.8837]]]]},"properties":{"name":"Rome","class":"http://vocab.getty.edu/aat/300008347","type":"http://vocab.getty.edu/aat/300008347","kind":"urban-area","source":"awmc-urban"}},{"type":"Feature","geometry":{"type":"MultiPolygon","coordinates":[[[[12.27752,41.75287],[12.27667,41.75315],[12.27714,41.75525],[12.27905,41.75601],[12.2839,41.75677],[12.29208,41.75982],[12.2938,41.75829],[12.29313,41.75572],[12.28533,41.75182],[12.28418,41.75153],[12.27752,41.75287]]]]},"properties":{"name":"Ostia","class":"http://vocab.getty.edu/aat/300008347","type":"http://vocab.getty.edu/aat/300008347","kind":"urban-area","source":"awmc-urban"}},{"type":"Feature","geometry":{"type":"MultiPolygon","coordinates":[[[[12.27124,41.78161],[12.26791,41.78152],[12.26534,41.78047],[12.26382,41.77952],[12.26277,41.77695],[12.25439,41.77542],[12.25011,41.77923],[12.25392,41.77933],[12.25563,41.78018],[12.25592,41.77857],[12.25944,41.78009],[12.25839,41.78114],[12.26153,41.78133],[12.26201,41.78418],[12.25868,41.78494],[12.25773,41.78475],[12.25687,41.78351],[12.25696,41.7819],[12.2543,41.78161],[12.25344,41.78218],[12.25439,41.78332],[12.25401,41.78437],[12.25525,41.78485],[12.25458,41.78656],[12.25582,41.78761],[12.25763,41.78627],[12.26229,41.78761],[12.26515,41.7857],[12.27134,41.78304],[12.27181,41.78342],[12.27124,41.78161]]]]},"properties":{"name":"Portus","class":"http://vocab.getty.edu/aat/300008347","type":"http://vocab.getty.edu/aat/300008347","kind":"urban-area","source":"awmc-urban"}},{"type":"Feature","geometry":{"type":"MultiPolygon","coordinates":[[[[12.39306,42.03128],[12.39658,42.031],[12.39839,42.03318],[12.40001,42.03376],[12.40134,42.03347],[12.40506,42.0309],[12.40734,42.02709],[12.40658,42.02586],[12.40515,42.02614],[12.40496,42.02557],[12.4061,42.01824],[12.40468,42.01767],[12.40401,42.01824],[12.40211,42.02015],[12.40134,42.02329],[12.40039,42.02395],[12.39839,42.02395],[12.39706,42.025],[12.39354,42.02605],[12.39221,42.03081],[12.39306,42.03128]]]]},"properties":{"name":"Veii","class":"http://vocab.getty.edu/aat/300008347","type":"http://vocab.getty.edu/aat/300008347","kind":"urban-area","source":"awmc-urban"}},{"type":"Feature","geometry":{"type":"MultiPolygon","coordinates":[[[[12.51212,41.9724],[12.51089,41.97088],[12.50727,41.97069],[12.50717,41.97174],[12.50603,41.97136],[12.50517,41.97212],[12.50517,41.9745],[12.50993,41.97735],[12.5126,41.97726],[12.51602,41.97202],[12.51488,41.97079],[12.51212,41.9724]]]]},"properties":{"name":"Fidenae","class":"http://vocab.getty.edu/aat/300008347","type":"http://vocab.getty.edu/aat/300008347","kind":"urban-area","source":"awmc-urban"}},{"type":"Feature","geometry":{"type":"MultiPolygon","coordinates":[[[[12.47174,41.66315],[12.47138,41.66564],[12.47567,41.6655],[12.47531,41.66736],[12.47724,41.66729],[12.47795,41.66564],[12.47902,41.66564],[12.48023,41.66393],[12.47809,41.66108],[12.47467,41.661],[12.47267,41.66315],[12.47174,41.66315]]]]},"properties":{"name":"Lavinium","class":"http://vocab.getty.edu/aat/300008347","type":"http://vocab.getty.edu/aat/300008347","kind":"urban-area","source":"awmc-urban"}},{"type":"Feature","geometry":{"type":"MultiPolygon","coordinates":[[[[12.542,41.61038],[12.54271,41.61209],[12.54528,41.6128],[12.54656,41.6143],[12.54885,41.61544],[12.54878,41.61673],[12.55163,41.61751],[12.5517,41.6188],[12.55327,41.62008],[12.55627,41.62037],[12.5572,41.62187],[12.55906,41.62223],[12.56106,41.62087],[12.55984,41.61744],[12.56006,41.61466],[12.55406,41.61516],[12.55285,41.61287],[12.55242,41.6103],[12.54821,41.60888],[12.54557,41.6093],[12.54492,41.61002],[12.54535,41.61095],[12.542,41.61038]]]]},"properties":{"name":"Ardea","class":"http://vocab.getty.edu/aat/300008347","type":"http://vocab.getty.edu/aat/300008347","kind":"urban-area","source":"awmc-urban"}},{"type":"Feature","geometry":{"type":"MultiPolygon","coordinates":[[[[12.09465,42.00114],[12.09405,42.0025],[12.09435,42.00386],[12.10008,42.00687],[12.10445,42.0111],[12.11184,42.01622],[12.115,42.01954],[12.11576,42.01939],[12.11681,42.01773],[12.11304,42.00672],[12.11169,42.00431],[12.11048,42.00401],[12.1037,41.99587],[12.09978,41.99662],[12.09736,41.99843],[12.09767,42.0013],[12.09661,42.0022],[12.09465,42.00114]]]]},"properties":{"name":"Caere","class":"http://vocab.getty.edu/aat/300008347","type":"http://vocab.getty.edu/aat/300008347","kind":"urban-area","source":"awmc-urban"}},{"type":"Feature","geometry":{"type":"MultiPolygon","coordinates":[[[[12.61482,41.76488],[12.61954,41.76145],[12.62382,41.75717],[12.62382,41.75589],[12.6231,41.75517],[12.61639,41.75289],[12.61282,41.75332],[12.61125,41.75817],[12.61183,41.76088],[12.6134,41.76388],[12.61482,41.76488]]]]},"properties":{"name":"Bovillae","class":"http://vocab.getty.edu/aat/300008347","type":"http://vocab.getty.edu/aat/300008347","kind":"urban-area","source":"awmc-urban"}},{"type":"Feature","geometry":{"type":"MultiPolygon","coordinates":[[[[12.63172,41.45164],[12.62801,41.44636],[12.62515,41.44536],[12.61816,41.44407],[12.61587,41.44622],[12.61559,41.4485],[12.62444,41.45064],[12.62729,41.45207],[12.63086,41.45264],[12.63172,41.45164]]]]},"properties":{"name":"Antium","class":"http://vocab.getty.edu/aat/300008347","type":"http://vocab.getty.edu/aat/300008347","kind":"urban-area","source":"awmc-urban"}},{"type":"Feature","geometry":{"type":"MultiPolygon","coordinates":[[[[12.69154,41.6725],[12.69139,41.67422],[12.69396,41.67807],[12.69539,41.67978],[12.69739,41.6805],[12.69825,41.67907],[12.69625,41.67593],[12.69154,41.6725]]]]},"properties":{"name":"Lanuvium","class":"http://vocab.getty.edu/aat/300008347","type":"http://vocab.getty.edu/aat/300008347","kind":"urban-area","source":"awmc-urban"}},{"type":"Feature","geometry":{"type":"MultiPolygon","coordinates":[[[[12.77429,41.68435],[12.77172,41.68507],[12.77129,41.68621],[12.77329,41.68878],[12.775,41.68878],[12.77628,41.68792],[12.77429,41.68435]]]]},"properties":{"name":"Velitrae","class":"http://vocab.getty.edu/aat/300008347","type":"http://vocab.getty.edu/aat/300008347","kind":"urban-area","source":"awmc-urban"}},{"type":"Feature","geometry":{"type":"MultiPolygon","coordinates":[[[[12.66424,41.7219],[12.66852,41.72333],[12.66995,41.72204],[12.66895,41.7199],[12.66453,41.71847],[12.66367,41.71933],[12.66424,41.7219]]]]},"properties":{"name":"Aricia","class":"http://vocab.getty.edu/aat/300008347","type":"http://vocab.getty.edu/aat/300008347","kind":"urban-area","source":"awmc-urban"}},{"type":"Feature","geometry":{"type":"MultiPolygon","coordinates":[[[[12.65782,41.7376],[12.65539,41.73503],[12.65339,41.73775],[12.64911,41.7406],[12.64668,41.7436],[12.64868,41.74446],[12.64968,41.74574],[12.64796,41.74917],[12.64925,41.75017],[12.65053,41.74874],[12.65339,41.74974],[12.65439,41.74774],[12.65211,41.7466],[12.65211,41.74603],[12.65981,41.73917],[12.65782,41.7376]]]]},"properties":{"name":"Villa Domitiani","class":"http://vocab.getty.edu/aat/http://vocab.getty.edu/aat/300005517","type":"http://vocab.getty.edu/aat/http://vocab.getty.edu/aat/300005517","kind":"urban-area","source":"awmc-urban"}},{"type":"Feature","geometry":{"type":"MultiPolygon","coordinates":[[[[12.65168,41.73132],[12.65782,41.7376],[12.6591,41.73775],[12.6601,41.73675],[12.65896,41.73532],[12.65981,41.73475],[12.65425,41.73018],[12.65168,41.73132]]]]},"properties":{"name":"Castra Albana","class":"http://vocab.getty.edu/aat/http://vocab.getty.edu/aat/300006888","type":"http://vocab.getty.edu/aat/http://vocab.getty.edu/aat/300006888","kind":"urban-area","source":"awmc-urban"}},{"type":"Feature","geometry":{"type":"MultiPolygon","coordinates":[[[[12.71292,41.79857],[12.71207,41.79757],[12.70936,41.79757],[12.70821,41.79857],[12.70322,41.79942],[12.70265,41.80042],[12.70393,41.80142],[12.70807,41.80114],[12.71135,41.80271],[12.71264,41.80256],[12.71292,41.79857]]]]},"properties":{"name":"Tusculum","class":"http://vocab.getty.edu/aat/300008347","type":"http://vocab.getty.edu/aat/300008347","kind":"urban-area","source":"awmc-urban"}},{"type":"Feature","geometry":{"type":"MultiPolygon","coordinates":[[[[12.71863,41.89008],[12.71678,41.88922],[12.71164,41.88851],[12.71221,41.89094],[12.71521,41.89279],[12.71621,41.89708],[12.71692,41.89736],[12.71906,41.89722],[12.71892,41.89608],[12.72035,41.89565],[12.71878,41.89322],[12.71863,41.89008]]]]},"properties":{"name":"Gabii","class":"http://vocab.getty.edu/aat/300008347","type":"http://vocab.getty.edu/aat/300008347","kind":"urban-area","source":"awmc-urban"}},{"type":"Feature","geometry":{"type":"MultiPolygon","coordinates":[[[[12.64711,42.02247],[12.64587,42.02],[12.64406,42.01981],[12.64225,42.02047],[12.64111,42.0238],[12.64139,42.02466],[12.64358,42.02571],[12.64653,42.02599],[12.64682,42.02514],[12.64625,42.02409],[12.64711,42.02247]]]]},"properties":{"name":"Nomentum","class":"http://vocab.getty.edu/aat/300008347","type":"http://vocab.getty.edu/aat/300008347","kind":"urban-area","source":"awmc-urban"}},{"type":"Feature","geometry":{"type":"MultiPolygon","coordinates":[[[[12.64977,41.97174],[12.64853,41.97069],[12.6473,41.97117],[12.64615,41.97012],[12.64454,41.97003],[12.64197,41.97269],[12.64311,41.97317],[12.64473,41.97279],[12.6453,41.97317],[12.64435,41.97403],[12.64501,41.97479],[12.64634,41.97488],[12.64977,41.97174]]]]},"properties":{"name":"Ficulea","class":"http://vocab.getty.edu/aat/300008347","type":"http://vocab.getty.edu/aat/300008347","kind":"urban-area","source":"awmc-urban"}},{"type":"Feature","geometry":{"type":"MultiPolygon","coordinates":[[[[12.74326,42.02357],[12.74031,42.02328],[12.73984,42.02405],[12.7405,42.02614],[12.73964,42.02842],[12.74088,42.02928],[12.74298,42.0288],[12.74269,42.02623],[12.74326,42.02357]]]]},"properties":{"name":"Corniculum","class":"http://vocab.getty.edu/aat/300008347","type":"http://vocab.getty.edu/aat/300008347","kind":"urban-area","source":"awmc-urban"}},{"type":"Feature","geometry":{"type":"MultiPolygon","coordinates":[[[[12.80044,41.96294],[12.79768,41.96246],[12.7935,41.96294],[12.79264,41.96503],[12.79045,41.96465],[12.79026,41.96656],[12.79445,41.96875],[12.79473,41.96951],[12.79397,41.97056],[12.79635,41.97122],[12.79807,41.97036],[12.80035,41.97094],[12.80073,41.97065],[12.79921,41.96818],[12.80044,41.96294]]]]},"properties":{"name":"Tibur","class":"http://vocab.getty.edu/aat/300008347","type":"http://vocab.getty.edu/aat/300008347","kind":"urban-area","source":"awmc-urban"}},{"type":"Feature","geometry":{"type":"MultiPolygon","coordinates":[[[[12.77619,41.94797],[12.77476,41.94618],[12.77605,41.94568],[12.77498,41.94476],[12.77569,41.94426],[12.77469,41.94297],[12.77776,41.94183],[12.77719,41.94076],[12.7809,41.93876],[12.77904,41.93712],[12.77597,41.93833],[12.7744,41.9374],[12.77291,41.93755],[12.76541,41.94133],[12.76684,41.9429],[12.76641,41.94354],[12.76698,41.94461],[12.76405,41.94676],[12.76548,41.94747],[12.76855,41.94661],[12.77034,41.9479],[12.76762,41.95075],[12.76884,41.95154],[12.77619,41.94797]]]]},"properties":{"name":"Villa Hadriani","class":"http://vocab.getty.edu/aat/http://vocab.getty.edu/aat/300005517","type":"http://vocab.getty.edu/aat/http://vocab.getty.edu/aat/300005517","kind":"urban-area","source":"awmc-urban"}},{"type":"Feature","geometry":{"type":"MultiPolygon","coordinates":[[[[12.78882,41.93055],[12.7864,41.92862],[12.78183,41.92991],[12.7839,41.93255],[12.78882,41.93055]]]]},"properties":{"name":"Villa di Viblio-Varo","class":"http://vocab.getty.edu/aat/http://vocab.getty.edu/aat/300005517","type":"http://vocab.getty.edu/aat/http://vocab.getty.edu/aat/300005517","kind":"urban-area","source":"awmc-urban"}},{"type":"Feature","geometry":{"type":"MultiPolygon","coordinates":[[[[12.89315,41.83636],[12.88494,41.83577],[12.88245,41.83648],[12.88352,41.841],[12.88518,41.84231],[12.88709,41.84719],[12.88935,41.84814],[12.89077,41.85076],[12.89387,41.85004],[12.89292,41.84945],[12.89363,41.84778],[12.89268,41.846],[12.8928,41.8416],[12.89399,41.8391],[12.89315,41.83636]]]]},"properties":{"name":"Praeneste","class":"http://vocab.getty.edu/aat/300008347","type":"http://vocab.getty.edu/aat/300008347","kind":"urban-area","source":"awmc-urban"}},{"type":"Feature","geometry":{"type":"MultiPolygon","coordinates":[[[[12.91385,41.72167],[12.91088,41.72238],[12.90957,41.72524],[12.90802,41.72524],[12.90731,41.72762],[12.906,41.72774],[12.90921,41.72928],[12.911,41.72833],[12.91136,41.7294],[12.9135,41.72857],[12.91362,41.72643],[12.91445,41.72619],[12.91481,41.72453],[12.91385,41.72167]]]]},"properties":{"name":"Artena","class":"http://vocab.getty.edu/aat/300008347","type":"http://vocab.getty.edu/aat/300008347","kind":"urban-area","source":"awmc-urban"}},{"type":"Feature","geometry":{"type":"MultiPolygon","coordinates":[[[[12.82305,41.61055],[12.82377,41.6096],[12.82329,41.60865],[12.8202,41.60531],[12.82091,41.60389],[12.81841,41.60424],[12.81734,41.60543],[12.81734,41.60639],[12.81889,41.60781],[12.81877,41.61007],[12.82056,41.61103],[12.82305,41.61055]]]]},"properties":{"name":"Pometia","class":"http://vocab.getty.edu/aat/300008347","type":"http://vocab.getty.edu/aat/300008347","kind":"urban-area","source":"awmc-urban"}},{"type":"Feature","geometry":{"type":"MultiPolygon","coordinates":[[[[12.91611,41.64208],[12.91385,41.64113],[12.90707,41.6416],[12.90553,41.64362],[12.91159,41.64565],[12.91588,41.64386],[12.91611,41.64208]]]]},"properties":{"name":"Cora","class":"http://vocab.getty.edu/aat/300008347","type":"http://vocab.getty.edu/aat/300008347","kind":"urban-area","source":"awmc-urban"}},{"type":"Feature","geometry":{"type":"MultiPolygon","coordinates":[[[[12.74898,41.51261],[12.75136,41.51242],[12.75174,41.50909],[12.7486,41.50861],[12.74156,41.50899],[12.74079,41.51042],[12.74099,41.51318],[12.74375,41.5148],[12.74584,41.51385],[12.74936,41.51385],[12.74898,41.51261]]]]},"properties":{"name":"Satricum","class":"http://vocab.getty.edu/aat/300008347","type":"http://vocab.getty.edu/aat/300008347","kind":"urban-area","source":"awmc-urban"}},{"type":"Feature","geometry":{"type":"MultiPolygon","coordinates":[[[[12.95977,41.59288],[12.96025,41.59241],[12.95958,41.59164],[12.95768,41.59088],[12.95758,41.59012],[12.95596,41.58907],[12.95482,41.58926],[12.95339,41.59164],[12.95406,41.59393],[12.95634,41.59545],[12.95768,41.59507],[12.95977,41.59288]]]]},"properties":{"name":"Norba","class":"http://vocab.getty.edu/aat/300008347","type":"http://vocab.getty.edu/aat/300008347","kind":"urban-area","source":"awmc-urban"}},{"type":"Feature","geometry":{"type":"MultiPolygon","coordinates":[[[[13.05799,41.49837],[13.05761,41.49761],[13.05638,41.49732],[13.05409,41.49751],[13.05285,41.49875],[13.05438,41.50075],[13.05733,41.49989],[13.05799,41.49837]]]]},"properties":{"name":"Setia","class":"http://vocab.getty.edu/aat/300008347","type":"http://vocab.getty.edu/aat/300008347","kind":"urban-area","source":"awmc-urban"}},{"type":"Feature","geometry":{"type":"MultiPolygon","coordinates":[[[[13.02716,41.69414],[13.02597,41.69295],[13.02582,41.69087],[13.02359,41.69072],[13.01913,41.6931],[13.01809,41.69414],[13.01764,41.69652],[13.01467,41.6989],[13.01868,41.70232],[13.02389,41.69875],[13.02716,41.69414]]]]},"properties":{"name":"Signia","class":"http://vocab.getty.edu/aat/300008347","type":"http://vocab.getty.edu/aat/300008347","kind":"urban-area","source":"awmc-urban"}},{"type":"Feature","geometry":{"type":"MultiPolygon","coordinates":[[[[13.157,41.74603],[13.15795,41.74603],[13.15823,41.7446],[13.16109,41.74422],[13.16052,41.74222],[13.15938,41.74184],[13.15281,41.74251],[13.15138,41.74156],[13.15005,41.74184],[13.14948,41.74327],[13.15024,41.7446],[13.14805,41.74584],[13.14795,41.74689],[13.15081,41.74803],[13.15433,41.74555],[13.157,41.74603]]]]},"properties":{"name":"Anagnia","class":"http://vocab.getty.edu/aat/300008347","type":"http://vocab.getty.edu/aat/300008347","kind":"urban-area","source":"awmc-urban"}},{"type":"Feature","geometry":{"type":"MultiPolygon","coordinates":[[[[13.10234,41.92257],[13.10072,41.92505],[13.1012,41.926],[13.10263,41.92638],[13.1071,41.92533],[13.11015,41.92552],[13.11186,41.92476],[13.11338,41.92295],[13.11195,41.91991],[13.11015,41.91934],[13.10453,41.91924],[13.10263,41.92057],[13.10234,41.92257]]]]},"properties":{"name":"Villa Neronis","class":"http://vocab.getty.edu/aat/http://vocab.getty.edu/aat/300005517","type":"http://vocab.getty.edu/aat/http://vocab.getty.edu/aat/300005517","kind":"urban-area","source":"awmc-urban"}},{"type":"Feature","geometry":{"type":"MultiPolygon","coordinates":[[[[11.6328,42.4183],[11.63315,42.41473],[11.6303,42.41259],[11.62494,42.41616],[11.62601,42.41973],[11.63065,42.42508],[11.63387,42.42258],[11.6328,42.4183]]]]},"properties":{"name":"Vulci","class":"http://vocab.getty.edu/aat/300008347","type":"http://vocab.getty.edu/aat/300008347","kind":"urban-area","source":"awmc-urban"}},{"type":"Feature","geometry":{"type":"MultiPolygon","coordinates":[[[[12.41061,42.2872],[12.4089,42.2912],[12.41442,42.29158],[12.41937,42.29348],[12.4228,42.29577],[12.42489,42.29501],[12.4188,42.28987],[12.41061,42.2872]]]]},"properties":{"name":"Falerii Veteres","class":"http://vocab.getty.edu/aat/300008347","type":"http://vocab.getty.edu/aat/300008347","kind":"urban-area","source":"awmc-urban"}},{"type":"Feature","geometry":{"type":"MultiPolygon","coordinates":[[[[12.10776,42.72407],[12.11385,42.72445],[12.11556,42.72274],[12.11461,42.72026],[12.10985,42.71893],[12.10281,42.72141],[12.10281,42.72312],[12.10776,42.72407]]]]},"properties":{"name":"Velzna/Volsinii Veteres/Urbiventus","class":"http://vocab.getty.edu/aat/300008347","type":"http://vocab.getty.edu/aat/300008347","kind":"urban-area","source":"awmc-urban"}},{"type":"Feature","geometry":{"type":"MultiPolygon","coordinates":[[[[11.8778,43.47236],[11.88218,43.47198],[11.88352,43.46856],[11.88066,43.46437],[11.87723,43.46437],[11.87343,43.46608],[11.87266,43.46837],[11.87324,43.47027],[11.87552,43.47274],[11.8778,43.47236]]]]},"properties":{"name":"Arretium","class":"http://vocab.getty.edu/aat/300008347","type":"http://vocab.getty.edu/aat/300008347","kind":"urban-area","source":"awmc-urban"}},{"type":"Feature","geometry":{"type":"MultiPolygon","coordinates":[[[[13.57741,42.85915],[13.58307,42.85915],[13.58664,42.85826],[13.57979,42.85231],[13.57682,42.85231],[13.57533,42.85558],[13.57504,42.85826],[13.57741,42.85915]]]]},"properties":{"name":"Asculum","class":"http://vocab.getty.edu/aat/300008347","type":"http://vocab.getty.edu/aat/300008347","kind":"urban-area","source":"awmc-urban"}},{"type":"Feature","geometry":{"type":"MultiPolygon","coordinates":[[[[13.50787,43.62042],[13.50787,43.62232],[13.50635,43.62346],[13.50426,43.6267],[13.50045,43.6286],[13.50083,43.63051],[13.50825,43.63108],[13.51187,43.62936],[13.51682,43.62556],[13.52025,43.62499],[13.51967,43.62403],[13.51511,43.62175],[13.50787,43.62042]]]]},"properties":{"name":"Ancon(a)","class":"http://vocab.getty.edu/aat/300008347","type":"http://vocab.getty.edu/aat/300008347","kind":"urban-area","source":"awmc-urban"}},{"type":"Feature","geometry":{"type":"MultiPolygon","coordinates":[[[[10.50129,43.84416],[10.49028,43.84446],[10.49058,43.85427],[10.50159,43.85338],[10.50129,43.84416]]]]},"properties":{"name":"Luca","class":"http://vocab.getty.edu/aat/300008347","type":"http://vocab.getty.edu/aat/300008347","kind":"urban-area","source":"awmc-urban"}},{"type":"Feature","geometry":{"type":"MultiPolygon","coordinates":[[[[10.40403,43.71567],[10.39094,43.71597],[10.39154,43.72787],[10.40462,43.72668],[10.40403,43.71567]]]]},"properties":{"name":"Pisae","class":"http://vocab.getty.edu/aat/300008347","type":"http://vocab.getty.edu/aat/300008347","kind":"urban-area","source":"awmc-urban"}},{"type":"Feature","geometry":{"type":"MultiPolygon","coordinates":[[[[15.5626,38.18002],[15.55879,38.18407],[15.5576,38.18978],[15.56284,38.18978],[15.56545,38.19192],[15.56759,38.19406],[15.56545,38.19597],[15.56593,38.19787],[15.56902,38.19811],[15.57307,38.19692],[15.57378,38.1943],[15.57259,38.19097],[15.56284,38.1824],[15.5626,38.18002]]]]},"properties":{"name":"Zancle/Messana","class":"http://vocab.getty.edu/aat/300008347","type":"http://vocab.getty.edu/aat/300008347","kind":"urban-area","source":"awmc-urban"}},{"type":"Feature","geometry":{"type":"MultiPolygon","coordinates":[[[[15.29467,37.07786],[15.29729,37.07524],[15.29277,37.06953],[15.29348,37.06763],[15.29776,37.06477],[15.29634,37.06358],[15.29063,37.06501],[15.29086,37.06858],[15.28896,37.07024],[15.28706,37.07024],[15.28848,37.06834],[15.28848,37.06596],[15.2911,37.06334],[15.28872,37.06263],[15.28515,37.0643],[15.28063,37.06786],[15.27968,37.07262],[15.2861,37.07619],[15.29205,37.07786],[15.29467,37.07786]]]]},"properties":{"name":"Syracuse","class":"http://vocab.getty.edu/aat/300008347","type":"http://vocab.getty.edu/aat/300008347","kind":"urban-area","source":"awmc-urban"}},{"type":"Feature","geometry":{"type":"MultiPolygon","coordinates":[[[[14.26056,37.06168],[14.25723,37.06096],[14.25056,37.06263],[14.24533,37.06644],[14.23867,37.06763],[14.23581,37.06977],[14.23867,37.07215],[14.24176,37.07262],[14.24604,37.07048],[14.25984,37.06715],[14.26056,37.06168]]]]},"properties":{"name":"Gela","class":"http://vocab.getty.edu/aat/300008347","type":"http://vocab.getty.edu/aat/300008347","kind":"urban-area","source":"awmc-urban"}},{"type":"Feature","geometry":{"type":"MultiPolygon","coordinates":[[[[13.60597,37.29272],[13.60573,37.29058],[13.60121,37.29082],[13.59693,37.29153],[13.59264,37.2932],[13.58241,37.29463],[13.57932,37.29986],[13.58217,37.30962],[13.57694,37.31081],[13.57313,37.31271],[13.57432,37.31509],[13.57789,37.31676],[13.58336,37.31723],[13.59145,37.31461],[13.60264,37.30843],[13.60573,37.29939],[13.60597,37.29272]]]]},"properties":{"name":"Akragas/Agrigentum","class":"http://vocab.getty.edu/aat/300008347","type":"http://vocab.getty.edu/aat/300008347","kind":"urban-area","source":"awmc-urban"}},{"type":"Feature","geometry":{"type":"MultiPolygon","coordinates":[[[[12.83621,37.58373],[12.83217,37.58302],[12.82312,37.58326],[12.82336,37.5854],[12.82146,37.58778],[12.82098,37.59373],[12.81908,37.59825],[12.82074,37.60634],[12.82312,37.60705],[12.83383,37.59991],[12.83478,37.59468],[12.83455,37.59016],[12.83621,37.58373]]]]},"properties":{"name":"Selinus","class":"http://vocab.getty.edu/aat/300008347","type":"http://vocab.getty.edu/aat/300008347","kind":"urban-area","source":"awmc-urban"}},{"type":"Feature","geometry":{"type":"MultiPolygon","coordinates":[[[[12.43765,37.81121],[12.45098,37.80312],[12.44907,37.79693],[12.44527,37.79098],[12.43575,37.7917],[12.43456,37.79717],[12.43004,37.80026],[12.42813,37.80407],[12.43051,37.80764],[12.43408,37.81002],[12.43765,37.81121]]]]},"properties":{"name":"Lilybaeum","class":"http://vocab.getty.edu/aat/300008347","type":"http://vocab.getty.edu/aat/300008347","kind":"urban-area","source":"awmc-urban"}},{"type":"Feature","geometry":{"type":"MultiPolygon","coordinates":[[[[13.36469,38.13981],[13.36088,38.13696],[13.35969,38.13267],[13.36112,38.13101],[13.36017,38.12791],[13.35731,38.12815],[13.34756,38.12672],[13.34327,38.12791],[13.34018,38.13148],[13.34113,38.13529],[13.34542,38.13529],[13.35969,38.13981],[13.36469,38.13981]]]]},"properties":{"name":"Pan(H)ormus","class":"http://vocab.getty.edu/aat/300008347","type":"http://vocab.getty.edu/aat/300008347","kind":"urban-area","source":"awmc-urban"}},{"type":"Feature","geometry":{"type":"MultiPolygon","coordinates":[[[[10.33662,36.85732],[10.32615,36.84352],[10.31902,36.83257],[10.31426,36.83376],[10.30902,36.839],[10.31188,36.84733],[10.31735,36.85732],[10.32877,36.86041],[10.33662,36.85732]]]]},"properties":{"name":"Carthago","class":"http://vocab.getty.edu/aat/300008347","type":"http://vocab.getty.edu/aat/300008347","kind":"urban-area","source":"awmc-urban"}}]}