{"type":"FeatureCollection","features":[{"type":"Feature","geometry":{"type":"MultiLineString","coordinates":[[[12.48265,41.66521],[12.49085,41.67662],[12.50119,41.68376]]]},"properties":{"kind":"aqueduct","source":"awmc-aqueducts"}},{"type":"Feature","geometry":{"type":"MultiLineString","coordinates":[[[12.42023,41.71],[12.41682,41.69927],[12.39087,41.68322]]]},"properties":{"kind":"aqueduct","source":"awmc-aqueducts"}},{"type":"Feature","geometry":{"type":"MultiLineString","coordinates":[[[12.4266,41.77187],[12.41355,41.77706],[12.40735,41.78148],[12.40281,41.78188],[12.40131,41.78496],[12.39729,41.78696],[12.39474,41.7915],[12.39149,41.7937],[12.38197,41.7942],[12.30121,41.76059],[12.29439,41.75573]]]},"properties":{"kind":"aqueduct","source":"awmc-aqueducts"}},{"type":"Feature","geometry":{"type":"MultiLineString","coordinates":[[[12.33721,41.81797],[12.33824,41.81209],[12.28167,41.79183],[12.27287,41.78187]]]},"properties":{"kind":"aqueduct","source":"awmc-aqueducts"}},{"type":"Feature","geometry":{"type":"MultiLineString","coordinates":[[[12.71639,41.88967],[12.72495,41.88917],[12.73565,41.88552],[12.73734,41.88401],[12.73953,41.87489],[12.73762,41.871]]]},"properties":{"kind":"aqueduct","source":"awmc-aqueducts"}},{"type":"Feature","geometry":{"type":"MultiLineString","coordinates":[[[12.74333,41.8713],[12.74295,41.87354],[12.73899,41.87711],[12.71866,41.87435],[12.6507,41.88643],[12.64033,41.89189],[12.60462,41.88179],[12.53859,41.87498],[12.53411,41.88244],[12.51639,41.89425]]]},"properties":{"kind":"aqueduct","source":"awmc-aqueducts"}},{"type":"Feature","geometry":{"type":"MultiLineString","coordinates":[[[12.51837,41.8948],[12.53388,41.88469],[12.55048,41.85699],[12.5579,41.84826],[12.57026,41.83868],[12.58472,41.82052],[12.59147,41.81471],[12.59838,41.81358],[12.60956,41.81453],[12.61984,41.82268],[12.63345,41.82913],[12.6585,41.83689],[12.667,41.84428],[12.6866,41.85033],[12.70418,41.85223],[12.71009,41.85136],[12.71852,41.8469],[12.71999,41.84859],[12.73542,41.8491],[12.74351,41.85608],[12.74796,41.86284],[12.7928,41.87289],[12.79905,41.88038],[12.7986,41.88441],[12.80185,41.88833],[12.80134,41.89],[12.80956,41.89732],[12.82203,41.89573],[12.82415,41.90732],[12.82845,41.9165],[12.82867,41.9216],[12.811,41.9243],[12.80468,41.92899],[12.80094,41.93569],[12.79349,41.94345],[12.79148,41.95537],[12.79277,41.95908],[12.79732,41.96082],[12.80412,41.95561],[12.81728,41.95272],[12.83314,41.95759],[12.84212,41.9586],[12.84494,41.96557],[12.84174,41.96906],[12.84184,41.97211],[12.85564,41.98332],[12.87164,41.99061],[12.87921,41.9982],[12.88335,42.00884],[12.88992,42.01507],[12.89297,42.01707],[12.9058,42.01942]]]},"properties":{"kind":"aqueduct","source":"awmc-aqueducts"}},{"type":"Feature","geometry":{"type":"MultiLineString","coordinates":[[[12.33608,42.04154],[12.33185,42.01234],[12.32858,42.00202],[12.33264,41.97771],[12.33758,41.96107],[12.34442,41.94905],[12.34762,41.93991],[12.35779,41.92296],[12.35867,41.91516],[12.36692,41.90185],[12.37399,41.8962],[12.39001,41.88879],[12.42943,41.89172],[12.44379,41.89012],[12.44466,41.89248],[12.44741,41.89322],[12.45062,41.89317],[12.44992,41.89167],[12.45151,41.88991],[12.45636,41.89145],[12.45956,41.89057]]]},"properties":{"kind":"aqueduct","source":"awmc-aqueducts"}},{"type":"Feature","geometry":{"type":"MultiLineString","coordinates":[[[12.35117,42.0437],[12.35714,42.03711],[12.35709,42.02551],[12.36874,42.0148],[12.37801,42.01403],[12.39707,41.99579],[12.40886,41.9888],[12.41467,41.95547],[12.42662,41.94108],[12.42685,41.92963],[12.42355,41.92094],[12.42888,41.89855],[12.43485,41.89279]]]},"properties":{"kind":"aqueduct","source":"awmc-aqueducts"}},{"type":"Feature","geometry":{"type":"MultiLineString","coordinates":[[[12.47813,41.91492],[12.47767,41.92095],[12.4862,41.9246],[12.49164,41.92498],[12.49636,41.93247],[12.49861,41.93283],[12.51217,41.9305],[12.52644,41.93134],[12.54073,41.92516],[12.54399,41.91399],[12.53889,41.90497],[12.54019,41.90184],[12.57508,41.90801],[12.58833,41.90488],[12.59131,41.9099]]]},"properties":{"kind":"aqueduct","source":"awmc-aqueducts"}},{"type":"Feature","geometry":{"type":"MultiLineString","coordinates":[[[12.62193,41.90211],[12.6106,41.90547],[12.59036,41.90653]]]},"properties":{"kind":"aqueduct","source":"awmc-aqueducts"}},{"type":"Feature","geometry":{"type":"MultiLineString","coordinates":[[[12.63772,41.91514],[12.63209,41.91508]]]},"properties":{"kind":"aqueduct","source":"awmc-aqueducts"}},{"type":"Feature","geometry":{"type":"MultiLineString","coordinates":[[[12.63521,41.91256],[12.63306,41.91427]]]},"properties":{"kind":"aqueduct","source":"awmc-aqueducts"}},{"type":"Feature","geometry":{"type":"MultiLineString","coordinates":[[[12.63029,41.91104],[12.63026,41.91457]]]},"properties":{"kind":"aqueduct","source":"awmc-aqueducts"}},{"type":"Feature","geometry":{"type":"MultiLineString","coordinates":[[[12.62852,41.91565],[12.61078,41.91618],[12.59983,41.91292],[12.59169,41.90596]]]},"properties":{"kind":"aqueduct","source":"awmc-aqueducts"}},{"type":"Feature","geometry":{"type":"MultiLineString","coordinates":[[[12.60158,41.84541],[12.60819,41.84379],[12.61638,41.84414],[12.62799,41.84061],[12.63474,41.83513]]]},"properties":{"kind":"aqueduct","source":"awmc-aqueducts"}},{"type":"Feature","geometry":{"type":"MultiLineString","coordinates":[[[12.67876,41.8034],[12.68042,41.79361],[12.68548,41.78941],[12.67578,41.78409],[12.66873,41.78418],[12.65844,41.79133],[12.64374,41.79433],[12.63495,41.79339],[12.62974,41.79998],[12.61508,41.8091],[12.60956,41.81453]]]},"properties":{"kind":"aqueduct","source":"awmc-aqueducts"}},{"type":"Feature","geometry":{"type":"MultiLineString","coordinates":[[[12.64118,41.79055],[12.64093,41.79358]]]},"properties":{"kind":"aqueduct","source":"awmc-aqueducts"}},{"type":"Feature","geometry":{"type":"MultiLineString","coordinates":[[[12.69033,41.79169],[12.68485,41.79011]]]},"properties":{"kind":"aqueduct","source":"awmc-aqueducts"}},{"type":"Feature","geometry":{"type":"MultiLineString","coordinates":[[[12.54562,41.83103],[12.5489,41.83158],[12.56235,41.82076],[12.57171,41.82166],[12.57684,41.82576],[12.57557,41.82869],[12.55923,41.84388],[12.55566,41.84899]]]},"properties":{"kind":"aqueduct","source":"awmc-aqueducts"}},{"type":"Feature","geometry":{"type":"MultiLineString","coordinates":[[[12.55044,41.85035],[12.54323,41.85747],[12.5345,41.87473],[12.5274,41.88427],[12.51937,41.88987]]]},"properties":{"kind":"aqueduct","source":"awmc-aqueducts"}},{"type":"Feature","geometry":{"type":"MultiLineString","coordinates":[[[12.52075,41.89312],[12.53468,41.8982],[12.57825,41.9053]]]},"properties":{"kind":"aqueduct","source":"awmc-aqueducts"}},{"type":"Feature","geometry":{"type":"MultiLineString","coordinates":[[[12.53116,41.89545],[12.54201,41.8989],[12.57476,41.90325]]]},"properties":{"kind":"aqueduct","source":"awmc-aqueducts"}},{"type":"Feature","geometry":{"type":"MultiLineString","coordinates":[[[12.5257,41.8878],[12.53486,41.87754],[12.54802,41.85322]]]},"properties":{"kind":"aqueduct","source":"awmc-aqueducts"}},{"type":"Feature","geometry":{"type":"MultiLineString","coordinates":[[[12.5593,41.84736],[12.57035,41.85199],[12.57417,41.85563]]]},"properties":{"kind":"aqueduct","source":"awmc-aqueducts"}},{"type":"Feature","geometry":{"type":"MultiLineString","coordinates":[[[12.57836,41.84417],[12.57706,41.84193],[12.57298,41.84108],[12.56598,41.84568],[12.5593,41.84736]]]},"properties":{"kind":"aqueduct","source":"awmc-aqueducts"}},{"type":"Feature","geometry":{"type":"MultiLineString","coordinates":[[[12.56074,41.84698],[12.57045,41.83974],[12.57629,41.83118]]]},"properties":{"kind":"aqueduct","source":"awmc-aqueducts"}},{"type":"Feature","geometry":{"type":"MultiLineString","coordinates":[[[12.57149,41.84174],[12.57946,41.83016],[12.60768,41.82827],[12.63341,41.83469],[12.65361,41.83725],[12.65973,41.84087],[12.67242,41.85424],[12.67866,41.85863],[12.6881,41.85476],[12.7008,41.85591],[12.72283,41.85455],[12.72668,41.85629],[12.73178,41.86395],[12.78849,41.87406],[12.79651,41.88343],[12.79457,41.8872],[12.79761,41.88875],[12.79577,41.89194],[12.79816,41.8928],[12.79751,41.89664],[12.803,41.89457],[12.80345,41.89943],[12.81494,41.89913],[12.82527,41.89574],[12.82588,41.89712],[12.81784,41.90153],[12.82333,41.90953],[12.82698,41.91934],[12.82696,41.92083],[12.82422,41.92161],[12.81581,41.92179],[12.80792,41.92398],[12.80328,41.92733],[12.7976,41.93865],[12.79222,41.94284],[12.79043,41.95116],[12.79106,41.96017],[12.79473,41.96304],[12.80839,41.95584],[12.81841,41.95431],[12.82479,41.95565],[12.82645,41.95753],[12.82501,41.96199],[12.83385,41.96975],[12.83446,41.97297],[12.8367,41.97473],[12.83701,41.97883],[12.84665,41.98369],[12.84646,41.98757],[12.8483,41.98849],[12.85518,41.9846],[12.87007,41.99088],[12.87299,41.99551],[12.87769,41.99911],[12.88124,42.0091],[12.8877,42.01722],[12.90246,42.02048],[12.9199,42.02148],[12.93031,42.02944],[12.94965,42.03985],[12.95524,42.04094],[12.9708,42.0355],[12.97472,42.0323],[13.00055,42.02047],[13.00381,42.02169],[13.00885,42.02095],[13.02124,42.01052],[13.02226,42.00201]]]},"properties":{"kind":"aqueduct","source":"awmc-aqueducts"}},{"type":"Feature","geometry":{"type":"MultiLineString","coordinates":[[[12.2134,44.42377],[12.20093,44.39156],[12.19593,44.3836],[12.1571,44.35958],[12.13764,44.34381],[12.11992,44.33213],[12.11477,44.32237],[12.10473,44.28002],[12.09161,44.24093],[12.07273,44.16613],[12.0704,44.15199],[12.06365,44.13492],[12.05797,44.11473]]]},"properties":{"kind":"aqueduct","source":"awmc-aqueducts"}},{"type":"Feature","geometry":{"type":"MultiLineString","coordinates":[[[11.25627,44.37716],[11.25065,44.38874],[11.25298,44.39207],[11.27671,44.40305],[11.27876,44.40445],[11.28095,44.41015],[11.27887,44.41565],[11.27958,44.42215],[11.28933,44.43838],[11.28951,44.46268],[11.28803,44.46848],[11.30698,44.47183],[11.31797,44.47675],[11.31947,44.48261],[11.31864,44.48681],[11.3227,44.48984],[11.3343,44.49339],[11.33832,44.49999]]]},"properties":{"kind":"aqueduct","source":"awmc-aqueducts"}},{"type":"Feature","geometry":{"type":"MultiLineString","coordinates":[[[11.28826,44.46898],[11.28865,44.48211],[11.29701,44.49367],[11.30241,44.49659],[11.30833,44.49696],[11.31498,44.49525],[11.3227,44.48984]]]},"properties":{"kind":"aqueduct","source":"awmc-aqueducts"}},{"type":"Feature","geometry":{"type":"MultiLineString","coordinates":[[[12.50134,41.87763],[12.52806,41.88338]]]},"properties":{"name":"Aqua Antoniniana","kind":"aqueduct","source":"awmc-aqueducts"}},{"type":"Feature","geometry":{"type":"MultiLineString","coordinates":[[[12.84171,41.95793],[12.84028,41.94202],[12.83567,41.93212],[12.82942,41.9259],[12.81765,41.92508],[12.81128,41.92716],[12.79822,41.94161],[12.79423,41.95157],[12.79427,41.95587],[12.79668,41.95906],[12.80493,41.95267],[12.81179,41.95073],[12.82026,41.95066],[12.8254,41.95428]]]},"properties":{"kind":"aqueduct","source":"awmc-aqueducts"}},{"type":"Feature","geometry":{"type":"MultiLineString","coordinates":[[[10.3198,36.86077],[10.3087,36.86702],[10.25562,36.86415],[10.16562,36.86577],[10.13886,36.85957],[10.12626,36.85475],[10.11323,36.84046],[10.10947,36.83891],[10.08011,36.84396],[10.06992,36.84306],[10.0535,36.83233],[10.05195,36.82634],[10.05274,36.81992],[10.07864,36.81408],[10.09117,36.80042],[10.09303,36.79305],[10.09017,36.761],[10.08635,36.75038],[10.08757,36.74401],[10.0986,36.73343],[10.10182,36.72839],[10.10256,36.71979],[10.11233,36.7134],[10.12356,36.71117],[10.12582,36.70638],[10.13444,36.706],[10.1389,36.69206],[10.1458,36.68893],[10.15015,36.68259],[10.15029,36.66775],[10.13528,36.64271],[10.13572,36.62393],[10.13339,36.60318],[10.12987,36.59332],[10.11593,36.57928],[10.09657,36.57253],[10.07063,36.55082],[10.03357,36.5404],[10.02173,36.53421],[10.01587,36.52732],[10.01461,36.51521],[10.02706,36.48307],[10.03412,36.472],[10.04046,36.467],[10.05745,36.4626],[10.062,36.4599],[10.06518,36.44798],[10.07034,36.44211],[10.08256,36.44617],[10.09553,36.45575]]]},"properties":{"kind":"aqueduct","source":"awmc-aqueducts"}},{"type":"Feature","geometry":{"type":"MultiLineString","coordinates":[[[10.07152,36.44062],[10.10006,36.42027],[10.11956,36.41437],[10.12316,36.41192],[10.12751,36.40087],[10.13118,36.38394]]]},"properties":{"kind":"aqueduct","source":"awmc-aqueducts"}},{"type":"Feature","geometry":{"type":"MultiLineString","coordinates":[[[10.79906,36.58908],[10.82276,36.5969],[10.83372,36.59453],[10.84161,36.59064]]]},"properties":{"kind":"aqueduct","source":"awmc-aqueducts"}},{"type":"Feature","geometry":{"type":"MultiLineString","coordinates":[[[10.49171,36.53267],[10.49946,36.53723],[10.512,36.53814]]]},"properties":{"kind":"aqueduct","source":"awmc-aqueducts"}},{"type":"Feature","geometry":{"type":"MultiLineString","coordinates":[[[10.46194,36.55803],[10.47691,36.56799]]]},"properties":{"kind":"aqueduct","source":"awmc-aqueducts"}},{"type":"Feature","geometry":{"type":"MultiLineString","coordinates":[[[10.44491,36.60122],[10.4754,36.6203]]]},"properties":{"kind":"aqueduct","source":"awmc-aqueducts"}},{"type":"Feature","geometry":{"type":"MultiLineString","coordinates":[[[10.3618,36.44747],[10.35288,36.43129],[10.35585,36.42743],[10.36199,36.42456]]]},"properties":{"kind":"aqueduct","source":"awmc-aqueducts"}},{"type":"Feature","geometry":{"type":"MultiLineString","coordinates":[[[10.32847,36.63093],[10.34976,36.6272]]]},"properties":{"kind":"aqueduct","source":"awmc-aqueducts"}},{"type":"Feature","geometry":{"type":"MultiLineString","coordinates":[[[9.71844,36.5958],[9.73065,36.60612],[9.73896,36.60959],[9.73919,36.61989]]]},"properties":{"kind":"aqueduct","source":"awmc-aqueducts"}},{"type":"Feature","geometry":{"type":"MultiLineString","coordinates":[[[9.34349,36.48512],[9.35459,36.49322]]]},"properties":{"kind":"aqueduct","source":"awmc-aqueducts"}},{"type":"Feature","geometry":{"type":"MultiLineString","coordinates":[[[9.26843,36.50097],[9.24617,36.49441]]]},"properties":{"kind":"aqueduct","source":"awmc-aqueducts"}},{"type":"Feature","geometry":{"type":"MultiLineString","coordinates":[[[9.09456,36.37486],[9.10101,36.38177],[9.13403,36.39221],[9.14883,36.40959],[9.15709,36.41311],[9.17574,36.41891],[9.21394,36.42426]]]},"properties":{"kind":"aqueduct","source":"awmc-aqueducts"}},{"type":"Feature","geometry":{"type":"MultiLineString","coordinates":[[[8.56864,36.51427],[8.57428,36.49432]]]},"properties":{"kind":"aqueduct","source":"awmc-aqueducts"}},{"type":"Feature","geometry":{"type":"MultiLineString","coordinates":[[[9.73965,36.85252],[9.81201,36.8484],[9.82662,36.84589],[9.83514,36.83151]]]},"properties":{"kind":"aqueduct","source":"awmc-aqueducts"}},{"type":"Feature","geometry":{"type":"MultiLineString","coordinates":[[[10.27978,36.45073],[10.29324,36.44587],[10.29303,36.43908]]]},"properties":{"kind":"aqueduct","source":"awmc-aqueducts"}},{"type":"Feature","geometry":{"type":"MultiLineString","coordinates":[[[10.3016,36.4475],[10.31356,36.43955]]]},"properties":{"kind":"aqueduct","source":"awmc-aqueducts"}},{"type":"Feature","geometry":{"type":"MultiLineString","coordinates":[[[10.24775,45.55413],[10.23796,45.543]]]},"properties":{"kind":"aqueduct","source":"awmc-aqueducts"}},{"type":"Feature","geometry":{"type":"MultiLineString","coordinates":[[[10.22129,45.57628],[10.24228,45.57537],[10.25001,45.56446],[10.2496,45.56141],[10.25355,45.55506],[10.25367,45.55055],[10.25163,45.54612],[10.24718,45.54293],[10.23765,45.54146]]]},"properties":{"kind":"aqueduct","source":"awmc-aqueducts"}},{"type":"Feature","geometry":{"type":"MultiLineString","coordinates":[[[10.26322,45.59147],[10.2555,45.58658],[10.24599,45.58495],[10.24289,45.58146],[10.24228,45.57537]]]},"properties":{"kind":"aqueduct","source":"awmc-aqueducts"}},{"type":"Feature","geometry":{"type":"MultiLineString","coordinates":[[[8.57491,45.51866],[8.59733,45.51634],[8.60192,45.50366],[8.60312,45.49237],[8.609,45.48699],[8.60886,45.47911],[8.61893,45.45636],[8.61994,45.45005]]]},"properties":{"kind":"aqueduct","source":"awmc-aqueducts"}},{"type":"Feature","geometry":{"type":"MultiLineString","coordinates":[[[8.45946,44.65859],[8.46834,44.67043],[8.47275,44.68172]]]},"properties":{"kind":"aqueduct","source":"awmc-aqueducts"}},{"type":"Feature","geometry":{"type":"MultiLineString","coordinates":[[[8.92004,44.65222],[8.91847,44.66469],[8.90274,44.66903]]]},"properties":{"kind":"aqueduct","source":"awmc-aqueducts"}},{"type":"Feature","geometry":{"type":"MultiLineString","coordinates":[[[8.90274,44.66903],[8.89677,44.68169],[8.87174,44.69423],[8.86652,44.70937]]]},"properties":{"kind":"aqueduct","source":"awmc-aqueducts"}},{"type":"Feature","geometry":{"type":"MultiLineString","coordinates":[[[8.84607,44.82296],[8.85628,44.85639],[8.86256,44.89297],[8.8609,44.90094]]]},"properties":{"kind":"aqueduct","source":"awmc-aqueducts"}},{"type":"Feature","geometry":{"type":"MultiLineString","coordinates":[[[11.50309,45.5989],[11.52487,45.57324],[11.54455,45.55488],[11.54737,45.5547]]]},"properties":{"kind":"aqueduct","source":"awmc-aqueducts"}},{"type":"Feature","geometry":{"type":"MultiLineString","coordinates":[[[9.01553,36.61714],[9.01072,36.60866]]]},"properties":{"kind":"aqueduct","source":"awmc-aqueducts"}},{"type":"Feature","geometry":{"type":"MultiLineString","coordinates":[[[9.73728,36.73837],[9.7462,36.73659]]]},"properties":{"kind":"aqueduct","source":"awmc-aqueducts"}},{"type":"Feature","geometry":{"type":"MultiLineString","coordinates":[[[9.81812,37.3359],[9.83091,37.33768],[9.85113,37.33322]]]},"properties":{"kind":"aqueduct","source":"awmc-aqueducts"}},{"type":"Feature","geometry":{"type":"MultiLineString","coordinates":[[[9.82734,37.32519],[9.83002,37.31775]]]},"properties":{"kind":"aqueduct","source":"awmc-aqueducts"}},{"type":"Feature","geometry":{"type":"MultiLineString","coordinates":[[[9.72889,36.96395],[9.73067,36.95395]]]},"properties":{"kind":"aqueduct","source":"awmc-aqueducts"}},{"type":"Feature","geometry":{"type":"MultiLineString","coordinates":[[[9.65727,36.89839],[9.66619,36.89542]]]},"properties":{"kind":"aqueduct","source":"awmc-aqueducts"}},{"type":"Feature","geometry":{"type":"MultiLineString","coordinates":[[[11.85552,46.0608],[11.87646,46.05414],[11.90359,46.03606],[11.91311,46.03225]]]},"properties":{"kind":"aqueduct","source":"awmc-aqueducts"}},{"type":"Feature","geometry":{"type":"MultiLineString","coordinates":[[[13.84111,45.63135],[13.82255,45.63278],[13.81494,45.63801],[13.80495,45.64848],[13.78543,45.64991]]]},"properties":{"kind":"aqueduct","source":"awmc-aqueducts"}},{"type":"Feature","geometry":{"type":"MultiLineString","coordinates":[[[13.67693,45.51857],[13.6617,45.53617]]]},"properties":{"kind":"aqueduct","source":"awmc-aqueducts"}},{"type":"Feature","geometry":{"type":"MultiLineString","coordinates":[[[13.58066,45.47573],[13.53545,45.49001],[13.51546,45.50143]]]},"properties":{"kind":"aqueduct","source":"awmc-aqueducts"}},{"type":"Feature","geometry":{"type":"MultiLineString","coordinates":[[[13.61177,45.17716],[13.64246,45.17716]]]},"properties":{"kind":"aqueduct","source":"awmc-aqueducts"}},{"type":"Feature","geometry":{"type":"MultiLineString","coordinates":[[[14.45683,46.10223],[14.47825,46.07987],[14.48205,46.0732],[14.49728,46.06178],[14.50733,46.05694]]]},"properties":{"kind":"aqueduct","source":"awmc-aqueducts"}},{"type":"Feature","geometry":{"type":"MultiLineString","coordinates":[[[14.15845,45.1881],[14.17808,45.18572]]]},"properties":{"kind":"aqueduct","source":"awmc-aqueducts"}},{"type":"Feature","geometry":{"type":"MultiLineString","coordinates":[[[14.88681,44.57269],[14.88843,44.56629],[14.88224,44.55285]]]},"properties":{"kind":"aqueduct","source":"awmc-aqueducts"}},{"type":"Feature","geometry":{"type":"MultiLineString","coordinates":[[[14.91199,44.54809],[14.91008,44.54476],[14.91056,44.53905],[14.91675,44.52667],[14.9215,44.52096],[14.94387,44.49859],[14.98337,44.46957]]]},"properties":{"kind":"aqueduct","source":"awmc-aqueducts"}},{"type":"Feature","geometry":{"type":"MultiLineString","coordinates":[[[15.81945,46.50786],[15.8223,46.50167],[15.83135,46.48978],[15.85324,46.46598]]]},"properties":{"kind":"aqueduct","source":"awmc-aqueducts"}},{"type":"Feature","geometry":{"type":"MultiLineString","coordinates":[[[15.64099,46.48264],[15.67859,46.47502],[15.85514,46.43076]]]},"properties":{"kind":"aqueduct","source":"awmc-aqueducts"}},{"type":"Feature","geometry":{"type":"MultiLineString","coordinates":[[[15.52824,45.88372],[15.49541,45.91132],[15.4897,45.91751],[15.48636,45.92417]]]},"properties":{"kind":"aqueduct","source":"awmc-aqueducts"}},{"type":"Feature","geometry":{"type":"MultiLineString","coordinates":[[[15.2344,44.20928],[15.18823,44.23402]]]},"properties":{"kind":"aqueduct","source":"awmc-aqueducts"}},{"type":"Feature","geometry":{"type":"MultiLineString","coordinates":[[[15.33195,44.13028],[15.28056,44.10125],[15.27342,44.09887],[15.24534,44.10601]],[[15.27342,44.09887],[15.29626,44.08792],[15.32529,44.06889],[15.34861,44.04795],[15.40857,44.00512],[15.46187,43.9561],[15.48805,43.93707],[15.49471,43.93469],[15.50375,43.93516],[15.53754,43.94849],[15.55086,43.95182],[15.55895,43.95182],[15.56562,43.94801],[15.57038,43.94278],[15.5856,43.93373]]]},"properties":{"kind":"aqueduct","source":"awmc-aqueducts"}},{"type":"Feature","geometry":{"type":"MultiLineString","coordinates":[[[15.71167,44.0508],[15.70489,44.04402],[15.69346,44.02475]]]},"properties":{"kind":"aqueduct","source":"awmc-aqueducts"}},{"type":"Feature","geometry":{"type":"MultiLineString","coordinates":[[[15.87993,43.89571],[15.91133,43.87965],[15.9613,43.84824],[15.9638,43.84218],[15.96166,43.83682],[15.95452,43.83218],[15.92525,43.82576]]]},"properties":{"kind":"aqueduct","source":"awmc-aqueducts"}},{"type":"Feature","geometry":{"type":"MultiLineString","coordinates":[[[16.13142,44.15763],[16.12809,44.14288],[16.12844,44.13098],[16.13237,44.11099],[16.13237,44.09065],[16.13023,44.07602],[16.12559,44.06317],[16.12059,44.05746],[16.08918,44.04175],[16.04528,44.02855],[16.00638,44.00927]]]},"properties":{"kind":"aqueduct","source":"awmc-aqueducts"}},{"type":"Feature","geometry":{"type":"MultiLineString","coordinates":[[[16.30846,45.35504],[16.32274,45.37324],[16.32488,45.39965],[16.32274,45.40608],[16.30882,45.41643],[16.30632,45.42499],[16.30811,45.43035],[16.32488,45.43891],[16.3438,45.44105],[16.37306,45.44034],[16.37949,45.44462],[16.3852,45.46818]]]},"properties":{"kind":"aqueduct","source":"awmc-aqueducts"}},{"type":"Feature","geometry":{"type":"MultiLineString","coordinates":[[[11.69384,45.27331],[11.69146,45.26998],[11.68622,45.26807],[11.64934,45.26784],[11.64197,45.26379],[11.64078,45.25856],[11.64339,45.25118],[11.65951,45.23322]]]},"properties":{"kind":"aqueduct","source":"awmc-aqueducts"}},{"type":"Feature","geometry":{"type":"MultiLineString","coordinates":[[[12.37103,44.08886],[12.3775,44.08905],[12.38816,44.09381]]]},"properties":{"kind":"aqueduct","source":"awmc-aqueducts"}},{"type":"Feature","geometry":{"type":"MultiLineString","coordinates":[[[10.42162,43.76074],[10.41597,43.74944],[10.3999,43.72802]]]},"properties":{"kind":"aqueduct","source":"awmc-aqueducts"}},{"type":"Feature","geometry":{"type":"MultiLineString","coordinates":[[[12.17648,42.16674],[12.18267,42.16389],[12.191,42.1627],[12.20765,42.16674],[12.21503,42.16698],[12.22978,42.16579],[12.24001,42.16293],[12.24953,42.16579],[12.26,42.16365],[12.26238,42.16222],[12.26333,42.15508],[12.26571,42.1527],[12.28356,42.14818],[12.28856,42.14461],[12.28522,42.12344],[12.28522,42.0956],[12.2945,42.08965],[12.32068,42.08394]]]},"properties":{"kind":"aqueduct","source":"awmc-aqueducts"}},{"type":"Feature","geometry":{"type":"MultiLineString","coordinates":[[[12.31306,42.10678],[12.3121,42.08557]]]},"properties":{"kind":"aqueduct","source":"awmc-aqueducts"}},{"type":"Feature","geometry":{"type":"MultiLineString","coordinates":[[[11.17894,43.88512],[11.1718,43.87941],[11.17133,43.87631],[11.18798,43.87132],[11.1837,43.86061],[11.18798,43.85133],[11.19655,43.84395],[11.21249,43.838],[11.23391,43.81516],[11.25056,43.77495]]]},"properties":{"kind":"aqueduct","source":"awmc-aqueducts"}},{"type":"Feature","geometry":{"type":"MultiLineString","coordinates":[[[11.93258,43.4714],[11.88333,43.46997]]]},"properties":{"kind":"aqueduct","source":"awmc-aqueducts"}},{"type":"Feature","geometry":{"type":"MultiLineString","coordinates":[[[11.87949,42.17302],[11.87901,42.16136],[11.87615,42.1635],[11.86973,42.1635],[11.86711,42.15398],[11.86093,42.15517],[11.85188,42.16207],[11.8426,42.16255],[11.83737,42.16041],[11.83832,42.15398],[11.84332,42.14756],[11.84332,42.1447],[11.8388,42.14209],[11.82476,42.14137],[11.81857,42.13876],[11.81595,42.13495],[11.81833,42.11758],[11.82642,42.12091]]]},"properties":{"kind":"aqueduct","source":"awmc-aqueducts"}},{"type":"Feature","geometry":{"type":"MultiLineString","coordinates":[[[12.79334,42.74534],[12.78287,42.74701],[12.74385,42.74701]]]},"properties":{"kind":"aqueduct","source":"awmc-aqueducts"}},{"type":"Feature","geometry":{"type":"MultiLineString","coordinates":[[[13.27116,42.39574],[13.29686,42.3955]]]},"properties":{"kind":"aqueduct","source":"awmc-aqueducts"}},{"type":"Feature","geometry":{"type":"MultiLineString","coordinates":[[[12.87576,41.99184],[12.88169,41.99796],[12.8849,42.00783],[12.8968,42.01604],[12.91899,42.01568],[12.92398,42.01705],[12.93169,42.02556],[12.95316,42.03615],[12.96372,42.03395],[12.9876,42.02324],[12.99361,42.018],[13.01729,42.00795],[13.01708,41.99712],[13.02023,41.99153],[13.03516,41.96976],[13.04703,41.95899],[13.05066,41.95346],[13.05911,41.94674],[13.07169,41.92741],[13.09001,41.92491],[13.09334,41.923],[13.10012,41.92467]]]},"properties":{"kind":"aqueduct","source":"awmc-aqueducts"}},{"type":"Feature","geometry":{"type":"MultiLineString","coordinates":[[[12.57684,41.82576],[12.58005,41.82324],[12.58355,41.81611],[12.58933,41.81168],[12.59982,41.8099],[12.6106,41.81061],[12.63762,41.82075],[12.6484,41.8286],[12.66039,41.83302],[12.6636,41.83602],[12.69094,41.84273],[12.74652,41.84709],[12.74944,41.85587],[12.75287,41.86036],[12.76757,41.86579],[12.79181,41.87079],[12.80195,41.86864],[12.80687,41.87021],[12.83218,41.88206],[12.8351,41.88678],[12.8361,41.8937],[12.83246,41.90012],[12.83375,41.90655],[12.83225,41.90926],[12.83275,41.92033],[12.82975,41.92489]]]},"properties":{"kind":"aqueduct","source":"awmc-aqueducts"}},{"type":"Feature","geometry":{"type":"MultiLineString","coordinates":[[[13.02479,41.99812],[13.01885,42.0002],[13.01992,42.00936],[13.00611,42.02025],[12.99808,42.01983],[12.96766,42.03518],[12.96061,42.03601],[12.95543,42.0394],[12.95032,42.03851],[12.94127,42.03208],[12.93149,42.02857],[12.92655,42.02358],[12.92054,42.02036],[12.91352,42.01888],[12.90297,42.01929],[12.89095,42.01424],[12.88447,42.00865],[12.88096,41.99895],[12.87388,41.99015],[12.85666,41.98217],[12.84946,41.9839],[12.84851,41.98206],[12.83926,41.97765],[12.83533,41.96873],[12.82861,41.96242],[12.82944,41.95665],[12.82831,41.95564],[12.81849,41.95201],[12.8135,41.95213],[12.80544,41.95374],[12.79764,41.95981],[12.79354,41.95832],[12.79413,41.94541],[12.80782,41.92757],[12.81632,41.92412],[12.82947,41.92287],[12.8312,41.9171],[12.83067,41.90692],[12.83453,41.903],[12.83715,41.89711],[12.83745,41.89402],[12.83031,41.88521],[12.82263,41.88587],[12.81597,41.87599],[12.80318,41.87034],[12.79274,41.87195],[12.75232,41.86552],[12.74622,41.85648],[12.73968,41.84988],[12.73516,41.8475],[12.6851,41.84345],[12.67502,41.83673],[12.66705,41.83512],[12.6498,41.82721],[12.639,41.81924],[12.62121,41.81365],[12.61675,41.81502],[12.60179,41.81091],[12.58912,41.81353],[12.58543,41.81644],[12.58168,41.82335],[12.57678,41.82702]]]},"properties":{"kind":"aqueduct","source":"awmc-aqueducts"}},{"type":"Feature","geometry":{"type":"MultiLineString","coordinates":[[[12.65101,41.48868],[12.63909,41.46755],[12.62525,41.45627],[12.62467,41.45113]]]},"properties":{"kind":"aqueduct","source":"awmc-aqueducts"}},{"type":"Feature","geometry":{"type":"MultiLineString","coordinates":[[[12.61372,41.46455],[12.61422,41.46041],[12.62036,41.45092]]]},"properties":{"kind":"aqueduct","source":"awmc-aqueducts"}}]}