{"type":"FeatureCollection","features":[{"type":"Feature","geometry":{"type":"MultiLineString","coordinates":[[[12.11814,44.94848],[12.09435,44.8884],[12.08929,44.87174],[12.09256,44.86133],[12.10803,44.84586],[12.1113,44.82891],[12.12141,44.79322],[12.12439,44.78727],[12.12379,44.77359],[12.12141,44.76794],[12.10535,44.75544],[12.07769,44.73879],[12.06996,44.7254]]]},"properties":{"name":"Fossa Flavia","kind":"aqueduct","source":"awmc-canals"}},{"type":"Feature","geometry":{"type":"MultiLineString","coordinates":[[[12.09952,44.63514],[12.09571,44.61634],[12.0988,44.59445],[12.10618,44.57827],[12.12426,44.55686],[12.13545,44.53973],[12.14901,44.51022],[12.16233,44.48714],[12.16685,44.48119],[12.17804,44.47619],[12.19755,44.45549],[12.21135,44.43574],[12.21325,44.42646]]]},"properties":{"name":"Fossa Augusta","kind":"aqueduct","source":"awmc-canals"}},{"type":"Feature","geometry":{"type":"MultiLineString","coordinates":[[[12.28149,41.7889],[12.25208,41.79497]]]},"properties":{"kind":"aqueduct","source":"awmc-canals"}},{"type":"Feature","geometry":{"type":"MultiLineString","coordinates":[[[12.27678,41.77706],[12.25729,41.77534]]]},"properties":{"kind":"aqueduct","source":"awmc-canals"}},{"type":"Feature","geometry":{"type":"MultiLineString","coordinates":[[[12.31495,41.73878],[12.30503,41.72914]]]},"properties":{"kind":"aqueduct","source":"awmc-canals"}},{"type":"Feature","geometry":{"type":"MultiLineString","coordinates":[[[12.65485,41.74554],[12.64243,41.73976]]]},"properties":{"kind":"aqueduct","source":"awmc-canals"}},{"type":"Feature","geometry":{"type":"MultiLineString","coordinates":[[[12.6937,41.71283],[12.66981,41.70892],[12.66506,41.70036],[12.66011,41.70131],[12.65411,41.69274]]]},"properties":{"kind":"aqueduct","source":"awmc-canals"}},{"type":"Feature","geometry":{"type":"MultiLineString","coordinates":[[[12.98305,41.43531],[12.96297,41.44949],[12.94879,41.467],[12.93813,41.49603]]]},"properties":{"kind":"aqueduct","source":"awmc-canals"}},{"type":"Feature","geometry":{"type":"MultiLineString","coordinates":[[[12.97687,41.43626],[12.90001,41.47747]]]},"properties":{"kind":"aqueduct","source":"awmc-canals"}},{"type":"Feature","geometry":{"type":"MultiLineString","coordinates":[[[13.03459,41.4336],[12.94688,41.50165],[12.95555,41.50898]]]},"properties":{"kind":"aqueduct","source":"awmc-canals"}},{"type":"Feature","geometry":{"type":"MultiLineString","coordinates":[[[12.97591,41.48461],[12.95011,41.50438]]]},"properties":{"kind":"aqueduct","source":"awmc-canals"}},{"type":"Feature","geometry":{"type":"MultiLineString","coordinates":[[[13.00706,41.45519],[13.00218,41.45292],[12.99162,41.45425],[12.96887,41.47195]]]},"properties":{"kind":"aqueduct","source":"awmc-canals"}},{"type":"Feature","geometry":{"type":"MultiLineString","coordinates":[[[13.04401,41.43483],[12.991,41.47671],[12.98576,41.48357]]]},"properties":{"kind":"aqueduct","source":"awmc-canals"}},{"type":"Feature","geometry":{"type":"MultiLineString","coordinates":[[[13.06162,41.43398],[13.0068,41.47652],[13.00404,41.47557]]]},"properties":{"kind":"aqueduct","source":"awmc-canals"}},{"type":"Feature","geometry":{"type":"MultiLineString","coordinates":[[[13.00794,41.47195],[12.98091,41.49765]]]},"properties":{"kind":"aqueduct","source":"awmc-canals"}},{"type":"Feature","geometry":{"type":"MultiLineString","coordinates":[[[12.98091,41.48937],[12.97653,41.47877]]]},"properties":{"kind":"aqueduct","source":"awmc-canals"}},{"type":"Feature","geometry":{"type":"MultiLineString","coordinates":[[[13.04106,41.46529],[13.03526,41.46843],[13.01594,41.48671]]]},"properties":{"kind":"aqueduct","source":"awmc-canals"}}]}