{"type":"FeatureCollection","features":[{"type":"Feature","geometry":{"type":"MultiPolygon","coordinates":[[[[8.19266,47.13698],[8.18516,47.12448],[8.14733,47.14054],[8.12556,47.15875],[8.1252,47.17624],[8.12913,47.17945],[8.14376,47.17517],[8.14804,47.16767],[8.15697,47.1641],[8.16553,47.15518],[8.18445,47.14768],[8.19266,47.13698]]]]},"properties":{"class":"lake","kind":"lake","source":"awmc-inland-water"}},{"type":"Feature","geometry":{"type":"MultiPolygon","coordinates":[[[[14.59392,46.60691],[14.58785,46.60191],[14.57928,46.6062],[14.59392,46.60691]]]]},"properties":{"class":"lake","kind":"lake","source":"awmc-inland-water"}},{"type":"Feature","geometry":{"type":"MultiPolygon","coordinates":[[[[16.96074,46.39121],[16.96859,46.39014],[16.96752,46.38479],[16.95932,46.38229],[16.96074,46.39121]]]]},"properties":{"class":"lake","kind":"lake","source":"awmc-inland-water"}},{"type":"Feature","geometry":{"type":"MultiPolygon","coordinates":[[[[17.2063,46.31198],[17.21344,46.31554],[17.21558,46.30698],[17.21308,46.30377],[17.20809,46.30412],[17.2063,46.31198]]]]},"properties":{"class":"lake","kind":"lake","source":"awmc-inland-water"}},{"type":"Feature","geometry":{"type":"MultiPolygon","coordinates":[[[[16.90911,46.24],[16.92874,46.24071],[16.91125,46.23571],[16.90839,46.23607],[16.90911,46.24]]]]},"properties":{"class":"lake","kind":"lake","source":"awmc-inland-water"}},{"type":"Feature","geometry":{"type":"MultiPolygon","coordinates":[[[[18.68883,45.90544],[18.69204,45.9083],[18.69668,45.9058],[18.70096,45.89759],[18.69132,45.90009],[18.68883,45.90544]]]]},"properties":{"class":"lake","kind":"lake","source":"awmc-inland-water"}},{"type":"Feature","geometry":{"type":"MultiPolygon","coordinates":[[[[18.18095,45.57672],[18.18881,45.57244],[18.18881,45.5678],[18.18167,45.56744],[18.17846,45.57494],[18.18095,45.57672]]]]},"properties":{"class":"lake","kind":"lake","source":"awmc-inland-water"}},{"type":"Feature","geometry":{"type":"MultiPolygon","coordinates":[[[[18.41961,45.70117],[18.42461,45.70902],[18.43246,45.70724],[18.43211,45.69796],[18.42675,45.70295],[18.41961,45.70117]]]]},"properties":{"class":"lake","kind":"lake","source":"awmc-inland-water"}},{"type":"Feature","geometry":{"type":"MultiPolygon","coordinates":[[[[18.47458,45.71366],[18.48243,45.71687],[18.49243,45.71259],[18.49707,45.70652],[18.49064,45.70509],[18.48921,45.70831],[18.47636,45.7108],[18.47458,45.71366]]]]},"properties":{"class":"lake","kind":"lake","source":"awmc-inland-water"}},{"type":"Feature","geometry":{"type":"MultiPolygon","coordinates":[[[[18.50991,45.69296],[18.51777,45.6926],[18.51527,45.68261],[18.5117,45.68296],[18.50991,45.69296]]]]},"properties":{"class":"lake","kind":"lake","source":"awmc-inland-water"}},{"type":"Feature","geometry":{"type":"MultiPolygon","coordinates":[[[[18.56524,45.64442],[18.57023,45.64442],[18.57416,45.64049],[18.57273,45.63799],[18.56666,45.63799],[18.56524,45.64442]]]]},"properties":{"class":"lake","kind":"lake","source":"awmc-inland-water"}},{"type":"Feature","geometry":{"type":"MultiPolygon","coordinates":[[[[18.63055,45.61979],[18.6409,45.61836],[18.64197,45.60944],[18.63519,45.60873],[18.63519,45.61515],[18.63055,45.61979]]]]},"properties":{"class":"lake","kind":"lake","source":"awmc-inland-water"}},{"type":"Feature","geometry":{"type":"MultiPolygon","coordinates":[[[[18.66803,45.6073],[18.67303,45.60873],[18.67588,45.60516],[18.66803,45.6073]]]]},"properties":{"class":"lake","kind":"lake","source":"awmc-inland-water"}},{"type":"Feature","geometry":{"type":"MultiPolygon","coordinates":[[[[16.71628,45.35779],[16.72234,45.35529],[16.71913,45.34958],[16.7277,45.34958],[16.71556,45.3428],[16.71199,45.34458],[16.70914,45.35315],[16.71628,45.35779]]]]},"properties":{"class":"lake","kind":"lake","source":"awmc-inland-water"}},{"type":"Feature","geometry":{"type":"MultiPolygon","coordinates":[[[[15.72856,45.58938],[15.72464,45.60116],[15.72571,45.61258],[15.73677,45.61151],[15.73641,45.61615],[15.73963,45.61651],[15.74462,45.61365],[15.74641,45.6058],[15.73641,45.58938],[15.72856,45.58938]]]]},"properties":{"class":"lake","kind":"lake","source":"awmc-inland-water"}},{"type":"Feature","geometry":{"type":"MultiPolygon","coordinates":[[[[15.41162,45.02902],[15.40662,45.02117],[15.40127,45.01974],[15.39449,45.03045],[15.40484,45.03509],[15.41162,45.02902]]]]},"properties":{"class":"lake","kind":"lake","source":"awmc-inland-water"}},{"type":"Feature","geometry":{"type":"MultiPolygon","coordinates":[[[[15.16582,44.86959],[15.15975,44.86531],[15.14476,44.86745],[15.16546,44.87316],[15.16582,44.86959]]]]},"properties":{"class":"lake","kind":"lake","source":"awmc-inland-water"}},{"type":"Feature","geometry":{"type":"MultiPolygon","coordinates":[[[[18.4791,44.50435],[18.48588,44.51077],[18.50373,44.51006],[18.52372,44.50292],[18.54941,44.49864],[18.55655,44.49542],[18.56084,44.4865],[18.55762,44.48257],[18.54549,44.48115],[18.48874,44.49185],[18.4791,44.49756],[18.4791,44.50435]]]]},"properties":{"class":"lake","kind":"lake","source":"awmc-inland-water"}},{"type":"Feature","geometry":{"type":"MultiPolygon","coordinates":[[[[15.51251,43.93456],[15.52964,43.94206],[15.54784,43.9392],[15.57533,43.91636],[15.58532,43.9003],[15.63493,43.8696],[15.63886,43.86175],[15.62922,43.85854],[15.63136,43.85354],[15.62815,43.85318],[15.61244,43.86246],[15.60174,43.86389],[15.58639,43.87567],[15.57604,43.88923],[15.56426,43.89102],[15.52786,43.90958],[15.51786,43.91921],[15.51286,43.92742],[15.51251,43.93456]]]]},"properties":{"class":"lake","kind":"lake","source":"awmc-inland-water"}},{"type":"Feature","geometry":{"type":"MultiPolygon","coordinates":[[[[17.48449,43.61524],[17.49162,43.61666],[17.5109,43.61131],[17.49805,43.6031],[17.48056,43.60417],[17.48449,43.61524]]]]},"properties":{"class":"lake","kind":"lake","source":"awmc-inland-water"}},{"type":"Feature","geometry":{"type":"MultiPolygon","coordinates":[[[[18.48674,43.16409],[18.49924,43.16195],[18.50566,43.15624],[18.48817,43.16124],[18.48674,43.16409]]]]},"properties":{"class":"lake","kind":"lake","source":"awmc-inland-water"}},{"type":"Feature","geometry":{"type":"MultiPolygon","coordinates":[[[[18.58347,43.16909],[18.59096,43.17444],[18.59846,43.17087],[18.58668,43.1673],[18.58347,43.16909]]]]},"properties":{"class":"lake","kind":"lake","source":"awmc-inland-water"}},{"type":"Feature","geometry":{"type":"MultiPolygon","coordinates":[[[[17.78921,43.04785],[17.79135,43.05071],[17.80705,43.05107],[17.81705,43.04393],[17.81276,43.03822],[17.8042,43.03715],[17.79599,43.03965],[17.78921,43.04785]]]]},"properties":{"class":"lake","kind":"lake","source":"awmc-inland-water"}},{"type":"Feature","geometry":{"type":"MultiPolygon","coordinates":[[[[17.59504,42.95862],[17.60825,42.95506],[17.61217,42.94934],[17.60718,42.94792],[17.59397,42.9547],[17.59504,42.95862]]]]},"properties":{"class":"lake","kind":"lake","source":"awmc-inland-water"}},{"type":"Feature","geometry":{"type":"MultiPolygon","coordinates":[[[[17.50456,43.01752],[17.50956,43.01002],[17.50885,43.00574],[17.50349,43.01002],[17.50456,43.01752]]]]},"properties":{"class":"lake","kind":"lake","source":"awmc-inland-water"}},{"type":"Feature","geometry":{"type":"MultiPolygon","coordinates":[[[[17.44674,43.03001],[17.45424,43.03572],[17.45959,43.03465],[17.45531,43.03001],[17.44674,43.03001]]]]},"properties":{"class":"lake","kind":"lake","source":"awmc-inland-water"}},{"type":"Feature","geometry":{"type":"MultiPolygon","coordinates":[[[[17.42176,43.07141],[17.42033,43.07855],[17.4264,43.08426],[17.42997,43.08355],[17.43389,43.07891],[17.42176,43.07141]]]]},"properties":{"class":"lake","kind":"lake","source":"awmc-inland-water"}},{"type":"Feature","geometry":{"type":"MultiPolygon","coordinates":[[[[12.1887,42.14002],[12.19727,42.14978],[12.22321,42.15977],[12.25057,42.1562],[12.25485,42.1612],[12.25961,42.16096],[12.26009,42.15382],[12.28555,42.13931],[12.27793,42.09695],[12.27032,42.09886],[12.26628,42.09433],[12.25176,42.09338],[12.24153,42.08505],[12.22725,42.08553],[12.2075,42.09315],[12.1799,42.11623],[12.17752,42.13098],[12.1887,42.14002]]]]},"properties":{"name":"Sabatinus Lacus","class":"lake","kind":"lake","source":"awmc-inland-water"}},{"type":"Feature","geometry":{"type":"MultiPolygon","coordinates":[[[[12.65591,41.76303],[12.67014,41.76002],[12.67994,41.75392],[12.68497,41.73981],[12.67927,41.73743],[12.66174,41.73942],[12.65056,41.75401],[12.65011,41.75758],[12.65591,41.76303]]]]},"properties":{"name":"Abanus lacus","class":"lake","kind":"lake","source":"awmc-inland-water"}},{"type":"Feature","geometry":{"type":"MultiPolygon","coordinates":[[[[15.32112,41.89364],[15.32569,41.89764],[15.33369,41.89821],[15.36414,41.89364],[15.45152,41.89821],[15.45799,41.89593],[15.47322,41.90107],[15.49701,41.90126],[15.5092,41.90811],[15.5604,41.91648],[15.57258,41.91173],[15.5663,41.90316],[15.55374,41.89726],[15.52956,41.89916],[15.51966,41.89459],[15.51605,41.88888],[15.48102,41.87575],[15.42696,41.87308],[15.41249,41.88108],[15.39669,41.88203],[15.36262,41.86623],[15.3472,41.87042],[15.34701,41.86585],[15.34263,41.86299],[15.33273,41.87232],[15.32207,41.87537],[15.32055,41.87975],[15.30932,41.88165],[15.30951,41.88869],[15.32112,41.89364]]]]},"properties":{"class":"lake","kind":"lake","source":"awmc-inland-water"}},{"type":"Feature","geometry":{"type":"MultiPolygon","coordinates":[[[[8.12162,36.7856],[8.12371,36.78845],[8.13189,36.78236],[8.12162,36.78065],[8.12162,36.7856]]]]},"properties":{"class":"lake","kind":"lake","source":"awmc-inland-water"}},{"type":"Feature","geometry":{"type":"MultiPolygon","coordinates":[[[[8.17377,36.8507],[8.17263,36.8526],[8.17587,36.8526],[8.1812,36.84803],[8.17377,36.8507]]]]},"properties":{"class":"lake","kind":"lake","source":"awmc-inland-water"}},{"type":"Feature","geometry":{"type":"MultiPolygon","coordinates":[[[[8.35671,36.8547],[8.36127,36.86669],[8.37765,36.86935],[8.38545,36.86497],[8.41039,36.86631],[8.41952,36.85983],[8.4161,36.84327],[8.40963,36.83242],[8.4003,36.82519],[8.38012,36.82595],[8.37289,36.83376],[8.35823,36.83928],[8.35442,36.84651],[8.35956,36.84937],[8.35671,36.8547]]]]},"properties":{"class":"lake","kind":"lake","source":"awmc-inland-water"}},{"type":"Feature","geometry":{"type":"MultiPolygon","coordinates":[[[[10.165,36.97805],[10.16729,36.97481],[10.16329,36.97652],[10.165,36.97805]]]]},"properties":{"class":"lake","kind":"lake","source":"awmc-inland-water"}},{"type":"Feature","geometry":{"type":"MultiPolygon","coordinates":[[[[15.61289,38.2591],[15.63136,38.26119],[15.63022,38.25872],[15.61289,38.2591]]]]},"properties":{"class":"lake","kind":"lake","source":"awmc-inland-water"}},{"type":"Feature","geometry":{"type":"MultiPolygon","coordinates":[[[[15.3927,41.87746],[15.40374,41.87841],[15.40202,41.87194],[15.39822,41.87061],[15.3927,41.87746]]]]},"properties":{"class":"lake","kind":"lake","source":"awmc-inland-water"}},{"type":"Feature","geometry":{"type":"MultiPolygon","coordinates":[[[[15.41124,41.87891],[15.41483,41.87747],[15.40838,41.87732],[15.41124,41.87891]]]]},"properties":{"class":"lake","kind":"lake","source":"awmc-inland-water"}},{"type":"Feature","geometry":{"type":"MultiPolygon","coordinates":[[[[15.41811,41.87554],[15.42038,41.87328],[15.41545,41.87392],[15.41811,41.87554]]]]},"properties":{"class":"lake","kind":"lake","source":"awmc-inland-water"}},{"type":"Feature","geometry":{"type":"MultiPolygon","coordinates":[[[[15.46256,41.90316],[15.47531,41.90544],[15.46446,41.90068],[15.46256,41.90316]]]]},"properties":{"class":"lake","kind":"lake","source":"awmc-inland-water"}},{"type":"Feature","geometry":{"type":"MultiPolygon","coordinates":[[[[15.48369,41.9043],[15.49035,41.90411],[15.48274,41.90221],[15.48369,41.9043]]]]},"properties":{"class":"lake","kind":"lake","source":"awmc-inland-water"}},{"type":"Feature","geometry":{"type":"MultiPolygon","coordinates":[[[[15.49621,41.9059],[15.49843,41.90566],[15.49547,41.90386],[15.49621,41.9059]]]]},"properties":{"class":"lake","kind":"lake","source":"awmc-inland-water"}},{"type":"Feature","geometry":{"type":"MultiPolygon","coordinates":[[[[15.08768,40.81458],[15.0894,40.81173],[15.08426,40.81192],[15.08768,40.81458]]]]},"properties":{"class":"lake","kind":"lake","source":"awmc-inland-water"}},{"type":"Feature","geometry":{"type":"MultiPolygon","coordinates":[[[[13.14849,42.34355],[13.15149,42.34288],[13.14821,42.34046],[13.14849,42.34355]]]]},"properties":{"class":"lake","kind":"lake","source":"awmc-inland-water"}},{"type":"Feature","geometry":{"type":"MultiPolygon","coordinates":[[[[12.29675,42.20966],[12.30189,42.20851],[12.30284,42.20528],[12.29618,42.20585],[12.29675,42.20966]]]]},"properties":{"class":"lake","kind":"lake","source":"awmc-inland-water"}},{"type":"Feature","geometry":{"type":"MultiPolygon","coordinates":[[[[12.16816,42.33824],[12.17292,42.33367],[12.1971,42.3352],[12.19995,42.33044],[12.19558,42.32473],[12.19862,42.31749],[12.19615,42.3095],[12.17502,42.3036],[12.15027,42.30874],[12.15712,42.32911],[12.15065,42.33691],[12.15103,42.343],[12.16283,42.34414],[12.16835,42.34148],[12.16816,42.33824]]]]},"properties":{"class":"lake","kind":"lake","source":"awmc-inland-water"}},{"type":"Feature","geometry":{"type":"MultiPolygon","coordinates":[[[[11.22559,42.459],[11.23958,42.46343],[11.24115,42.46186],[11.23644,42.45651],[11.24922,42.45608],[11.24922,42.45358],[11.20833,42.44501],[11.20357,42.4414],[11.20414,42.43835],[11.21175,42.43702],[11.24773,42.44406],[11.27229,42.43702],[11.278,42.42426],[11.26334,42.42998],[11.25173,42.43074],[11.22565,42.42617],[11.21023,42.41932],[11.19914,42.43302],[11.16559,42.4363],[11.17787,42.44344],[11.18315,42.4503],[11.19914,42.48485],[11.19929,42.49341],[11.20357,42.49741],[11.20671,42.49712],[11.20385,42.48856],[11.20971,42.47528],[11.22559,42.459]],[[11.22308,42.44994],[11.22502,42.45151],[11.22165,42.45168],[11.22308,42.44994]]]]},"properties":{"class":"lake","kind":"lake","source":"awmc-inland-water"}},{"type":"Feature","geometry":{"type":"MultiPolygon","coordinates":[[[[9.08453,42.66299],[9.09851,42.6618],[9.08393,42.65913],[9.08453,42.66299]]]]},"properties":{"class":"lake","kind":"lake","source":"awmc-inland-water"}},{"type":"Feature","geometry":{"type":"MultiPolygon","coordinates":[[[[9.46304,42.06807],[9.48237,42.07342],[9.48654,42.07134],[9.49308,42.05677],[9.48713,42.04755],[9.47494,42.04725],[9.47167,42.0407],[9.46363,42.04249],[9.44847,42.05558],[9.45263,42.06034],[9.46988,42.05974],[9.47077,42.06331],[9.45947,42.06599],[9.46304,42.06807]]]]},"properties":{"class":"lake","kind":"lake","source":"awmc-inland-water"}},{"type":"Feature","geometry":{"type":"MultiPolygon","coordinates":[[[[9.50204,42.07434],[9.50204,42.07731],[9.50494,42.07666],[9.50494,42.07369],[9.50204,42.07434]]]]},"properties":{"class":"lake","kind":"lake","source":"awmc-inland-water"}},{"type":"Feature","geometry":{"type":"MultiPolygon","coordinates":[[[[9.48564,42.11358],[9.48951,42.11358],[9.48743,42.10911],[9.48564,42.11358]]]]},"properties":{"class":"lake","kind":"lake","source":"awmc-inland-water"}},{"type":"Feature","geometry":{"type":"MultiPolygon","coordinates":[[[[9.52163,42.09811],[9.52401,42.10376],[9.52966,42.10287],[9.52699,42.09662],[9.51836,42.09038],[9.51569,42.09246],[9.52163,42.09811]]]]},"properties":{"class":"lake","kind":"lake","source":"awmc-inland-water"}},{"type":"Feature","geometry":{"type":"MultiPolygon","coordinates":[[[[9.54335,42.22035],[9.54692,42.22244],[9.55286,42.21976],[9.55138,42.21708],[9.54335,42.22035]]]]},"properties":{"class":"lake","kind":"lake","source":"awmc-inland-water"}},{"type":"Feature","geometry":{"type":"MultiPolygon","coordinates":[[[[8.22137,40.69006],[8.24041,40.69482],[8.24992,40.68441],[8.24992,40.68024],[8.24249,40.67459],[8.22999,40.68232],[8.22226,40.68351],[8.22137,40.69006]]]]},"properties":{"class":"lake","kind":"lake","source":"awmc-inland-water"}},{"type":"Feature","geometry":{"type":"MultiPolygon","coordinates":[[[[9.67419,39.95376],[9.68356,39.95738],[9.6718,39.94552],[9.66854,39.94686],[9.67419,39.95376]]]]},"properties":{"class":"lake","kind":"lake","source":"awmc-inland-water"}},{"type":"Feature","geometry":{"type":"MultiPolygon","coordinates":[[[[9.01345,39.17246],[9.02089,39.1787],[9.02208,39.17543],[9.01643,39.16829],[9.01256,39.16919],[9.01345,39.17246]]]]},"properties":{"class":"lake","kind":"lake","source":"awmc-inland-water"}},{"type":"Feature","geometry":{"type":"MultiPolygon","coordinates":[[[[9.1464,39.22956],[9.14938,39.23313],[9.15771,39.23403],[9.15176,39.22867],[9.1464,39.22956]]]]},"properties":{"class":"lake","kind":"lake","source":"awmc-inland-water"}},{"type":"Feature","geometry":{"type":"MultiPolygon","coordinates":[[[[9.21154,39.2602],[9.22493,39.25931],[9.22106,39.25485],[9.21154,39.2602]]]]},"properties":{"class":"lake","kind":"lake","source":"awmc-inland-water"}},{"type":"Feature","geometry":{"type":"MultiPolygon","coordinates":[[[[9.28853,39.32259],[9.29217,39.32192],[9.28566,39.31948],[9.28853,39.32259]]]]},"properties":{"class":"lake","kind":"lake","source":"awmc-inland-water"}},{"type":"Feature","geometry":{"type":"MultiPolygon","coordinates":[[[[9.60961,39.44729],[9.61347,39.45264],[9.62597,39.45323],[9.62597,39.4458],[9.61853,39.44223],[9.61496,39.44193],[9.60961,39.44729]]]]},"properties":{"class":"lake","kind":"lake","source":"awmc-inland-water"}},{"type":"Feature","geometry":{"type":"MultiPolygon","coordinates":[[[[9.58403,39.36311],[9.58968,39.36668],[9.59533,39.36371],[9.59473,39.34743],[9.5876,39.353],[9.58403,39.36311]]]]},"properties":{"class":"lake","kind":"lake","source":"awmc-inland-water"}},{"type":"Feature","geometry":{"type":"MultiPolygon","coordinates":[[[[9.57178,39.34677],[9.57471,39.3449],[9.56898,39.34591],[9.57178,39.34677]]]]},"properties":{"class":"lake","kind":"lake","source":"awmc-inland-water"}},{"type":"Feature","geometry":{"type":"MultiPolygon","coordinates":[[[[9.59682,39.37814],[9.59576,39.38029],[9.59853,39.37968],[9.59682,39.37814]]]]},"properties":{"class":"lake","kind":"lake","source":"awmc-inland-water"}},{"type":"Feature","geometry":{"type":"MultiPolygon","coordinates":[[[[8.59399,38.97085],[8.5928,38.98929],[8.59846,38.99405],[8.60887,38.97769],[8.62285,38.97174],[8.62285,38.96728],[8.62195,38.96431],[8.616,38.96431],[8.60649,38.97055],[8.59399,38.97085]]]]},"properties":{"class":"lake","kind":"lake","source":"awmc-inland-water"}},{"type":"Feature","geometry":{"type":"MultiPolygon","coordinates":[[[[13.5712,37.67386],[13.56955,37.67552],[13.57344,37.67486],[13.5712,37.67386]]]]},"properties":{"class":"lake","kind":"lake","source":"awmc-inland-water"}},{"type":"Feature","geometry":{"type":"MultiPolygon","coordinates":[[[[15.21215,37.15054],[15.223,37.14597],[15.21405,37.14693],[15.21215,37.15054]]]]},"properties":{"class":"lake","kind":"lake","source":"awmc-inland-water"}},{"type":"Feature","geometry":{"type":"MultiPolygon","coordinates":[[[[12.71051,41.89202],[12.70608,41.89223],[12.70797,41.89655],[12.71501,41.89648],[12.71051,41.89202]]]]},"properties":{"class":"lake","kind":"lake","source":"awmc-inland-water"}},{"type":"Feature","geometry":{"type":"MultiPolygon","coordinates":[[[[12.70204,41.72037],[12.70689,41.72061],[12.70871,41.7113],[12.70347,41.70723],[12.69683,41.70705],[12.69397,41.71405],[12.70204,41.72037]]]]},"properties":{"name":"Lacus Nemorensis","class":"lake","kind":"lake","source":"awmc-inland-water"}},{"type":"Feature","geometry":{"type":"MultiPolygon","coordinates":[[[[12.72364,41.95086],[12.71955,41.94981],[12.72164,41.95552],[12.72555,41.95362],[12.72364,41.95086]]]]},"properties":{"class":"lake","kind":"lake","source":"awmc-inland-water"}},{"type":"Feature","geometry":{"type":"MultiPolygon","coordinates":[[[[12.72842,41.9669],[12.73373,41.96791],[12.73608,41.96534],[12.7302,41.9627],[12.72842,41.9669]]]]},"properties":{"class":"lake","kind":"lake","source":"awmc-inland-water"}},{"type":"Feature","geometry":{"type":"MultiPolygon","coordinates":[[[[12.71894,41.97178],[12.72224,41.97121],[12.72156,41.96522],[12.71894,41.97178]]]]},"properties":{"class":"lake","kind":"lake","source":"awmc-inland-water"}},{"type":"Feature","geometry":{"type":"MultiPolygon","coordinates":[[[[12.70519,41.95795],[12.70245,41.96064],[12.70645,41.96001],[12.70519,41.95795]]]]},"properties":{"class":"lake","kind":"lake","source":"awmc-inland-water"}},{"type":"Feature","geometry":{"type":"MultiPolygon","coordinates":[[[[12.84922,41.68817],[12.84816,41.69174],[12.85084,41.6931],[12.84922,41.68817]]]]},"properties":{"class":"lake","kind":"lake","source":"awmc-inland-water"}},{"type":"Feature","geometry":{"type":"MultiPolygon","coordinates":[[[[12.78913,41.47173],[12.78719,41.47284],[12.79174,41.47414],[12.78913,41.47173]]]]},"properties":{"class":"lake","kind":"lake","source":"awmc-inland-water"}},{"type":"Feature","geometry":{"type":"MultiPolygon","coordinates":[[[[12.32017,41.76784],[12.35065,41.73221],[12.35386,41.72008],[12.33223,41.73521],[12.32702,41.74542],[12.31896,41.74092],[12.32081,41.74671],[12.30389,41.76041],[12.30861,41.76334],[12.31232,41.75998],[12.31082,41.76348],[12.32017,41.76784]]]]},"properties":{"name":"Salinae","class":"lake","kind":"lake","source":"awmc-inland-water"}},{"type":"Feature","geometry":{"type":"MultiPolygon","coordinates":[[[[12.24456,41.84077],[12.23742,41.84125],[12.22886,41.84772],[12.21544,41.86343],[12.21325,41.87399],[12.22296,41.87542],[12.2261,41.86523],[12.23742,41.85962],[12.23866,41.85267],[12.25161,41.84829],[12.25151,41.84401],[12.24456,41.84077]]]]},"properties":{"class":"lake","kind":"lake","source":"awmc-inland-water"}},{"type":"Feature","geometry":{"type":"MultiPolygon","coordinates":[[[[12.19547,41.8939],[12.19133,41.89479],[12.18619,41.90211],[12.19526,41.89882],[12.19547,41.8939]]]]},"properties":{"class":"lake","kind":"lake","source":"awmc-inland-water"}},{"type":"Feature","geometry":{"type":"MultiPolygon","coordinates":[[[[12.18144,41.90759],[12.17638,41.90748],[12.1702,41.91829],[12.18162,41.91587],[12.18416,41.91094],[12.18144,41.90759]]]]},"properties":{"class":"lake","kind":"lake","source":"awmc-inland-water"}},{"type":"Feature","geometry":{"type":"MultiPolygon","coordinates":[[[[9.63824,37.19581],[9.64794,37.20381],[9.65651,37.20476],[9.67574,37.18896],[9.69135,37.18477],[9.71305,37.18477],[9.72314,37.17868],[9.74103,37.17792],[9.74274,37.17488],[9.75569,37.1724],[9.74902,37.14194],[9.73951,37.129],[9.72275,37.12043],[9.7119,37.12272],[9.71514,37.12424],[9.70676,37.12881],[9.69649,37.14613],[9.6824,37.14137],[9.66965,37.14632],[9.66108,37.14004],[9.63138,37.13604],[9.61882,37.12881],[9.61425,37.12976],[9.60626,37.14556],[9.59407,37.1467],[9.58513,37.15622],[9.58608,37.16498],[9.60702,37.1823],[9.6173,37.17925],[9.61406,37.18877],[9.60702,37.19391],[9.63405,37.18877],[9.63728,37.18991],[9.63824,37.19581]]]]},"properties":{"class":"lake","kind":"lake","source":"awmc-inland-water"}},{"type":"Feature","geometry":{"type":"MultiPolygon","coordinates":[[[[10.5966,44.89542],[10.59875,44.89019],[10.59589,44.88662],[10.58495,44.88591],[10.59422,44.889],[10.5966,44.89542]]]]},"properties":{"class":"lake","kind":"lake","source":"awmc-inland-water"}},{"type":"Feature","geometry":{"type":"MultiPolygon","coordinates":[[[[10.43623,45.14289],[10.44717,45.14574],[10.4417,45.1417],[10.43623,45.14289]]]]},"properties":{"class":"lake","kind":"lake","source":"awmc-inland-water"}},{"type":"Feature","geometry":{"type":"MultiPolygon","coordinates":[[[[10.64039,45.3775],[10.643,45.37584],[10.64015,45.37274],[10.63729,45.37441],[10.64039,45.3775]]]]},"properties":{"class":"lake","kind":"lake","source":"awmc-inland-water"}},{"type":"Feature","geometry":{"type":"MultiPolygon","coordinates":[[[[10.1555,45.88702],[10.16002,45.88511],[10.15383,45.88297],[10.1555,45.88702]]]]},"properties":{"class":"lake","kind":"lake","source":"awmc-inland-water"}},{"type":"Feature","geometry":{"type":"MultiPolygon","coordinates":[[[[10.22819,45.22891],[10.23224,45.22343],[10.22605,45.22581],[10.22819,45.22891]]]]},"properties":{"class":"lake","kind":"lake","source":"awmc-inland-water"}},{"type":"Feature","geometry":{"type":"MultiPolygon","coordinates":[[[[10.06996,44.37266],[10.07377,44.36861],[10.06996,44.36933],[10.06996,44.37266]]]]},"properties":{"class":"lake","kind":"lake","source":"awmc-inland-water"}},{"type":"Feature","geometry":{"type":"MultiPolygon","coordinates":[[[[10.08043,44.36933],[10.08186,44.36742],[10.07829,44.36837],[10.08043,44.36933]]]]},"properties":{"class":"lake","kind":"lake","source":"awmc-inland-water"}},{"type":"Feature","geometry":{"type":"MultiPolygon","coordinates":[[[[10.09328,44.3698],[10.09494,44.36647],[10.0909,44.36766],[10.09328,44.3698]]]]},"properties":{"class":"lake","kind":"lake","source":"awmc-inland-water"}},{"type":"Feature","geometry":{"type":"MultiPolygon","coordinates":[[[[10.04214,44.21283],[10.0419,44.22021],[10.04547,44.21759],[10.04214,44.21283]]]]},"properties":{"class":"lake","kind":"lake","source":"awmc-inland-water"}},{"type":"Feature","geometry":{"type":"MultiPolygon","coordinates":[[[[9.82621,45.08359],[9.82835,45.0805],[9.82597,45.07741],[9.82621,45.08359]]]]},"properties":{"class":"lake","kind":"lake","source":"awmc-inland-water"}},{"type":"Feature","geometry":{"type":"MultiPolygon","coordinates":[[[[9.82169,45.08597],[9.82406,45.0855],[9.82192,45.07955],[9.82169,45.08597]]]]},"properties":{"class":"lake","kind":"lake","source":"awmc-inland-water"}},{"type":"Feature","geometry":{"type":"MultiPolygon","coordinates":[[[[9.42581,45.72317],[9.42653,45.72103],[9.42177,45.72007],[9.42581,45.72317]]]]},"properties":{"class":"lake","kind":"lake","source":"awmc-inland-water"}},{"type":"Feature","geometry":{"type":"MultiPolygon","coordinates":[[[[9.97258,46.11969],[9.9812,46.1185],[9.98001,46.11136],[9.97079,46.11166],[9.97258,46.11969]]]]},"properties":{"class":"lake","kind":"lake","source":"awmc-inland-water"}},{"type":"Feature","geometry":{"type":"MultiPolygon","coordinates":[[[[9.9931,46.12296],[9.99935,46.12742],[10.0047,46.12594],[9.99964,46.1185],[9.9931,46.12296]]]]},"properties":{"class":"lake","kind":"lake","source":"awmc-inland-water"}},{"type":"Feature","geometry":{"type":"MultiPolygon","coordinates":[[[[10.02225,46.11374],[10.03206,46.11434],[10.03177,46.10898],[10.02255,46.1066],[10.02017,46.10839],[10.02225,46.11374]]]]},"properties":{"class":"lake","kind":"lake","source":"awmc-inland-water"}},{"type":"Feature","geometry":{"type":"MultiPolygon","coordinates":[[[[12.34121,46.09839],[12.33443,46.09875],[12.33229,46.10196],[12.32265,46.13409],[12.32586,46.13801],[12.35299,46.12838],[12.3562,46.12338],[12.3537,46.11374],[12.34121,46.09839]]]]},"properties":{"class":"lake","kind":"lake","source":"awmc-inland-water"}},{"type":"Feature","geometry":{"type":"MultiPolygon","coordinates":[[[[14.08543,46.36354],[14.08876,46.36972],[14.10161,46.37353],[14.10637,46.37115],[14.09304,46.36306],[14.08543,46.36354]]]]},"properties":{"class":"lake","kind":"lake","source":"awmc-inland-water"}},{"type":"Feature","geometry":{"type":"MultiPolygon","coordinates":[[[[12.48987,45.50007],[12.50177,45.49754],[12.49106,45.4959],[12.48987,45.50007]]]]},"properties":{"class":"lake","kind":"lake","source":"awmc-inland-water"}},{"type":"Feature","geometry":{"type":"MultiPolygon","coordinates":[[[[12.49047,45.49293],[12.4976,45.49189],[12.4921,45.49055],[12.49047,45.49293]]]]},"properties":{"class":"lake","kind":"lake","source":"awmc-inland-water"}},{"type":"Feature","geometry":{"type":"MultiPolygon","coordinates":[[[[12.50623,45.50244],[12.52185,45.5023],[12.52527,45.49917],[12.5101,45.4959],[12.50697,45.49783],[12.51262,45.49962],[12.50623,45.50244]]]]},"properties":{"class":"lake","kind":"lake","source":"awmc-inland-water"}},{"type":"Feature","geometry":{"type":"MultiPolygon","coordinates":[[[[12.42154,45.4666],[12.42511,45.46675],[12.42109,45.46437],[12.42154,45.4666]]]]},"properties":{"class":"lake","kind":"lake","source":"awmc-inland-water"}},{"type":"Feature","geometry":{"type":"MultiPolygon","coordinates":[[[[12.42615,45.53457],[12.42778,45.53323],[12.42511,45.53234],[12.42615,45.53457]]]]},"properties":{"class":"lake","kind":"lake","source":"awmc-inland-water"}},{"type":"Feature","geometry":{"type":"MultiPolygon","coordinates":[[[[12.14693,45.38912],[12.14976,45.38481],[12.14559,45.38674],[12.14693,45.38912]]]]},"properties":{"class":"lake","kind":"lake","source":"awmc-inland-water"}},{"type":"Feature","geometry":{"type":"MultiPolygon","coordinates":[[[[12.13835,45.29888],[12.15872,45.30402],[12.15206,45.29221],[12.13892,45.29259],[12.13835,45.29888]]]]},"properties":{"class":"lake","kind":"lake","source":"awmc-inland-water"}},{"type":"Feature","geometry":{"type":"MultiPolygon","coordinates":[[[[12.88775,45.66804],[12.89417,45.66625],[12.90095,45.65697],[12.89417,45.65412],[12.88168,45.65947],[12.88775,45.66804]]]]},"properties":{"class":"lake","kind":"lake","source":"awmc-inland-water"}},{"type":"Feature","geometry":{"type":"MultiPolygon","coordinates":[[[[12.9652,45.65448],[12.96805,45.64734],[12.96663,45.64056],[12.95699,45.63806],[12.95164,45.64127],[12.94949,45.64413],[12.95057,45.66554],[12.95735,45.66661],[12.9652,45.65448]],[[12.95521,45.6477],[12.95842,45.64627],[12.96127,45.64912],[12.95735,45.65055],[12.95521,45.6477]]]]},"properties":{"class":"lake","kind":"lake","source":"awmc-inland-water"}},{"type":"Feature","geometry":{"type":"MultiPolygon","coordinates":[[[[13.0067,45.69804],[13.02145,45.69614],[13.04715,45.67996],[13.05571,45.66521],[13.05096,45.65664],[13.00717,45.64522],[12.99766,45.64665],[12.99528,45.65141],[12.99718,45.65664],[13.00812,45.67282],[13.00622,45.68044],[13.00003,45.68567],[13.00146,45.69519],[13.0067,45.69804]]]]},"properties":{"class":"lake","kind":"lake","source":"awmc-inland-water"}},{"type":"Feature","geometry":{"type":"MultiPolygon","coordinates":[[[[13.46165,45.72327],[13.47212,45.72136],[13.47831,45.71327],[13.46165,45.71851],[13.46165,45.72327]]]]},"properties":{"class":"lake","kind":"lake","source":"awmc-inland-water"}},{"type":"Feature","geometry":{"type":"MultiPolygon","coordinates":[[[[17.24855,46.74825],[17.25997,46.76181],[17.27782,46.76538],[17.29459,46.76146],[17.31137,46.75253],[17.3285,46.7536],[17.35527,46.74646],[17.39953,46.79572],[17.42344,46.79786],[17.42808,46.79643],[17.43415,46.78822],[17.44593,46.7843],[17.45307,46.78501],[17.45949,46.79251],[17.46734,46.79358],[17.48733,46.7843],[17.50678,46.78073],[17.52391,46.79215],[17.53034,46.80393],[17.54461,46.80179],[17.57817,46.81],[17.58852,46.82427],[17.60208,46.81999],[17.60636,46.82249],[17.62635,46.8207],[17.64812,46.82856],[17.6649,46.84783],[17.67596,46.85318],[17.69452,46.87174],[17.72718,46.87817],[17.77358,46.88138],[17.78786,46.89102],[17.80178,46.89352],[17.81766,46.90601],[17.84371,46.91957],[17.85371,46.91564],[17.85906,46.90458],[17.87084,46.89637],[17.89332,46.8878],[17.89832,46.88852],[17.90332,46.8978],[17.89761,46.91672],[17.89261,46.92314],[17.8687,46.93099],[17.86727,46.93563],[17.90653,46.95562],[17.92402,46.95812],[17.92402,46.96775],[17.94294,46.96918],[17.95222,46.97739],[17.97149,46.97561],[17.98113,46.98346],[17.99362,46.98703],[18.01039,47.00131],[18.02421,47.02807],[18.03706,47.03271],[18.04241,47.05449],[18.05062,47.05342],[18.06311,47.04199],[18.08417,47.0345],[18.11986,47.0295],[18.16126,47.01166],[18.17019,47.00059],[18.16269,46.96954],[18.14449,46.94812],[18.10273,46.926],[18.07275,46.91422],[18.04027,46.90922],[18.02028,46.90101],[17.96817,46.88959],[17.91106,46.88138],[17.89982,46.86353],[17.87127,46.84712],[17.837,46.83248],[17.721,46.79536],[17.68745,46.78608],[17.66318,46.78394],[17.61232,46.76431],[17.55878,46.75003],[17.51471,46.72219],[17.48972,46.71434],[17.41013,46.70256],[17.33268,46.71613],[17.27129,46.70435],[17.25415,46.71363],[17.24855,46.74825]]]]},"properties":{"class":"lake","kind":"lake","source":"awmc-inland-water"}},{"type":"Feature","geometry":{"type":"MultiPolygon","coordinates":[[[[17.65497,46.75467],[17.6589,46.75467],[17.66211,46.74397],[17.65497,46.74861],[17.65497,46.75467]]]]},"properties":{"class":"lake","kind":"lake","source":"awmc-inland-water"}},{"type":"Feature","geometry":{"type":"MultiPolygon","coordinates":[[[[17.73778,46.78073],[17.74777,46.76645],[17.73314,46.7768],[17.73778,46.78073]]]]},"properties":{"class":"lake","kind":"lake","source":"awmc-inland-water"}},{"type":"Feature","geometry":{"type":"MultiPolygon","coordinates":[[[[11.76442,42.61196],[11.76371,42.61517],[11.76656,42.61625],[11.77299,42.61446],[11.7737,42.61054],[11.76442,42.61196]]]]},"properties":{"class":"lake","kind":"lake","source":"awmc-inland-water"}},{"type":"Feature","geometry":{"type":"MultiPolygon","coordinates":[[[[11.85829,42.58912],[11.86757,42.60304],[11.869,42.61803],[11.88042,42.63338],[11.88827,42.6373],[11.89077,42.64373],[11.90148,42.64837],[11.93396,42.65408],[11.97,42.64944],[11.99249,42.63266],[11.98928,42.61946],[11.9932,42.61339],[11.99213,42.60233],[11.9957,42.5959],[11.99535,42.58484],[11.99178,42.57877],[11.99463,42.57449],[11.99285,42.56414],[11.99677,42.54986],[11.98464,42.53737],[11.9311,42.5363],[11.91433,42.54308],[11.91218,42.55414],[11.90647,42.55164],[11.88827,42.55878],[11.88577,42.57056],[11.86186,42.58377],[11.85829,42.58912]]]]},"properties":{"name":"Volsiniensis Lacus","class":"lake","kind":"lake","source":"awmc-inland-water"}},{"type":"Feature","geometry":{"type":"MultiPolygon","coordinates":[[[[12.7425,42.53582],[12.75487,42.54082],[12.75439,42.53582],[12.77176,42.53368],[12.76677,42.5313],[12.76962,42.52559],[12.77985,42.52035],[12.7751,42.52012],[12.77319,42.51655],[12.77272,42.52012],[12.76867,42.52107],[12.76772,42.51678],[12.76129,42.53201],[12.75368,42.52892],[12.7425,42.53582]]]]},"properties":{"name":"Velini Lacus","class":"lake","kind":"lake","source":"awmc-inland-water"}},{"type":"Feature","geometry":{"type":"MultiPolygon","coordinates":[[[[12.82097,42.47881],[12.82597,42.48095],[12.81954,42.47191],[12.80693,42.47119],[12.81074,42.47833],[12.82097,42.47881]]]]},"properties":{"name":"Velini Lacus","class":"lake","kind":"lake","source":"awmc-inland-water"}},{"type":"Feature","geometry":{"type":"MultiPolygon","coordinates":[[[[12.845,42.47905],[12.85095,42.48166],[12.85309,42.47167],[12.84929,42.47191],[12.845,42.47905]]]]},"properties":{"name":"Velini Lacus","class":"lake","kind":"lake","source":"awmc-inland-water"}},{"type":"Feature","geometry":{"type":"MultiPolygon","coordinates":[[[[13.14096,42.34578],[13.15024,42.35006],[13.14881,42.34506],[13.14096,42.34578]]]]},"properties":{"class":"lake","kind":"lake","source":"awmc-inland-water"}},{"type":"Feature","geometry":{"type":"MultiPolygon","coordinates":[[[[13.44529,42.22109],[13.44981,42.2199],[13.44458,42.218],[13.44529,42.22109]]]]},"properties":{"class":"lake","kind":"lake","source":"awmc-inland-water"}},{"type":"Feature","geometry":{"type":"MultiPolygon","coordinates":[[[[13.52272,42.14646],[13.52777,42.14795],[13.52867,42.14557],[13.5251,42.14378],[13.52272,42.14646]]]]},"properties":{"class":"lake","kind":"lake","source":"awmc-inland-water"}},{"type":"Feature","geometry":{"type":"MultiPolygon","coordinates":[[[[12.31104,42.48573],[12.31866,42.48478],[12.31271,42.48216],[12.31104,42.48573]]]]},"properties":{"class":"lake","kind":"lake","source":"awmc-inland-water"}},{"type":"Feature","geometry":{"type":"MultiPolygon","coordinates":[[[[11.94741,43.05718],[11.96074,43.06717],[11.97525,43.06003],[11.97811,43.04599],[11.94646,43.05456],[11.94741,43.05718]]]]},"properties":{"name":"Clusinus Lacus","class":"lake","kind":"lake","source":"awmc-inland-water"}},{"type":"Feature","geometry":{"type":"MultiPolygon","coordinates":[[[[11.9182,43.09465],[11.92594,43.09614],[11.92832,43.09198],[11.92029,43.08781],[11.91553,43.0896],[11.9182,43.09465]]]]},"properties":{"class":"lake","kind":"lake","source":"awmc-inland-water"}},{"type":"Feature","geometry":{"type":"MultiPolygon","coordinates":[[[[12.88742,43.04843],[12.8986,43.04938],[12.91478,43.06033],[12.92216,43.05652],[12.91692,43.0451],[12.90455,43.04296],[12.89551,43.0363],[12.88837,43.03987],[12.88742,43.04843]]]]},"properties":{"name":"Plestinus Lacus","class":"lake","kind":"lake","source":"awmc-inland-water"}},{"type":"Feature","geometry":{"type":"MultiPolygon","coordinates":[[[[12.02244,43.18317],[12.02691,43.18644],[12.06289,43.19269],[12.06855,43.19209],[12.0739,43.18674],[12.08342,43.19655],[12.08669,43.19328],[12.09264,43.19566],[12.10543,43.19388],[12.11792,43.18793],[12.12298,43.19179],[12.13606,43.18406],[12.17651,43.1796],[12.18365,43.17097],[12.18484,43.16205],[12.18038,43.1558],[12.16075,43.14688],[12.16194,43.13409],[12.16491,43.13141],[12.16551,43.11625],[12.18365,43.10911],[12.18454,43.09453],[12.18008,43.09096],[12.14201,43.08769],[12.1206,43.07996],[12.08372,43.08918],[12.07063,43.09602],[12.04624,43.11327],[12.04921,43.12011],[12.05724,43.12636],[12.05635,43.12963],[12.04892,43.13171],[12.02185,43.16027],[12.01858,43.18168],[12.02244,43.18317]]]]},"properties":{"name":"Trasumennus Lacus","class":"lake","kind":"lake","source":"awmc-inland-water"}},{"type":"Feature","geometry":{"type":"MultiPolygon","coordinates":[[[[10.57984,44.13091],[10.58174,44.12829],[10.57793,44.12996],[10.57984,44.13091]]]]},"properties":{"class":"lake","kind":"lake","source":"awmc-inland-water"}},{"type":"Feature","geometry":{"type":"MultiPolygon","coordinates":[[[[10.28221,43.87321],[10.28126,43.87512],[10.28697,43.87416],[10.28769,43.86798],[10.2815,43.87059],[10.28221,43.87321]]]]},"properties":{"class":"lake","kind":"lake","source":"awmc-inland-water"}},{"type":"Feature","geometry":{"type":"MultiPolygon","coordinates":[[[[10.30006,43.85941],[10.31124,43.85894],[10.33504,43.84704],[10.34479,43.838],[10.34432,43.82943],[10.33147,43.82372],[10.32385,43.82443],[10.3072,43.833],[10.30363,43.83919],[10.30886,43.83919],[10.30791,43.84252],[10.31386,43.84204],[10.3072,43.84704],[10.30006,43.85941]]]]},"properties":{"class":"lake","kind":"lake","source":"awmc-inland-water"}},{"type":"Feature","geometry":{"type":"MultiPolygon","coordinates":[[[[10.88599,43.31087],[10.8851,43.30076],[10.88272,43.30433],[10.88599,43.31087]]]]},"properties":{"class":"lake","kind":"lake","source":"awmc-inland-water"}},{"type":"Feature","geometry":{"type":"MultiPolygon","coordinates":[[[[10.89908,42.99423],[10.90122,42.9909],[10.89789,42.98994],[10.89241,42.99232],[10.89908,42.99423]]]]},"properties":{"name":"Lago dell'Accesa","class":"lake","kind":"lake","source":"awmc-inland-water"}},{"type":"Feature","geometry":{"type":"MultiPolygon","coordinates":[[[[10.90521,42.76271],[10.89472,42.77102],[10.9094,42.77805],[10.9177,42.79018],[10.92352,42.79312],[10.96966,42.78655],[11.02002,42.81487],[11.03821,42.83477],[11.04542,42.83906],[11.05493,42.83983],[11.06439,42.83798],[11.07258,42.83178],[11.08754,42.8089],[11.10035,42.7974],[11.11381,42.76055],[11.1077,42.75189],[11.06953,42.74008],[11.0234,42.74407],[10.90521,42.76271]]]]},"properties":{"name":"Prilius Lacus","class":"lake","kind":"lake","source":"awmc-inland-water"}},{"type":"Feature","geometry":{"type":"MultiPolygon","coordinates":[[[[12.30811,42.11732],[12.31168,42.12327],[12.32143,42.12279],[12.32357,42.11994],[12.32096,42.10804],[12.30882,42.10756],[12.30573,42.11042],[12.30811,42.11732]]]]},"properties":{"name":"Alsietinus Lacus","class":"lake","kind":"lake","source":"awmc-inland-water"}},{"type":"Feature","geometry":{"type":"MultiPolygon","coordinates":[[[[12.33999,42.11851],[12.34475,42.12256],[12.34761,42.11708],[12.33999,42.11494],[12.33999,42.11851]]]]},"properties":{"class":"lake","kind":"lake","source":"awmc-inland-water"}},{"type":"Feature","geometry":{"type":"MultiPolygon","coordinates":[[[[12.31453,42.13469],[12.31977,42.13755],[12.32381,42.13421],[12.31501,42.12922],[12.31453,42.13469]]]]},"properties":{"class":"lake","kind":"lake","source":"awmc-inland-water"}},{"type":"Feature","geometry":{"type":"MultiPolygon","coordinates":[[[[13.43711,42.02428],[13.44187,42.03547],[13.44996,42.04403],[13.47209,42.05712],[13.48732,42.06117],[13.49945,42.06117],[13.53586,42.05046],[13.55442,42.05236],[13.57179,42.05022],[13.58464,42.04261],[13.60891,42.01619],[13.62057,42.00953],[13.63937,41.99073],[13.64317,41.98145],[13.64246,41.96884],[13.63104,41.96099],[13.62842,41.95409],[13.61129,41.94981],[13.60058,41.95052],[13.57441,41.96337],[13.53562,41.96741],[13.51016,41.96408],[13.49113,41.95457],[13.47423,41.95575],[13.46733,41.96028],[13.44401,41.99216],[13.43759,42.00787],[13.43711,42.02428]]]]},"properties":{"name":"Fucinus Lacus","class":"lake","kind":"lake","source":"awmc-inland-water"}},{"type":"Feature","geometry":{"type":"MultiPolygon","coordinates":[[[[13.21463,41.78337],[13.21558,41.77956],[13.21249,41.78194],[13.21463,41.78337]]]]},"properties":{"class":"lake","kind":"lake","source":"awmc-inland-water"}},{"type":"Feature","geometry":{"type":"MultiPolygon","coordinates":[[[[13.23629,41.761],[13.2439,41.761],[13.24771,41.75434],[13.2458,41.74982],[13.2389,41.75101],[13.23629,41.761]]]]},"properties":{"class":"lake","kind":"lake","source":"awmc-inland-water"}},{"type":"Feature","geometry":{"type":"MultiPolygon","coordinates":[[[[13.25723,41.76053],[13.25056,41.76053],[13.25247,41.76291],[13.25723,41.76053]]]]},"properties":{"class":"lake","kind":"lake","source":"awmc-inland-water"}},{"type":"Feature","geometry":{"type":"MultiPolygon","coordinates":[[[[13.12844,41.72309],[13.12844,41.73093],[13.13282,41.73063],[13.12844,41.72309]]]]},"properties":{"class":"lake","kind":"lake","source":"awmc-inland-water"}},{"type":"Feature","geometry":{"type":"MultiPolygon","coordinates":[[[[9.79024,46.00759],[9.79452,46.00925],[9.79857,46.00616],[9.7969,46.0033],[9.78572,46.00187],[9.79024,46.00759]]]]},"properties":{"class":"lake","kind":"lake","source":"awmc-inland-water"}},{"type":"Feature","geometry":{"type":"MultiPolygon","coordinates":[[[[9.81166,46.00568],[9.82427,46.0064],[9.82688,46.00259],[9.81285,46.0033],[9.81166,46.00568]]]]},"properties":{"class":"lake","kind":"lake","source":"awmc-inland-water"}},{"type":"Feature","geometry":{"type":"MultiPolygon","coordinates":[[[[9.80523,45.99854],[9.80832,45.99831],[9.81142,45.99117],[9.80785,45.98831],[9.80523,45.99854]]]]},"properties":{"class":"lake","kind":"lake","source":"awmc-inland-water"}},{"type":"Feature","geometry":{"type":"MultiPolygon","coordinates":[[[[9.80928,46.01901],[9.80809,46.01544],[9.80404,46.01853],[9.80928,46.01901]]]]},"properties":{"class":"lake","kind":"lake","source":"awmc-inland-water"}},{"type":"Feature","geometry":{"type":"MultiPolygon","coordinates":[[[[9.83495,46.06146],[9.83638,46.05694],[9.83257,46.05884],[9.83495,46.06146]]]]},"properties":{"class":"lake","kind":"lake","source":"awmc-inland-water"}},{"type":"Feature","geometry":{"type":"MultiPolygon","coordinates":[[[[9.8666,46.04908],[9.87088,46.04599],[9.8666,46.04599],[9.8666,46.04908]]]]},"properties":{"class":"lake","kind":"lake","source":"awmc-inland-water"}},{"type":"Feature","geometry":{"type":"MultiPolygon","coordinates":[[[[10.04196,46.07169],[10.05814,46.07074],[10.04696,46.06669],[10.04196,46.07169]]]]},"properties":{"class":"lake","kind":"lake","source":"awmc-inland-water"}},{"type":"Feature","geometry":{"type":"MultiPolygon","coordinates":[[[[10.64337,46.06193],[10.65004,46.06074],[10.64456,46.05955],[10.64337,46.06193]]]]},"properties":{"class":"lake","kind":"lake","source":"awmc-inland-water"}},{"type":"Feature","geometry":{"type":"MultiPolygon","coordinates":[[[[10.65075,46.05836],[10.65527,46.05741],[10.65241,46.05551],[10.65075,46.05836]]]]},"properties":{"class":"lake","kind":"lake","source":"awmc-inland-water"}},{"type":"Feature","geometry":{"type":"MultiPolygon","coordinates":[[[[10.4918,45.96199],[10.49918,45.96176],[10.49228,45.95938],[10.4918,45.96199]]]]},"properties":{"class":"lake","kind":"lake","source":"awmc-inland-water"}},{"type":"Feature","geometry":{"type":"MultiPolygon","coordinates":[[[[10.67752,45.99364],[10.68156,45.99412],[10.67895,45.99031],[10.67752,45.99364]]]]},"properties":{"class":"lake","kind":"lake","source":"awmc-inland-water"}},{"type":"Feature","geometry":{"type":"MultiPolygon","coordinates":[[[[11.01921,45.95414],[11.02254,45.95367],[11.02159,45.95034],[11.01897,45.95057],[11.01921,45.95414]]]]},"properties":{"class":"lake","kind":"lake","source":"awmc-inland-water"}},{"type":"Feature","geometry":{"type":"MultiPolygon","coordinates":[[[[10.73308,45.89037],[10.74498,45.89251],[10.75354,45.8868],[10.76663,45.88419],[10.76687,45.88038],[10.75116,45.87586],[10.74474,45.87776],[10.7464,45.88419],[10.73308,45.89037]]]]},"properties":{"class":"lake","kind":"lake","source":"awmc-inland-water"}},{"type":"Feature","geometry":{"type":"MultiPolygon","coordinates":[[[[11.05692,46.12784],[11.06002,46.12856],[11.05787,46.12594],[11.05502,46.1257],[11.05692,46.12784]]]]},"properties":{"class":"lake","kind":"lake","source":"awmc-inland-water"}},{"type":"Feature","geometry":{"type":"MultiPolygon","coordinates":[[[[18.47922,47.01772],[18.48493,47.01701],[18.49564,46.99845],[18.49421,46.99488],[18.48493,47.00023],[18.47922,47.01772]]]]},"properties":{"class":"lake","kind":"lake","source":"awmc-inland-water"}},{"type":"Feature","geometry":{"type":"MultiPolygon","coordinates":[[[[18.54347,46.96811],[18.55489,46.97382],[18.55846,46.97168],[18.55738,46.96526],[18.54347,46.96811]]]]},"properties":{"class":"lake","kind":"lake","source":"awmc-inland-water"}},{"type":"Feature","geometry":{"type":"MultiPolygon","coordinates":[[[[8.61983,46.90813],[8.61864,46.90516],[8.60883,46.90278],[8.6008,46.89445],[8.59128,46.90873],[8.58979,46.92598],[8.58057,46.93639],[8.57968,46.94115],[8.59217,46.97148],[8.59098,46.9923],[8.56451,46.98814],[8.55588,46.98219],[8.50443,46.96851],[8.48718,46.9694],[8.45416,46.97714],[8.43156,46.97862],[8.42026,46.98517],[8.41817,46.98992],[8.42144,46.9929],[8.45446,47.00182],[8.45922,47.0039],[8.45803,47.00599],[8.36761,47.00628],[8.35066,46.98963],[8.34054,46.98517],[8.33281,46.97089],[8.30188,46.95899],[8.28284,46.96078],[8.29563,46.97119],[8.32686,46.97654],[8.33073,46.98041],[8.33073,46.98427],[8.32656,46.98636],[8.31407,46.98695],[8.31794,46.99677],[8.31377,47.00985],[8.31705,47.01431],[8.33073,47.00866],[8.33965,47.01104],[8.34025,47.03632],[8.3343,47.04673],[8.31556,47.05714],[8.32984,47.05744],[8.34947,47.04673],[8.35155,47.04168],[8.36553,47.04079],[8.43304,47.08421],[8.43334,47.07886],[8.42204,47.05417],[8.41609,47.04703],[8.40241,47.0393],[8.39884,47.03394],[8.40181,47.03097],[8.41728,47.03008],[8.42531,47.03513],[8.4378,47.03543],[8.4613,47.0277],[8.47766,47.01699],[8.47915,47.01164],[8.47528,47.00182],[8.49134,46.99617],[8.51157,46.99766],[8.53893,46.99379],[8.57462,47.0045],[8.58563,47.0048],[8.59782,46.99855],[8.60437,46.99171],[8.6118,46.95721],[8.6124,46.94799],[8.60764,46.93222],[8.61686,46.92271],[8.61983,46.90813]]]]},"properties":{"class":"lake","kind":"lake","source":"awmc-inland-water"}},{"type":"Feature","geometry":{"type":"MultiPolygon","coordinates":[[[[8.4729,47.18712],[8.50919,47.17701],[8.51662,47.17166],[8.50859,47.16006],[8.49699,47.12347],[8.50175,47.11425],[8.52168,47.09789],[8.52614,47.07826],[8.52108,47.07231],[8.4958,47.08094],[8.47022,47.09819],[8.46695,47.10503],[8.48747,47.11901],[8.48688,47.12258],[8.47736,47.1205],[8.46487,47.12645],[8.46368,47.13537],[8.47052,47.14429],[8.46903,47.14727],[8.4616,47.14697],[8.45862,47.15262],[8.4619,47.16184],[8.45833,47.17701],[8.4729,47.18712]]]]},"properties":{"class":"lake","kind":"lake","source":"awmc-inland-water"}},{"type":"Feature","geometry":{"type":"MultiPolygon","coordinates":[[[[13.28985,41.31024],[13.29984,41.32428],[13.30912,41.32928],[13.3203,41.33309],[13.33458,41.32928],[13.33625,41.34022],[13.33886,41.34022],[13.33982,41.33213],[13.35386,41.32904],[13.35742,41.31809],[13.36242,41.31357],[13.35695,41.31405],[13.35005,41.32547],[13.33982,41.32595],[13.33672,41.32214],[13.33006,41.325],[13.32625,41.31976],[13.32697,41.32428],[13.32173,41.32785],[13.32078,41.32476],[13.31293,41.325],[13.31102,41.32071],[13.30436,41.32],[13.30555,41.31667],[13.28985,41.31024]]]]},"properties":{"name":"Fundanus Lacus","class":"lake","kind":"lake","source":"awmc-inland-water"}},{"type":"Feature","geometry":{"type":"MultiPolygon","coordinates":[[[[13.40025,41.29287],[13.40692,41.29073],[13.40025,41.28692],[13.39811,41.28788],[13.40025,41.29287]]]]},"properties":{"class":"lake","kind":"lake","source":"awmc-inland-water"}},{"type":"Feature","geometry":{"type":"MultiPolygon","coordinates":[[[[14.3844,41.42719],[14.39487,41.4241],[14.4001,41.4153],[14.3775,41.4191],[14.3706,41.42529],[14.37179,41.43148],[14.3844,41.42719]]]]},"properties":{"class":"lake","kind":"lake","source":"awmc-inland-water"}},{"type":"Feature","geometry":{"type":"MultiPolygon","coordinates":[[[[15.08301,41.32345],[15.0823,41.32749],[15.08491,41.32821],[15.08301,41.32345]]]]},"properties":{"class":"lake","kind":"lake","source":"awmc-inland-water"}},{"type":"Feature","geometry":{"type":"MultiPolygon","coordinates":[[[[14.06998,40.84327],[14.0626,40.84351],[14.06522,40.84756],[14.07045,40.84684],[14.06998,40.84327]]]]},"properties":{"name":"Avernus Lacus","class":"lake","kind":"lake","source":"awmc-inland-water"}},{"type":"Feature","geometry":{"type":"MultiPolygon","coordinates":[[[[14.0726,40.83398],[14.0707,40.84112],[14.07998,40.84398],[14.08283,40.83874],[14.0726,40.83398]]]]},"properties":{"class":"lake","kind":"lake","source":"awmc-inland-water"}},{"type":"Feature","geometry":{"type":"MultiPolygon","coordinates":[[[[14.07664,40.79236],[14.07069,40.79093],[14.06736,40.79331],[14.0745,40.79664],[14.07664,40.79236]]]]},"properties":{"class":"lake","kind":"lake","source":"awmc-inland-water"}},{"type":"Feature","geometry":{"type":"MultiPolygon","coordinates":[[[[14.05403,40.82995],[14.05832,40.82567],[14.05451,40.81758],[14.05023,40.82186],[14.05403,40.82995]]]]},"properties":{"class":"lake","kind":"lake","source":"awmc-inland-water"}},{"type":"Feature","geometry":{"type":"MultiPolygon","coordinates":[[[[14.06374,40.82019],[14.06113,40.82448],[14.06565,40.82614],[14.06374,40.82019]]]]},"properties":{"name":"Lucrinus Lacus","class":"lake","kind":"lake","source":"awmc-inland-water"}},{"type":"Feature","geometry":{"type":"MultiPolygon","coordinates":[[[[15.48893,40.52546],[15.50559,40.52593],[15.52058,40.51404],[15.52034,40.5069],[15.50654,40.5],[15.48441,40.50166],[15.48084,40.50809],[15.48893,40.52546]]]]},"properties":{"class":"lake","kind":"lake","source":"awmc-inland-water"}},{"type":"Feature","geometry":{"type":"MultiPolygon","coordinates":[[[[16.12228,41.36807],[16.08516,41.37021],[16.06874,41.3745],[16.0578,41.3814],[16.01615,41.3921],[15.99641,41.40281],[15.93264,41.41875],[15.9274,41.42113],[15.92431,41.42756],[15.92669,41.4316],[15.93692,41.43565],[15.95881,41.43708],[16.00973,41.42684],[16.12085,41.38925],[16.13703,41.37949],[16.13822,41.37592],[16.13632,41.3714],[16.12228,41.36807]]]]},"properties":{"name":"Salapina Palus","class":"lake","kind":"lake","source":"awmc-inland-water"}},{"type":"Feature","geometry":{"type":"MultiPolygon","coordinates":[[[[15.61599,41.62577],[15.61688,41.62874],[15.6261,41.62934],[15.62432,41.62547],[15.61599,41.62577]]]]},"properties":{"class":"lake","kind":"lake","source":"awmc-inland-water"}},{"type":"Feature","geometry":{"type":"MultiPolygon","coordinates":[[[[15.56453,41.6106],[15.58238,41.60822],[15.58268,41.60584],[15.57554,41.60346],[15.57494,41.60584],[15.5681,41.60584],[15.56453,41.6106]]]]},"properties":{"class":"lake","kind":"lake","source":"awmc-inland-water"}},{"type":"Feature","geometry":{"type":"MultiPolygon","coordinates":[[[[15.59547,41.61922],[15.60469,41.61268],[15.59874,41.60554],[15.59487,41.60703],[15.59547,41.61922]]]]},"properties":{"class":"lake","kind":"lake","source":"awmc-inland-water"}},{"type":"Feature","geometry":{"type":"MultiPolygon","coordinates":[[[[15.57344,41.34598],[15.58319,41.34455],[15.57891,41.34146],[15.57296,41.34289],[15.57344,41.34598]]]]},"properties":{"class":"lake","kind":"lake","source":"awmc-inland-water"}},{"type":"Feature","geometry":{"type":"MultiPolygon","coordinates":[[[[16.37841,40.91006],[16.38674,40.90745],[16.39173,40.8996],[16.39031,40.89674],[16.3796,40.89864],[16.37484,40.90364],[16.37246,40.90745],[16.37841,40.91006]]]]},"properties":{"class":"lake","kind":"lake","source":"awmc-inland-water"}},{"type":"Feature","geometry":{"type":"MultiPolygon","coordinates":[[[[15.76879,40.82131],[15.76522,40.81489],[15.74428,40.81084],[15.7469,40.82155],[15.76879,40.82131]]]]},"properties":{"class":"lake","kind":"lake","source":"awmc-inland-water"}},{"type":"Feature","geometry":{"type":"MultiPolygon","coordinates":[[[[15.60223,40.93971],[15.60485,40.93614],[15.60247,40.93305],[15.59937,40.93614],[15.60223,40.93971]]]]},"properties":{"class":"lake","kind":"lake","source":"awmc-inland-water"}},{"type":"Feature","geometry":{"type":"MultiPolygon","coordinates":[[[[15.60841,40.93805],[15.6127,40.93543],[15.60913,40.93495],[15.60841,40.93805]]]]},"properties":{"class":"lake","kind":"lake","source":"awmc-inland-water"}},{"type":"Feature","geometry":{"type":"MultiPolygon","coordinates":[[[[15.74945,40.58073],[15.75469,40.56669],[15.74803,40.56741],[15.7435,40.57907],[15.73589,40.58454],[15.73161,40.60024],[15.73589,40.60334],[15.7466,40.60048],[15.74945,40.58073]]]]},"properties":{"class":"lake","kind":"lake","source":"awmc-inland-water"}},{"type":"Feature","geometry":{"type":"MultiPolygon","coordinates":[[[[18.3444,40.35302],[18.33678,40.35349],[18.32941,40.35968],[18.3444,40.35302]]]]},"properties":{"class":"lake","kind":"lake","source":"awmc-inland-water"}},{"type":"Feature","geometry":{"type":"MultiPolygon","coordinates":[[[[18.44196,40.21263],[18.44481,40.2112],[18.44814,40.19859],[18.45433,40.20049],[18.44743,40.18741],[18.44148,40.19621],[18.44196,40.20145],[18.43886,40.20145],[18.44196,40.21263]]]]},"properties":{"class":"lake","kind":"lake","source":"awmc-inland-water"}},{"type":"Feature","geometry":{"type":"MultiPolygon","coordinates":[[[[18.44576,40.17908],[18.451,40.16813],[18.45124,40.16456],[18.44743,40.16242],[18.44362,40.17503],[18.44576,40.17908]]]]},"properties":{"class":"lake","kind":"lake","source":"awmc-inland-water"}},{"type":"Feature","geometry":{"type":"MultiPolygon","coordinates":[[[[12.36953,44.22159],[12.36405,44.22159],[12.32241,44.24634],[12.31361,44.25776],[12.28743,44.27917],[12.28268,44.28869],[12.28577,44.29702],[12.28981,44.2994],[12.31051,44.29178],[12.36881,44.22587],[12.36953,44.22159]]]]},"properties":{"class":"lake","kind":"lake","source":"awmc-inland-water"}},{"type":"Feature","geometry":{"type":"MultiPolygon","coordinates":[[[[12.1982,44.20945],[12.20082,44.20827],[12.19797,44.20636],[12.1982,44.20945]]]]},"properties":{"class":"lake","kind":"lake","source":"awmc-inland-water"}},{"type":"Feature","geometry":{"type":"MultiPolygon","coordinates":[[[[12.2255,44.35424],[12.25001,44.35566],[12.25215,44.34662],[12.26239,44.34282],[12.25906,44.33544],[12.26405,44.32925],[12.26239,44.32568],[12.24264,44.30974],[12.23312,44.31069],[12.22336,44.34186],[12.22241,44.35114],[12.2255,44.35424]]]]},"properties":{"class":"lake","kind":"lake","source":"awmc-inland-water"}},{"type":"Feature","geometry":{"type":"MultiPolygon","coordinates":[[[[12.15296,44.54697],[12.17723,44.54793],[12.18247,44.5465],[12.18556,44.5415],[12.18675,44.51652],[12.20531,44.45275],[12.18366,44.48392],[12.16224,44.53174],[12.15344,44.54102],[12.15296,44.54697]]]]},"properties":{"class":"lake","kind":"lake","source":"awmc-inland-water"}},{"type":"Feature","geometry":{"type":"MultiPolygon","coordinates":[[[[12.10442,44.58052],[12.05674,44.61003],[12.03604,44.61003],[12.02176,44.61503],[12.01771,44.62288],[11.98873,44.64001],[11.98659,44.65571],[11.98183,44.65928],[11.93186,44.66214],[11.92211,44.66024],[11.91426,44.66666],[11.90188,44.6688],[11.90117,44.67094],[11.91521,44.67308],[11.92354,44.66809],[11.9271,44.66904],[11.92068,44.67594],[11.90569,44.67642],[11.90498,44.67927],[11.91497,44.67832],[11.90926,44.68427],[11.90521,44.68118],[11.8957,44.68498],[11.90117,44.68712],[11.89784,44.69474],[11.88998,44.70116],[11.89046,44.70592],[11.88451,44.7064],[11.89189,44.71211],[11.88784,44.71568],[11.88951,44.72115],[11.90902,44.71687],[11.91259,44.71758],[11.91259,44.72091],[11.92144,44.72258],[11.92311,44.7171],[11.92882,44.71639],[11.9281,44.72282],[11.93905,44.72115],[11.93596,44.72353],[11.93738,44.72567],[11.94738,44.729],[11.95071,44.73543],[11.94643,44.74019],[11.94762,44.74399],[11.97331,44.74685],[11.99401,44.73971],[12.02495,44.73614],[12.05207,44.72472],[12.08443,44.71948],[12.09062,44.71401],[12.0999,44.68903],[12.11323,44.66571],[12.10371,44.65072],[12.09586,44.61455],[12.10442,44.58052]]]]},"properties":{"class":"lake","kind":"lake","source":"awmc-inland-water"}},{"type":"Feature","geometry":{"type":"MultiPolygon","coordinates":[[[[12.12746,44.74947],[12.14102,44.71496],[12.1541,44.70188],[12.18861,44.69498],[12.20836,44.69593],[12.2174,44.69188],[12.2155,44.68736],[12.19099,44.68284],[12.17171,44.68522],[12.15315,44.66499],[12.14459,44.66285],[12.13436,44.6788],[12.12769,44.70687],[12.12317,44.71282],[12.12436,44.74899],[12.12746,44.74947]]]]},"properties":{"class":"lake","kind":"lake","source":"awmc-inland-water"}},{"type":"Feature","geometry":{"type":"MultiPolygon","coordinates":[[[[12.00015,44.76279],[12.02133,44.77945],[12.03489,44.80277],[12.04251,44.80752],[12.08058,44.81942],[12.0851,44.81823],[12.09367,44.80562],[12.09747,44.77421],[12.09271,44.76374],[12.04941,44.74756],[12.03823,44.74732],[12.00515,44.75518],[11.99944,44.75946],[12.00015,44.76279]]]]},"properties":{"class":"lake","kind":"lake","source":"awmc-inland-water"}},{"type":"Feature","geometry":{"type":"MultiPolygon","coordinates":[[[[12.13578,44.84774],[12.12983,44.84512],[12.11342,44.86392],[12.11151,44.87177],[12.11532,44.88843],[12.12079,44.89628],[12.12412,44.92055],[12.12841,44.92412],[12.14149,44.91769],[12.14744,44.89866],[12.13578,44.84774]]]]},"properties":{"class":"lake","kind":"lake","source":"awmc-inland-water"}},{"type":"Feature","geometry":{"type":"MultiPolygon","coordinates":[[[[12.08177,44.88985],[12.07687,44.8701],[12.02285,44.84036],[11.99049,44.83394],[11.97693,44.83441],[11.96432,44.83917],[11.95956,44.85035],[11.96289,44.86035],[11.98716,44.88176],[11.98835,44.89628],[11.98002,44.93078],[11.98716,44.94196],[11.9943,44.96623],[12.01096,44.966],[12.03999,44.95553],[12.06559,44.95505],[12.08248,44.94815],[12.08772,44.93173],[12.08177,44.88985]]]]},"properties":{"class":"lake","kind":"lake","source":"awmc-inland-water"}},{"type":"Feature","geometry":{"type":"MultiPolygon","coordinates":[[[[12.1483,44.95529],[12.14711,44.9491],[12.13521,44.94839],[12.12474,44.96504],[12.10023,44.9798],[12.11975,44.98717],[12.13474,44.98432],[12.1395,44.9817],[12.1483,44.95529]]]]},"properties":{"class":"lake","kind":"lake","source":"awmc-inland-water"}},{"type":"Feature","geometry":{"type":"MultiPolygon","coordinates":[[[[12.17209,44.97171],[12.16805,44.97313],[12.16805,44.9817],[12.16186,44.99788],[12.15115,45.00288],[12.12879,45.00312],[12.12688,45.01834],[12.14735,45.02739],[12.17138,45.03167],[12.1809,45.03167],[12.19898,45.02548],[12.19946,45.01858],[12.19089,45.00859],[12.17899,44.98051],[12.17209,44.97171]]]]},"properties":{"class":"lake","kind":"lake","source":"awmc-inland-water"}},{"type":"Feature","geometry":{"type":"MultiPolygon","coordinates":[[[[12.21611,45.09139],[12.22159,45.08854],[12.21159,45.0607],[12.1966,45.04833],[12.18756,45.04618],[12.15853,45.05261],[12.12903,45.07212],[12.12213,45.07878],[12.12022,45.0864],[12.12617,45.10591],[12.13735,45.10948],[12.15544,45.09687],[12.17899,45.08782],[12.19636,45.08592],[12.21611,45.09139]]]]},"properties":{"class":"lake","kind":"lake","source":"awmc-inland-water"}},{"type":"Feature","geometry":{"type":"MultiPolygon","coordinates":[[[[12.21373,45.10615],[12.21159,45.10163],[12.18851,45.10044],[12.16353,45.10805],[12.14306,45.1209],[12.14021,45.12994],[12.14259,45.13399],[12.14973,45.13422],[12.21373,45.10615]]]]},"properties":{"class":"lake","kind":"lake","source":"awmc-inland-water"}},{"type":"Feature","geometry":{"type":"MultiPolygon","coordinates":[[[[9.10689,47.13821],[9.11617,47.1432],[9.22575,47.13178],[9.28999,47.13178],[9.30284,47.12857],[9.30034,47.12357],[9.28963,47.12072],[9.2618,47.1225],[9.22753,47.11751],[9.18684,47.12036],[9.11938,47.13071],[9.10689,47.13821]]]]},"properties":{"class":"lake","kind":"lake","source":"awmc-inland-water"}},{"type":"Feature","geometry":{"type":"MultiPolygon","coordinates":[[[[8.90381,47.10918],[8.9113,47.11096],[8.92272,47.10739],[8.92843,47.10097],[8.93093,47.09026],[8.92736,47.08169],[8.91523,47.07384],[8.91094,47.0742],[8.91594,47.08526],[8.91309,47.09954],[8.90381,47.10918]]]]},"properties":{"class":"lake","kind":"lake","source":"awmc-inland-water"}},{"type":"Feature","geometry":{"type":"MultiPolygon","coordinates":[[[[8.81279,47.08955],[8.78245,47.11525],[8.78174,47.12238],[8.76318,47.14451],[8.76711,47.15451],[8.77924,47.15843],[8.79102,47.15772],[8.79173,47.14094],[8.7978,47.12024],[8.80315,47.10989],[8.81707,47.10025],[8.81993,47.09097],[8.81279,47.08955]]]]},"properties":{"class":"lake","kind":"lake","source":"awmc-inland-water"}},{"type":"Feature","geometry":{"type":"MultiPolygon","coordinates":[[[[8.58633,47.05171],[8.59489,47.04957],[8.59846,47.04493],[8.61559,47.04065],[8.62202,47.03315],[8.61274,47.03208],[8.58918,47.03922],[8.58525,47.04136],[8.58633,47.05171]]]]},"properties":{"class":"lake","kind":"lake","source":"awmc-inland-water"}},{"type":"Feature","geometry":{"type":"MultiPolygon","coordinates":[[[[8.59668,47.14308],[8.60524,47.1438],[8.61274,47.1388],[8.63629,47.13202],[8.64736,47.11917],[8.64022,47.11203],[8.63415,47.11096],[8.62844,47.11489],[8.6263,47.12096],[8.59596,47.12988],[8.59668,47.14308]]]]},"properties":{"class":"lake","kind":"lake","source":"awmc-inland-water"}},{"type":"Feature","geometry":{"type":"MultiPolygon","coordinates":[[[[11.23517,46.04083],[11.24624,46.04226],[11.24981,46.02941],[11.26444,46.01192],[11.25587,46.00728],[11.23731,46.01834],[11.23517,46.04083]]]]},"properties":{"class":"lake","kind":"lake","source":"awmc-inland-water"}},{"type":"Feature","geometry":{"type":"MultiPolygon","coordinates":[[[[11.26836,46.03262],[11.288,46.01584],[11.28193,46.01442],[11.27479,46.01906],[11.26836,46.03262]]]]},"properties":{"class":"lake","kind":"lake","source":"awmc-inland-water"}},{"type":"Feature","geometry":{"type":"MultiPolygon","coordinates":[[[[11.25471,46.37871],[11.26292,46.3912],[11.27327,46.37836],[11.27256,46.3755],[11.25757,46.373],[11.25471,46.37871]]]]},"properties":{"class":"lake","kind":"lake","source":"awmc-inland-water"}},{"type":"Feature","geometry":{"type":"MultiPolygon","coordinates":[[[[8.15227,46.79154],[8.15971,46.80998],[8.17369,46.81741],[8.17399,46.81295],[8.16506,46.80522],[8.16625,46.80106],[8.15614,46.79035],[8.15198,46.78946],[8.15227,46.79154]]]]},"properties":{"class":"lake","kind":"lake","source":"awmc-inland-water"}},{"type":"Feature","geometry":{"type":"MultiPolygon","coordinates":[[[[8.18975,46.86322],[8.19689,46.87125],[8.21592,46.87601],[8.23437,46.88999],[8.24121,46.89118],[8.2415,46.87958],[8.20522,46.854],[8.18916,46.85638],[8.18975,46.86322]]]]},"properties":{"class":"lake","kind":"lake","source":"awmc-inland-water"}},{"type":"Feature","geometry":{"type":"MultiPolygon","coordinates":[[[[8.30674,47.07273],[8.32132,47.08046],[8.32697,47.07957],[8.31388,47.07184],[8.30674,47.07273]]]]},"properties":{"class":"lake","kind":"lake","source":"awmc-inland-water"}},{"type":"Feature","geometry":{"type":"MultiPolygon","coordinates":[[[[12.249,45.13684],[12.24614,45.12161],[12.22616,45.11281],[12.14525,45.14922],[12.13597,45.15992],[12.13693,45.16492],[12.17214,45.18967],[12.21783,45.18372],[12.25257,45.16777],[12.25518,45.1504],[12.249,45.13684]]]]},"properties":{"class":"lake","kind":"lake","source":"awmc-inland-water"}},{"type":"Feature","geometry":{"type":"MultiPolygon","coordinates":[[[[12.67939,45.57086],[12.70343,45.55991],[12.71104,45.5492],[12.70581,45.5454],[12.69415,45.54373],[12.64465,45.54444],[12.60397,45.55253],[12.58921,45.56419],[12.57018,45.573],[12.56518,45.5799],[12.56589,45.58323],[12.57232,45.58608],[12.59921,45.58632],[12.67939,45.57086]]]]},"properties":{"class":"lake","kind":"lake","source":"awmc-inland-water"}},{"type":"Feature","geometry":{"type":"MultiPolygon","coordinates":[[[[12.59164,45.53873],[12.60211,45.54087],[12.62709,45.53564],[12.63209,45.53421],[12.63304,45.52969],[12.624,45.52279],[12.60497,45.51994],[12.59925,45.52969],[12.59235,45.53112],[12.59164,45.53873]]]]},"properties":{"class":"lake","kind":"lake","source":"awmc-inland-water"}},{"type":"Feature","geometry":{"type":"MultiPolygon","coordinates":[[[[12.59426,45.51732],[12.58617,45.51565],[12.58926,45.51803],[12.58522,45.52112],[12.5945,45.52684],[12.60044,45.52279],[12.60021,45.51875],[12.59426,45.51732]]]]},"properties":{"class":"lake","kind":"lake","source":"awmc-inland-water"}},{"type":"Feature","geometry":{"type":"MultiPolygon","coordinates":[[[[12.57356,45.52446],[12.58069,45.52803],[12.58474,45.52588],[12.57665,45.51779],[12.56547,45.51994],[12.57356,45.52446]]]]},"properties":{"class":"lake","kind":"lake","source":"awmc-inland-water"}},{"type":"Feature","geometry":{"type":"MultiPolygon","coordinates":[[[[12.56618,45.50756],[12.55428,45.50328],[12.56118,45.50851],[12.56618,45.50756]]]]},"properties":{"class":"lake","kind":"lake","source":"awmc-inland-water"}},{"type":"Feature","geometry":{"type":"MultiPolygon","coordinates":[[[[12.55,45.51565],[12.55833,45.51898],[12.55333,45.51279],[12.54691,45.51184],[12.55,45.51565]]]]},"properties":{"class":"lake","kind":"lake","source":"awmc-inland-water"}},{"type":"Feature","geometry":{"type":"MultiPolygon","coordinates":[[[[12.69562,45.58561],[12.68539,45.58894],[12.66897,45.58751],[12.64542,45.59513],[12.63733,45.60345],[12.65565,45.62606],[12.67659,45.63153],[12.68087,45.63605],[12.7049,45.63439],[12.71014,45.64248],[12.71989,45.64724],[12.73465,45.65057],[12.73917,45.64843],[12.7444,45.62273],[12.73584,45.5887],[12.7444,45.57585],[12.74297,45.57109],[12.73893,45.56657],[12.72489,45.56491],[12.69562,45.58561]]]]},"properties":{"class":"lake","kind":"lake","source":"awmc-inland-water"}},{"type":"Feature","geometry":{"type":"MultiPolygon","coordinates":[[[[12.76439,45.62844],[12.76296,45.64486],[12.76653,45.64795],[12.78295,45.64652],[12.79818,45.63367],[12.81793,45.62891],[12.79961,45.6094],[12.76796,45.60583],[12.75796,45.59965],[12.76439,45.62844]]]]},"properties":{"class":"lake","kind":"lake","source":"awmc-inland-water"}},{"type":"Feature","geometry":{"type":"MultiPolygon","coordinates":[[[[12.82578,45.59298],[12.83554,45.59227],[12.83435,45.58942],[12.82578,45.59298]]]]},"properties":{"class":"lake","kind":"lake","source":"awmc-inland-water"}},{"type":"Feature","geometry":{"type":"MultiPolygon","coordinates":[[[[12.85457,45.61154],[12.85362,45.60821],[12.8303,45.60322],[12.82507,45.60607],[12.83292,45.62011],[12.84244,45.62368],[12.85457,45.62225],[12.85457,45.61154]]]]},"properties":{"class":"lake","kind":"lake","source":"awmc-inland-water"}},{"type":"Feature","geometry":{"type":"MultiPolygon","coordinates":[[[[12.82316,45.67508],[12.82744,45.66984],[12.85076,45.66389],[12.86433,45.64866],[12.87932,45.63843],[12.88312,45.63058],[12.88122,45.62653],[12.8748,45.62511],[12.85172,45.64034],[12.85291,45.64628],[12.85005,45.65057],[12.8353,45.65533],[12.82197,45.65461],[12.81126,45.65937],[12.81317,45.6696],[12.81935,45.67555],[12.82316,45.67508]]]]},"properties":{"class":"lake","kind":"lake","source":"awmc-inland-water"}},{"type":"Feature","geometry":{"type":"MultiPolygon","coordinates":[[[[12.91763,45.6301],[12.91525,45.62772],[12.90692,45.62915],[12.91548,45.63629],[12.92215,45.63772],[12.91667,45.63248],[12.91763,45.6301]]]]},"properties":{"class":"lake","kind":"lake","source":"awmc-inland-water"}},{"type":"Feature","geometry":{"type":"MultiPolygon","coordinates":[[[[12.85838,45.6815],[12.861,45.67674],[12.85671,45.67746],[12.85838,45.6815]]]]},"properties":{"class":"lake","kind":"lake","source":"awmc-inland-water"}},{"type":"Feature","geometry":{"type":"MultiPolygon","coordinates":[[[[12.86909,45.67912],[12.86909,45.6765],[12.86361,45.67627],[12.86909,45.67912]]]]},"properties":{"class":"lake","kind":"lake","source":"awmc-inland-water"}},{"type":"Feature","geometry":{"type":"MultiPolygon","coordinates":[[[[12.86123,45.67127],[12.86314,45.66841],[12.86052,45.6677],[12.86123,45.67127]]]]},"properties":{"class":"lake","kind":"lake","source":"awmc-inland-water"}},{"type":"Feature","geometry":{"type":"MultiPolygon","coordinates":[[[[12.87146,45.67531],[12.87408,45.67008],[12.86742,45.67032],[12.87146,45.67531]]]]},"properties":{"class":"lake","kind":"lake","source":"awmc-inland-water"}},{"type":"Feature","geometry":{"type":"MultiPolygon","coordinates":[[[[12.87646,45.66699],[12.87646,45.66365],[12.87313,45.66556],[12.87646,45.66699]]]]},"properties":{"class":"lake","kind":"lake","source":"awmc-inland-water"}},{"type":"Feature","geometry":{"type":"MultiPolygon","coordinates":[[[[12.91073,45.67293],[12.90787,45.66984],[12.90811,45.67341],[12.90383,45.67627],[12.88408,45.68055],[12.87837,45.69054],[12.88027,45.69506],[12.90168,45.69863],[12.90597,45.69364],[12.91239,45.69268],[12.91905,45.6834],[12.91073,45.67293]]]]},"properties":{"class":"lake","kind":"lake","source":"awmc-inland-water"}},{"type":"Feature","geometry":{"type":"MultiPolygon","coordinates":[[[[12.89597,45.64866],[12.89859,45.64628],[12.8955,45.64509],[12.89597,45.64866]]]]},"properties":{"class":"lake","kind":"lake","source":"awmc-inland-water"}},{"type":"Feature","geometry":{"type":"MultiPolygon","coordinates":[[[[12.90977,45.647],[12.91025,45.64462],[12.90787,45.64509],[12.90977,45.647]]]]},"properties":{"class":"lake","kind":"lake","source":"awmc-inland-water"}},{"type":"Feature","geometry":{"type":"MultiPolygon","coordinates":[[[[12.48932,45.56514],[12.50146,45.56586],[12.50146,45.56229],[12.51074,45.55658],[12.49718,45.55563],[12.49051,45.56039],[12.48932,45.56514]]]]},"properties":{"class":"lake","kind":"lake","source":"awmc-inland-water"}},{"type":"Feature","geometry":{"type":"MultiPolygon","coordinates":[[[[12.41485,45.5304],[12.42032,45.5304],[12.41984,45.52707],[12.41461,45.52755],[12.41485,45.5304]]]]},"properties":{"class":"lake","kind":"lake","source":"awmc-inland-water"}},{"type":"Feature","geometry":{"type":"MultiPolygon","coordinates":[[[[12.53192,45.57181],[12.52882,45.56967],[12.5243,45.57252],[12.53192,45.57181]]]]},"properties":{"class":"lake","kind":"lake","source":"awmc-inland-water"}},{"type":"Feature","geometry":{"type":"MultiPolygon","coordinates":[[[[12.23249,44.64878],[12.22812,44.6518],[12.22917,44.65481],[12.23249,44.64878]]]]},"properties":{"class":"lake","kind":"lake","source":"awmc-inland-water"}},{"type":"Feature","geometry":{"type":"MultiPolygon","coordinates":[[[[12.22043,44.64517],[12.2236,44.64562],[12.22299,44.63974],[12.22043,44.64517]]]]},"properties":{"class":"lake","kind":"lake","source":"awmc-inland-water"}},{"type":"Feature","geometry":{"type":"MultiPolygon","coordinates":[[[[12.13855,45.26579],[12.13522,45.26746],[12.13855,45.2834],[12.13617,45.28697],[12.14188,45.29054],[12.14307,45.28697],[12.1464,45.29101],[12.14997,45.28792],[12.15497,45.28863],[12.15163,45.26841],[12.14402,45.26579],[12.14045,45.26079],[12.13641,45.26079],[12.13855,45.26579]]]]},"properties":{"class":"lake","kind":"lake","source":"awmc-inland-water"}},{"type":"Feature","geometry":{"type":"MultiPolygon","coordinates":[[[[12.1397,45.3027],[12.13732,45.31436],[12.14351,45.32459],[12.16378,45.32069],[12.1585,45.31626],[12.15874,45.30936],[12.1554,45.30675],[12.1397,45.3027]]]]},"properties":{"class":"lake","kind":"lake","source":"awmc-inland-water"}},{"type":"Feature","geometry":{"type":"MultiPolygon","coordinates":[[[[11.5462,45.48023],[11.55167,45.47952],[11.54668,45.46643],[11.54311,45.47095],[11.5462,45.48023]]]]},"properties":{"class":"lake","kind":"lake","source":"awmc-inland-water"}},{"type":"Feature","geometry":{"type":"MultiPolygon","coordinates":[[[[8.08814,46.0648],[8.09385,46.06171],[8.09243,46.05957],[8.08624,46.05909],[8.08814,46.0648]]]]},"properties":{"class":"lake","kind":"lake","source":"awmc-inland-water"}},{"type":"Feature","geometry":{"type":"MultiPolygon","coordinates":[[[[8.40886,45.87972],[8.41029,45.87282],[8.40482,45.86187],[8.40363,45.85116],[8.39482,45.83831],[8.40387,45.82594],[8.40315,45.82142],[8.41886,45.80881],[8.41648,45.80572],[8.40577,45.81262],[8.40291,45.80714],[8.42457,45.79096],[8.42861,45.78121],[8.42599,45.77169],[8.41124,45.77573],[8.40648,45.79001],[8.3934,45.79144],[8.38435,45.79763],[8.38769,45.80786],[8.38031,45.83784],[8.39125,45.86734],[8.39982,45.87091],[8.40244,45.87805],[8.40886,45.87972]]]]},"properties":{"class":"lake","kind":"lake","source":"awmc-inland-water"}},{"type":"Feature","geometry":{"type":"MultiPolygon","coordinates":[[[[8.85905,46.15608],[8.80218,46.14419],[8.75364,46.1142],[8.7346,46.1073],[8.72163,46.08589],[8.72877,46.07542],[8.73163,46.06043],[8.7302,46.04925],[8.73282,46.0452],[8.74162,46.04258],[8.74924,46.03069],[8.74638,46.01998],[8.73544,46.00975],[8.71997,46.00404],[8.71069,45.99642],[8.70926,45.98786],[8.70426,45.98381],[8.66022,45.96144],[8.65856,45.95121],[8.63738,45.94288],[8.63214,45.93551],[8.61406,45.92861],[8.60906,45.92361],[8.61525,45.91576],[8.59883,45.91338],[8.59336,45.90005],[8.59954,45.8922],[8.59431,45.8853],[8.60145,45.87983],[8.6093,45.8627],[8.61763,45.86008],[8.62524,45.83414],[8.61929,45.8301],[8.61263,45.83152],[8.60573,45.82677],[8.60573,45.81439],[8.59788,45.80773],[8.58574,45.80583],[8.57052,45.80892],[8.56552,45.80083],[8.56314,45.78917],[8.5679,45.77822],[8.58313,45.77751],[8.57765,45.77299],[8.58217,45.76204],[8.59098,45.75848],[8.59859,45.74015],[8.60597,45.74015],[8.60716,45.73183],[8.58931,45.73016],[8.57789,45.74705],[8.56647,45.75538],[8.56885,45.76062],[8.55767,45.77347],[8.54458,45.78203],[8.54053,45.79797],[8.54149,45.81511],[8.54696,45.82201],[8.55743,45.82296],[8.56742,45.82796],[8.5679,45.83914],[8.57361,45.84818],[8.56457,45.87864],[8.55529,45.88625],[8.51584,45.90206],[8.50199,45.92337],[8.48152,45.93836],[8.49839,45.94598],[8.50506,45.94526],[8.50125,45.95026],[8.53266,45.9405],[8.54265,45.93575],[8.55146,45.92575],[8.55502,45.92694],[8.55812,45.92385],[8.5793,45.9455],[8.61951,45.96477],[8.63003,45.98143],[8.65287,46.00189],[8.67405,46.02783],[8.70046,46.03164],[8.7095,46.03806],[8.70712,46.0609],[8.69308,46.07875],[8.69284,46.09422],[8.69808,46.10826],[8.71652,46.13586],[8.73127,46.14942],[8.75911,46.15989],[8.78338,46.15394],[8.79147,46.15537],[8.80599,46.16631],[8.80813,46.17774],[8.82931,46.18345],[8.83763,46.18368],[8.85572,46.16774],[8.85715,46.16179],[8.8669,46.1606],[8.86738,46.15799],[8.85905,46.15608]],[[8.53452,45.91788],[8.53821,45.918],[8.53714,45.92014],[8.53452,45.91788]]]]},"properties":{"name":"Verbanus Lacus","class":"lake","kind":"lake","source":"awmc-inland-water"}},{"type":"Feature","geometry":{"type":"MultiPolygon","coordinates":[[[[8.65332,45.81058],[8.66831,45.80725],[8.66926,45.80178],[8.67854,45.79226],[8.67212,45.79107],[8.65951,45.80083],[8.64952,45.80154],[8.6469,45.80559],[8.65332,45.81058]]]]},"properties":{"class":"lake","kind":"lake","source":"awmc-inland-water"}},{"type":"Feature","geometry":{"type":"MultiPolygon","coordinates":[[[[8.68468,45.78465],[8.69587,45.7856],[8.7011,45.77109],[8.69539,45.76252],[8.67968,45.75633],[8.67707,45.758],[8.68016,45.76847],[8.68968,45.77585],[8.68468,45.78465]]]]},"properties":{"class":"lake","kind":"lake","source":"awmc-inland-water"}},{"type":"Feature","geometry":{"type":"MultiPolygon","coordinates":[[[[8.70467,45.84342],[8.72323,45.84675],[8.74155,45.82605],[8.75583,45.82486],[8.76249,45.81558],[8.77129,45.81463],[8.78224,45.80868],[8.79319,45.81035],[8.79699,45.80702],[8.78962,45.80178],[8.77129,45.79774],[8.7387,45.81011],[8.72561,45.80511],[8.71252,45.80559],[8.71609,45.8301],[8.7149,45.83414],[8.70491,45.83914],[8.70467,45.84342]]]]},"properties":{"class":"lake","kind":"lake","source":"awmc-inland-water"}},{"type":"Feature","geometry":{"type":"MultiPolygon","coordinates":[[[[8.69941,45.83483],[8.70702,45.83412],[8.70036,45.83103],[8.69941,45.83483]]]]},"properties":{"class":"lake","kind":"lake","source":"awmc-inland-water"}},{"type":"Feature","geometry":{"type":"MultiPolygon","coordinates":[[[[8.45063,45.96799],[8.46134,45.96894],[8.47514,45.96061],[8.4749,45.95776],[8.468,45.9549],[8.4492,45.96561],[8.45063,45.96799]]]]},"properties":{"class":"lake","kind":"lake","source":"awmc-inland-water"}},{"type":"Feature","geometry":{"type":"MultiPolygon","coordinates":[[[[9.15849,46.04782],[9.1692,46.04306],[9.16295,46.03979],[9.15433,46.04038],[9.15938,46.04484],[9.15849,46.04782]]]]},"properties":{"class":"lake","kind":"lake","source":"awmc-inland-water"}},{"type":"Feature","geometry":{"type":"MultiPolygon","coordinates":[[[[8.94401,46.0596],[8.94424,46.05603],[8.94139,46.05603],[8.94401,46.0596]]]]},"properties":{"class":"lake","kind":"lake","source":"awmc-inland-water"}},{"type":"Feature","geometry":{"type":"MultiPolygon","coordinates":[[[[9.12437,46.03366],[9.09353,46.01439],[9.05486,46.01867],[9.04511,46.01724],[9.02536,46.00582],[8.98015,45.99392],[8.97372,45.98774],[8.96183,45.96132],[8.96421,45.94895],[8.98515,45.9242],[8.98134,45.91421],[8.97325,45.91326],[8.97016,45.93039],[8.94826,45.94324],[8.93803,45.93824],[8.9259,45.92587],[8.90853,45.91826],[8.90377,45.91207],[8.89663,45.91302],[8.89806,45.92349],[8.89044,45.93063],[8.8883,45.94062],[8.89211,45.95347],[8.88973,45.96275],[8.87593,45.96513],[8.88592,45.96918],[8.88449,45.97655],[8.89401,45.98369],[8.89306,45.99559],[8.89687,45.99821],[8.90829,46.00178],[8.91067,45.99844],[8.89877,45.97417],[8.90258,45.95419],[8.89758,45.94229],[8.91352,45.93063],[8.93851,45.94729],[8.93994,45.95561],[8.94565,45.95966],[8.95019,45.97608],[8.959,45.99178],[8.95471,45.99844],[8.94805,46.00106],[8.95114,46.00582],[8.96019,46.0082],[8.9904,46.0063],[9.04394,46.03033],[9.08868,46.03009],[9.11271,46.04151],[9.1227,46.03889],[9.12437,46.03366]]]]},"properties":{"name":"Ceresius Lacus","class":"lake","kind":"lake","source":"awmc-inland-water"}},{"type":"Feature","geometry":{"type":"MultiPolygon","coordinates":[[[[9.27535,45.81887],[9.29343,45.81316],[9.28629,45.80982],[9.27582,45.79674],[9.25107,45.78603],[9.22157,45.79103],[9.20491,45.78127],[9.20396,45.78912],[9.20777,45.79364],[9.23037,45.80221],[9.25441,45.8053],[9.26511,45.81649],[9.27535,45.81887]]]]},"properties":{"name":"Eupilis Lacus","class":"lake","kind":"lake","source":"awmc-inland-water"}},{"type":"Feature","geometry":{"type":"MultiPolygon","coordinates":[[[[9.27368,45.83933],[9.26297,45.82862],[9.26369,45.83624],[9.27368,45.83933]]]]},"properties":{"class":"lake","kind":"lake","source":"awmc-inland-water"}},{"type":"Feature","geometry":{"type":"MultiPolygon","coordinates":[[[[9.34049,45.82981],[9.34168,45.8191],[9.34383,45.81863],[9.3443,45.82743],[9.35311,45.83219],[9.3581,45.82339],[9.3562,45.81006],[9.3493,45.80173],[9.34383,45.8015],[9.33669,45.80697],[9.33931,45.81601],[9.32669,45.81601],[9.32312,45.8191],[9.32312,45.82529],[9.32979,45.8291],[9.34049,45.82981]]]]},"properties":{"class":"lake","kind":"lake","source":"awmc-inland-water"}},{"type":"Feature","geometry":{"type":"MultiPolygon","coordinates":[[[[9.95428,45.67039],[9.99282,45.683],[10.04898,45.68871],[10.05802,45.69371],[10.05112,45.71298],[10.05493,45.74344],[10.04065,45.76152],[10.03994,45.77604],[10.05493,45.78793],[10.05945,45.80625],[10.07563,45.80959],[10.07039,45.81387],[10.07206,45.8172],[10.08443,45.82696],[10.10632,45.80816],[10.10561,45.8034],[10.07277,45.79103],[10.0723,45.7846],[10.06587,45.77984],[10.07349,45.76533],[10.088,45.75462],[10.09133,45.73773],[10.10894,45.72654],[10.10975,45.71346],[10.09762,45.69347],[10.08762,45.68585],[10.07668,45.68585],[10.07263,45.678],[10.04075,45.66301],[10.02576,45.66491],[10.01695,45.66135],[9.9903,45.67229],[9.9696,45.66396],[9.95428,45.67039]]]]},"properties":{"name":"Sebinnus Lacus","class":"lake","kind":"lake","source":"awmc-inland-water"}},{"type":"Feature","geometry":{"type":"MultiPolygon","coordinates":[[[[10.52478,45.51127],[10.53882,45.52269],[10.56071,45.53245],[10.56142,45.54173],[10.57974,45.55291],[10.5826,45.55981],[10.57451,45.56362],[10.5726,45.56957],[10.56475,45.56529],[10.555,45.571],[10.56023,45.58123],[10.57998,45.59336],[10.5726,45.59646],[10.5707,45.60264],[10.54881,45.60574],[10.52858,45.60169],[10.52406,45.60479],[10.52906,45.60931],[10.58545,45.6281],[10.5983,45.63738],[10.61567,45.63619],[10.61948,45.63857],[10.62329,45.64262],[10.62376,45.65119],[10.656,45.67331],[10.65862,45.68545],[10.66481,45.69116],[10.70811,45.71971],[10.71668,45.73042],[10.73453,45.73851],[10.7532,45.75826],[10.75439,45.76445],[10.77819,45.78753],[10.7996,45.82393],[10.82768,45.84059],[10.82911,45.8482],[10.83553,45.85653],[10.84243,45.88913],[10.8491,45.88866],[10.85719,45.88271],[10.86908,45.88152],[10.87051,45.87723],[10.87908,45.87343],[10.86385,45.85415],[10.85409,45.81727],[10.84577,45.81299],[10.83125,45.79728],[10.82459,45.79514],[10.8096,45.76588],[10.79675,45.75683],[10.7958,45.75231],[10.80056,45.75422],[10.79984,45.75112],[10.78461,45.73661],[10.78342,45.72947],[10.76177,45.70924],[10.76011,45.7033],[10.7256,45.66665],[10.7213,45.65547],[10.70654,45.64452],[10.69227,45.62144],[10.68727,45.6193],[10.68537,45.61454],[10.68775,45.60954],[10.67537,45.59217],[10.67371,45.57695],[10.69607,45.58337],[10.70583,45.58171],[10.71083,45.57552],[10.71487,45.56219],[10.71915,45.55839],[10.71868,45.54911],[10.72606,45.54696],[10.73652,45.50223],[10.73177,45.48819],[10.7213,45.48034],[10.71237,45.46154],[10.70333,45.45797],[10.69786,45.44965],[10.70024,45.44608],[10.69167,45.44655],[10.67145,45.45702],[10.65812,45.45821],[10.64265,45.46702],[10.61862,45.46916],[10.61624,45.4713],[10.61529,45.4989],[10.61101,45.50437],[10.60435,45.50152],[10.61053,45.49367],[10.61125,45.48105],[10.59102,45.46702],[10.57508,45.46511],[10.55366,45.47082],[10.54105,45.47891],[10.54129,45.49152],[10.52796,45.49271],[10.51726,45.49961],[10.51631,45.50747],[10.52478,45.51127]]]]},"properties":{"name":"Benacus Lacus","class":"lake","kind":"lake","source":"awmc-inland-water"}},{"type":"Feature","geometry":{"type":"MultiPolygon","coordinates":[[[[10.66723,45.43962],[10.66938,45.44438],[10.67199,45.44319],[10.67009,45.43676],[10.66723,45.43962]]]]},"properties":{"class":"lake","kind":"lake","source":"awmc-inland-water"}},{"type":"Feature","geometry":{"type":"MultiPolygon","coordinates":[[[[10.59302,45.65696],[10.59873,45.65434],[10.59231,45.64911],[10.59302,45.65696]]]]},"properties":{"class":"lake","kind":"lake","source":"awmc-inland-water"}},{"type":"Feature","geometry":{"type":"MultiPolygon","coordinates":[[[[10.44786,46.04851],[10.43453,46.04565],[10.42763,46.0516],[10.44786,46.04851]]]]},"properties":{"class":"lake","kind":"lake","source":"awmc-inland-water"}},{"type":"Feature","geometry":{"type":"MultiPolygon","coordinates":[[[[10.44119,45.96332],[10.44286,45.95833],[10.43572,45.9619],[10.44119,45.96332]]]]},"properties":{"class":"lake","kind":"lake","source":"awmc-inland-water"}},{"type":"Feature","geometry":{"type":"MultiPolygon","coordinates":[[[[10.58979,46.07825],[10.57837,46.05898],[10.56933,46.05803],[10.56504,46.06207],[10.56576,46.06516],[10.58408,46.07278],[10.58979,46.07825]]]]},"properties":{"class":"lake","kind":"lake","source":"awmc-inland-water"}},{"type":"Feature","geometry":{"type":"MultiPolygon","coordinates":[[[[10.55719,45.99949],[10.54387,46.00544],[10.54292,46.00925],[10.55053,46.00996],[10.55719,45.99949]]]]},"properties":{"class":"lake","kind":"lake","source":"awmc-inland-water"}},{"type":"Feature","geometry":{"type":"MultiPolygon","coordinates":[[[[10.96929,46.14464],[10.96263,46.12322],[10.94145,46.11513],[10.9424,46.1218],[10.95668,46.13131],[10.9562,46.13464],[10.95073,46.13464],[10.95216,46.13655],[10.96929,46.14464]]]]},"properties":{"class":"lake","kind":"lake","source":"awmc-inland-water"}},{"type":"Feature","geometry":{"type":"MultiPolygon","coordinates":[[[[11.02378,46.09515],[11.02402,46.08325],[11.02116,46.08087],[11.02378,46.09515]]]]},"properties":{"class":"lake","kind":"lake","source":"awmc-inland-water"}},{"type":"Feature","geometry":{"type":"MultiPolygon","coordinates":[[[[11.05329,46.09824],[11.05448,46.10395],[11.05781,46.10324],[11.05686,46.09705],[11.04877,46.09324],[11.05329,46.09824]]]]},"properties":{"class":"lake","kind":"lake","source":"awmc-inland-water"}},{"type":"Feature","geometry":{"type":"MultiPolygon","coordinates":[[[[10.9405,45.9983],[10.95597,46.01424],[10.95549,46.00829],[10.9493,46.00044],[10.9405,45.9983]]]]},"properties":{"class":"lake","kind":"lake","source":"awmc-inland-water"}},{"type":"Feature","geometry":{"type":"MultiPolygon","coordinates":[[[[10.97667,46.06302],[10.97286,46.06017],[10.97429,46.05684],[10.96358,46.05184],[10.96073,46.05374],[10.96239,46.06017],[10.97667,46.06302]]]]},"properties":{"class":"lake","kind":"lake","source":"awmc-inland-water"}},{"type":"Feature","geometry":{"type":"MultiPolygon","coordinates":[[[[10.98666,46.07349],[10.98571,46.06754],[10.9781,46.06516],[10.98238,46.07278],[10.98666,46.07349]]]]},"properties":{"class":"lake","kind":"lake","source":"awmc-inland-water"}},{"type":"Feature","geometry":{"type":"MultiPolygon","coordinates":[[[[10.92694,45.86505],[10.90933,45.8779],[10.91242,45.87885],[10.92503,45.87171],[10.92694,45.86505]]]]},"properties":{"class":"lake","kind":"lake","source":"awmc-inland-water"}},{"type":"Feature","geometry":{"type":"MultiPolygon","coordinates":[[[[9.38758,46.15644],[9.37866,46.15287],[9.37717,46.14632],[9.35278,46.14216],[9.34029,46.13502],[9.34118,46.12699],[9.33642,46.12312],[9.32916,46.12431],[9.33273,46.1305],[9.31322,46.12455],[9.31108,46.11955],[9.31536,46.1098],[9.30727,46.08886],[9.29775,46.08006],[9.30656,46.07054],[9.30608,46.05697],[9.2949,46.04627],[9.2949,46.04151],[9.283,46.0327],[9.27943,46.01724],[9.28824,46.00653],[9.29966,45.97155],[9.2999,45.95751],[9.30965,45.94609],[9.31013,45.92777],[9.31417,45.91897],[9.32274,45.91801],[9.33416,45.90041],[9.34844,45.89969],[9.36081,45.89255],[9.38794,45.85734],[9.39626,45.85091],[9.37913,45.85424],[9.36343,45.87542],[9.34915,45.88565],[9.32462,45.89279],[9.29202,45.92111],[9.27655,45.9587],[9.26585,45.96941],[9.26323,45.98797],[9.26537,45.99582],[9.26323,45.9963],[9.21147,45.95823],[9.1903,45.95085],[9.17864,45.95109],[9.1508,45.943],[9.1477,45.93824],[9.15223,45.91706],[9.14961,45.9054],[9.15437,45.88399],[9.15056,45.8728],[9.13866,45.86519],[9.11344,45.86376],[9.09226,45.83711],[9.07775,45.82902],[9.08072,45.81974],[9.0712,45.81998],[9.06739,45.82379],[9.06811,45.82878],[9.08024,45.84568],[9.07881,45.84877],[9.08857,45.85258],[9.09547,45.86352],[9.13164,45.88137],[9.14163,45.89327],[9.14306,45.89803],[9.13188,45.90873],[9.12997,45.91468],[9.1314,45.93063],[9.12831,45.95085],[9.17176,45.97273],[9.18696,45.97369],[9.20076,45.96965],[9.20029,45.9756],[9.19457,45.97774],[9.19767,45.9825],[9.22075,45.98607],[9.2374,45.9963],[9.23717,46.00391],[9.23336,46.00939],[9.23621,46.01843],[9.23455,46.02319],[9.23907,46.02795],[9.2374,46.03984],[9.25025,46.04722],[9.25953,46.05816],[9.26096,46.06435],[9.27667,46.07458],[9.28139,46.12729],[9.31976,46.15465],[9.33701,46.15703],[9.34118,46.16387],[9.35159,46.17101],[9.40156,46.17934],[9.42416,46.20075],[9.42416,46.2073],[9.4313,46.20997],[9.43338,46.22187],[9.4426,46.22455],[9.44469,46.22841],[9.44766,46.21652],[9.4548,46.21176],[9.4545,46.2064],[9.44677,46.1954],[9.4087,46.17934],[9.38044,46.17161],[9.38252,46.16179],[9.38014,46.15911],[9.38758,46.15644]]]]},"properties":{"name":"Larius/Comacinus Lacus","class":"lake","kind":"lake","source":"awmc-inland-water"}},{"type":"Feature","geometry":{"type":"MultiPolygon","coordinates":[[[[10.52243,45.8155],[10.53481,45.80836],[10.52124,45.79242],[10.52243,45.77648],[10.50792,45.76268],[10.49673,45.75958],[10.48389,45.74745],[10.46628,45.73959],[10.47104,45.74673],[10.47913,45.74959],[10.48174,45.75744],[10.48983,45.76577],[10.49745,45.76839],[10.50554,45.78219],[10.50245,45.79075],[10.50958,45.81098],[10.52243,45.8155]]]]},"properties":{"class":"lake","kind":"lake","source":"awmc-inland-water"}},{"type":"Feature","geometry":{"type":"MultiPolygon","coordinates":[[[[9.79371,37.03808],[9.79637,37.03618],[9.79313,37.0358],[9.79371,37.03808]]]]},"properties":{"class":"lake","kind":"lake","source":"awmc-inland-water"}},{"type":"Feature","geometry":{"type":"MultiPolygon","coordinates":[[[[12.25316,41.84987],[12.26459,41.84652],[12.28922,41.82385],[12.3021,41.82265],[12.31433,41.82865],[12.3219,41.82853],[12.33059,41.82469],[12.333,41.81845],[12.3153,41.80357],[12.31355,41.79834],[12.30194,41.79745],[12.29564,41.79026],[12.28372,41.78747],[12.27119,41.79481],[12.26668,41.79421],[12.26282,41.78761],[12.25574,41.78749],[12.25074,41.79093],[12.25186,41.79926],[12.24882,41.8065],[12.25944,41.80309],[12.26555,41.80561],[12.26577,41.80866],[12.27349,41.80664],[12.27538,41.8116],[12.26752,41.83357],[12.24664,41.83825],[12.2457,41.84163],[12.25151,41.84401],[12.25018,41.84905],[12.25316,41.84987]]]]},"properties":{"class":"swamp","kind":"lake","source":"awmc-inland-water"}},{"type":"Feature","geometry":{"type":"MultiPolygon","coordinates":[[[[12.18683,41.90278],[12.18105,41.90741],[12.18667,41.90998],[12.20277,41.89549],[12.20768,41.88818],[12.20679,41.88057],[12.20164,41.88146],[12.19561,41.88919],[12.19526,41.89882],[12.18683,41.90278]]]]},"properties":{"class":"swamp","kind":"lake","source":"awmc-inland-water"}},{"type":"Feature","geometry":{"type":"MultiPolygon","coordinates":[[[[12.17613,41.91886],[12.16992,41.91665],[12.17705,41.9073],[12.16904,41.90549],[12.16285,41.91729],[12.17323,41.92094],[12.17613,41.91886]]]]},"properties":{"class":"swamp","kind":"lake","source":"awmc-inland-water"}},{"type":"Feature","geometry":{"type":"MultiPolygon","coordinates":[[[[12.22885,41.87355],[12.23118,41.86864],[12.2472,41.86606],[12.2379,41.85438],[12.23742,41.85962],[12.22438,41.86818],[12.22296,41.87542],[12.22885,41.87355]]]]},"properties":{"class":"swamp","kind":"lake","source":"awmc-inland-water"}},{"type":"Feature","geometry":{"type":"MultiPolygon","coordinates":[[[[12.30145,41.76282],[12.29952,41.7648],[12.30202,41.76624],[12.29534,41.77308],[12.29823,41.77482],[12.2959,41.77758],[12.30065,41.77981],[12.30596,41.77867],[12.31111,41.77026],[12.31522,41.76906],[12.30145,41.76282]]]]},"properties":{"class":"inundation area","kind":"lake","source":"awmc-inland-water"}},{"type":"Feature","geometry":{"type":"MultiPolygon","coordinates":[[[[12.30612,41.78575],[12.3153,41.78467],[12.32053,41.77951],[12.33341,41.75627],[12.32017,41.76784],[12.31111,41.77026],[12.30596,41.77867],[12.2959,41.77758],[12.29574,41.78233],[12.30612,41.78575]]]]},"properties":{"class":"swamp","kind":"lake","source":"awmc-inland-water"}},{"type":"Feature","geometry":{"type":"MultiPolygon","coordinates":[[[[12.33558,41.78257],[12.32727,41.79596],[12.3347,41.79217],[12.338,41.78569],[12.33558,41.78257]]]]},"properties":{"class":"swamp","kind":"lake","source":"awmc-inland-water"}},{"type":"Feature","geometry":{"type":"MultiPolygon","coordinates":[[[[12.32777,41.73832],[12.32245,41.74164],[12.32388,41.74571],[12.33152,41.74092],[12.33295,41.73685],[12.32777,41.73832]]]]},"properties":{"class":"swamp","kind":"lake","source":"awmc-inland-water"}},{"type":"Feature","geometry":{"type":"MultiPolygon","coordinates":[[[[12.33936,41.72798],[12.33752,41.73357],[12.34216,41.72757],[12.33936,41.72798]]]]},"properties":{"class":"swamp","kind":"lake","source":"awmc-inland-water"}},{"type":"Feature","geometry":{"type":"MultiPolygon","coordinates":[[[[12.35023,41.71549],[12.34216,41.72757],[12.35386,41.72008],[12.35065,41.73221],[12.33066,41.75263],[12.33131,41.75556],[12.33735,41.75477],[12.3553,41.73405],[12.35989,41.723],[12.35707,41.71699],[12.35023,41.71549]]]]},"properties":{"class":"swamp","kind":"lake","source":"awmc-inland-water"}},{"type":"Feature","geometry":{"type":"MultiPolygon","coordinates":[[[[12.36681,41.70341],[12.36134,41.70263],[12.35393,41.70702],[12.35023,41.71104],[12.35279,41.7154],[12.35707,41.71699],[12.36681,41.70341]]]]},"properties":{"class":"swamp","kind":"lake","source":"awmc-inland-water"}},{"type":"Feature","geometry":{"type":"MultiPolygon","coordinates":[[[[10.99694,45.07416],[10.99153,45.09706],[10.9937,45.11575],[11.02612,45.12872],[11.08936,45.11842],[11.11152,45.10965],[11.12449,45.11308],[11.13476,45.11079],[11.15259,45.11766],[11.17259,45.11842],[11.19799,45.11041],[11.18664,45.09401],[11.11854,45.07073],[11.10827,45.05355],[11.08287,45.04897],[11.06828,45.05202],[11.04072,45.05088],[11.03045,45.05889],[10.99694,45.07416]]]]},"properties":{"class":"swamp","kind":"lake","source":"awmc-inland-water"}},{"type":"Feature","geometry":{"type":"MultiPolygon","coordinates":[[[[11.04349,45.29605],[11.03565,45.32564],[11.06916,45.34018],[11.10053,45.33115],[11.11408,45.3106],[11.11408,45.29706],[11.08841,45.28251],[11.04349,45.29605]]]]},"properties":{"class":"swamp","kind":"lake","source":"awmc-inland-water"}},{"type":"Feature","geometry":{"type":"MultiPolygon","coordinates":[[[[11.4093,44.65092],[11.44246,44.67375],[11.45351,44.68566],[11.46028,44.73177],[11.46242,44.73963],[11.4692,44.74672],[11.48275,44.7452],[11.4938,44.73329],[11.52161,44.73127],[11.56617,44.71759],[11.56581,44.71202],[11.54941,44.70898],[11.54728,44.70213],[11.50948,44.68617],[11.49487,44.66817],[11.48381,44.66081],[11.44353,44.64991],[11.4093,44.65092]]]]},"properties":{"class":"swamp","kind":"lake","source":"awmc-inland-water"}},{"type":"Feature","geometry":{"type":"MultiPolygon","coordinates":[[[[12.11453,44.65579],[12.11952,44.6686],[12.1119,44.68369],[12.13056,44.67226],[12.13485,44.66154],[12.13477,44.65631],[12.1295,44.65471],[12.11453,44.65579]]]]},"properties":{"class":"lake","kind":"lake","source":"awmc-inland-water"}},{"type":"Feature","geometry":{"type":"MultiPolygon","coordinates":[[[[12.18545,44.65545],[12.17247,44.6508],[12.16047,44.65446],[12.1715,44.67695],[12.17656,44.68042],[12.17681,44.66144],[12.18545,44.65545]]]]},"properties":{"class":"lake","kind":"lake","source":"awmc-inland-water"}},{"type":"Feature","geometry":{"type":"MultiPolygon","coordinates":[[[[11.77472,44.60338],[11.77906,44.6112],[11.79295,44.62031],[11.8114,44.62357],[11.86023,44.59535],[11.85654,44.58949],[11.83918,44.58081],[11.80272,44.58038],[11.79078,44.58559],[11.79469,44.59427],[11.78102,44.59752],[11.77472,44.60338]]]]},"properties":{"class":"swamp","kind":"lake","source":"awmc-inland-water"}},{"type":"Feature","geometry":{"type":"MultiPolygon","coordinates":[[[[12.81817,45.6911],[12.81383,45.68069],[12.80992,45.67895],[12.78041,45.70152],[12.78041,45.71411],[12.79517,45.72713],[12.80775,45.73321],[12.82034,45.73451],[12.82468,45.7306],[12.81774,45.72062],[12.83987,45.70499],[12.84248,45.69414],[12.83466,45.6898],[12.81817,45.6911]]]]},"properties":{"class":"swamp","kind":"lake","source":"awmc-inland-water"}},{"type":"Feature","geometry":{"type":"MultiPolygon","coordinates":[[[[13.05571,45.66521],[13.06639,45.65763],[13.07833,45.65741],[13.09892,45.64276],[13.09912,45.63777],[13.09632,45.63417],[13.051,45.63228],[13.03058,45.63528],[13.02624,45.64157],[13.02621,45.65188],[13.05096,45.65664],[13.05571,45.66521]]]]},"properties":{"class":"swamp","kind":"lake","source":"awmc-inland-water"}},{"type":"Feature","geometry":{"type":"MultiPolygon","coordinates":[[[[13.09732,45.88811],[13.12813,45.93195],[13.1659,45.93108],[13.20236,45.91632],[13.20757,45.90938],[13.2054,45.90243],[13.19671,45.89332],[13.17762,45.89071],[13.13074,45.87639],[13.1047,45.87595],[13.09732,45.88811]]]]},"properties":{"class":"swamp","kind":"lake","source":"awmc-inland-water"}},{"type":"Feature","geometry":{"type":"MultiPolygon","coordinates":[[[[18.72162,45.56588],[18.72552,45.57844],[18.74342,45.59359],[18.77671,45.6305],[18.77992,45.62407],[18.78314,45.62907],[18.78956,45.62907],[18.79563,45.61586],[18.8017,45.61586],[18.80651,45.586],[18.79259,45.58208],[18.78938,45.58493],[18.78653,45.57886],[18.79188,45.57815],[18.79902,45.56673],[18.80866,45.56566],[18.8189,45.55303],[18.77329,45.54625],[18.74933,45.56299],[18.72162,45.56588]]]]},"properties":{"class":"swamp","kind":"lake","source":"awmc-inland-water"}},{"type":"Feature","geometry":{"type":"MultiPolygon","coordinates":[[[[18.14614,45.87511],[18.14325,45.87297],[18.13439,45.87578],[18.14614,45.87511]]]]},"properties":{"kind":"lake","source":"awmc-inland-water"}},{"type":"Feature","geometry":{"type":"MultiPolygon","coordinates":[[[[18.12106,45.87386],[18.12542,45.872],[18.12156,45.86995],[18.11769,45.87317],[18.12106,45.87386]]]]},"properties":{"kind":"lake","source":"awmc-inland-water"}},{"type":"Feature","geometry":{"type":"MultiPolygon","coordinates":[[[[18.59472,45.5966],[18.63837,45.57172],[18.62138,45.55376],[18.60262,45.54394],[18.58818,45.54972],[18.58125,45.57108],[18.59472,45.5966]]]]},"properties":{"class":"swamp","kind":"lake","source":"awmc-inland-water"}},{"type":"Feature","geometry":{"type":"MultiPolygon","coordinates":[[[[18.37356,45.39585],[18.37182,45.44897],[18.38741,45.46398],[18.40069,45.46513],[18.52136,45.46167],[18.59179,45.44955],[18.67551,45.44377],[18.69802,45.43396],[18.71361,45.4201],[18.72227,45.39239],[18.71477,45.37507],[18.69571,45.36583],[18.67955,45.3589],[18.63509,45.35486],[18.60565,45.36872],[18.40589,45.3693],[18.38683,45.37853],[18.37356,45.39585]]]]},"properties":{"class":"swamp","kind":"lake","source":"awmc-inland-water"}},{"type":"Feature","geometry":{"type":"MultiPolygon","coordinates":[[[[18.77501,44.98578],[18.77575,44.95844],[18.78973,44.9465],[18.79003,44.9398],[18.77728,44.93874],[18.73685,44.95043],[18.73281,44.96198],[18.76572,44.9741],[18.77501,44.98578]]]]},"properties":{"class":"swamp","kind":"lake","source":"awmc-inland-water"}},{"type":"Feature","geometry":{"type":"MultiPolygon","coordinates":[[[[18.49956,45.25094],[18.54777,45.24834],[18.60262,45.22409],[18.5902,45.19811],[18.56509,45.18945],[18.54373,45.19292],[18.51717,45.2062],[18.50851,45.21572],[18.49754,45.23333],[18.49956,45.25094]]]]},"properties":{"class":"swamp","kind":"lake","source":"awmc-inland-water"}},{"type":"Feature","geometry":{"type":"MultiPolygon","coordinates":[[[[17.34424,40.48583],[17.34145,40.48108],[17.3339,40.47846],[17.31567,40.47796],[17.32224,40.48945],[17.33702,40.49057],[17.34424,40.48583]]]]},"properties":{"class":"swamp","kind":"lake","source":"awmc-inland-water"}}]}