{"type":"FeatureCollection","features":[{"type":"Feature","geometry":{"type":"LineString","coordinates":[[14.95378,40.49261],[15.00557,40.51903],[15.0353,40.54486],[15.05241,40.57606],[15.0578,40.62367],[15.07184,40.65352],[15.10006,40.68079],[15.14363,40.70275],[15.22759,40.71909],[15.47859,40.73006],[15.63645,40.7502],[15.73551,40.78779],[15.91213,40.88859],[15.97231,40.90621],[16.03887,40.9108],[16.10342,40.8947],[16.15758,40.85027],[16.22402,40.72166],[16.22719,40.69856],[16.32123,40.65535],[16.37397,40.64024],[16.44195,40.6066],[16.52313,40.59083],[16.57615,40.53645],[16.65724,40.48175],[16.7186,40.48052],[16.73351,40.47063],[16.77477,40.43454],[16.80372,40.37729],[16.82663,40.36385],[16.85395,40.35892]]},"properties":{"kind":"province","source":"awmc-provinces-200ce"}},{"type":"Feature","geometry":{"type":"LineString","coordinates":[[12.47908,41.90201],[12.46627,41.90183]]},"properties":{"kind":"province","source":"awmc-provinces-200ce"}},{"type":"Feature","geometry":{"type":"LineString","coordinates":[[14.96354,41.96229],[15.04182,41.97376]]},"properties":{"kind":"province","source":"awmc-provinces-200ce"}},{"type":"Feature","geometry":{"type":"LineString","coordinates":[[14.95378,40.49261],[14.93081,40.47921]]},"properties":{"kind":"province","source":"awmc-provinces-200ce"}},{"type":"Feature","geometry":{"type":"LineString","coordinates":[[14.32717,45.46329],[14.31806,45.46553]]},"properties":{"kind":"province","source":"awmc-provinces-200ce"}},{"type":"Feature","geometry":{"type":"LineString","coordinates":[[11.64667,43.85636],[11.69125,43.91483],[11.76215,43.97131],[11.90407,44.04366],[11.95629,44.05751],[12.13455,44.05553],[12.20915,44.04795],[12.23086,44.03891],[12.25957,44.00809],[12.28142,43.99638],[12.39756,43.98927],[12.44584,43.97734],[12.57003,43.88872],[12.62216,43.86564],[12.67876,43.84973],[12.707,43.85306],[12.76475,43.88653],[12.89146,43.92792]]},"properties":{"kind":"province","source":"awmc-provinces-200ce"}},{"type":"Feature","geometry":{"type":"LineString","coordinates":[[10.02636,49.10694],[10.48519,49.08912],[10.9939,49.03546],[11.50302,49.02964],[11.90752,48.95634],[12.01205,48.99684],[12.00086,49.03986],[12.09422,49.08948],[12.26232,49.06044],[12.36602,49.04969],[12.48044,48.99577],[12.52968,48.94326],[12.63449,48.95791],[12.74739,48.88661],[12.89053,48.89147],[12.9894,48.81173],[13.01203,48.75972],[13.13905,48.72187],[13.26295,48.64114],[13.41829,48.64492],[13.64644,48.58608],[13.80768,48.50344],[13.93479,48.48175],[14.00542,48.40206],[14.14351,48.36257],[14.28367,48.34852],[14.45817,48.29003],[14.58442,48.26759],[14.6689,48.21253],[14.90738,48.28761],[15.04259,48.22992],[15.14929,48.26772],[15.34279,48.27543],[15.38783,48.33321],[15.42598,48.44279],[15.53049,48.45464],[15.73148,48.40982],[16.11548,48.3887],[16.27234,48.40543],[16.36447,48.32275],[16.43079,48.24153],[16.57324,48.15562],[16.91008,48.17737],[16.99388,48.22348],[17.11363,48.16404],[17.28367,48.01511],[17.26952,47.92156],[17.38688,47.85334],[17.63724,47.74112],[17.76866,47.76596],[17.92403,47.78028],[18.25588,47.7808],[18.45735,47.76494],[18.61595,47.79522],[18.72896,47.85486],[18.82979,47.84653],[18.92429,47.80418],[19.05652,47.82744],[19.0406,47.74265],[19.03411,47.63985],[18.96663,47.55086],[18.97281,47.44702],[18.87448,47.39509],[18.83438,47.17471],[18.93535,47.03709],[18.86581,46.93118],[18.89528,46.81685],[18.95539,46.7343],[18.92923,46.65915],[18.80642,46.60086],[18.84948,46.56281],[18.87259,46.48347],[18.8559,46.39036],[18.82706,46.29831],[18.81201,46.21368],[18.72548,46.14374],[18.66203,46.06323],[18.66682,46.0199],[18.76273,45.93448],[18.87491,45.8733],[18.90524,45.76764],[18.90228,45.68205],[18.91287,45.60387],[18.97755,45.55528],[19.07223,45.5383],[18.95946,45.45389],[19.10607,45.3207],[19.24193,45.26549],[19.47931,45.23494],[19.56608,45.24395],[19.72289,45.23758],[19.87763,45.28272],[20.01945,45.20002],[20.22031,45.17129],[20.27291,45.07139],[20.34747,45.02078],[20.30158,44.97392],[20.34541,44.89207],[20.45512,44.83772],[20.58211,44.86739],[20.62189,44.76862],[20.71394,44.69003],[20.82818,44.66053],[20.99937,44.72785],[21.07191,44.72845],[21.1946,44.79225],[21.31384,44.83912],[21.37286,44.83244],[21.41863,44.76695],[21.49503,44.78403],[21.60108,44.77179],[21.6309,44.6908],[21.74655,44.66865],[21.8993,44.65055],[21.99904,44.61274],[22.07102,44.50923],[22.11785,44.50354],[22.22957,44.56747],[22.30435,44.62726],[22.3696,44.69684],[22.43857,44.73142],[22.54567,44.67485],[22.66634,44.62505],[22.75707,44.55302],[22.67227,44.50344],[22.61456,44.56256],[22.534,44.52959],[22.52164,44.47938],[22.41438,44.48421],[22.53061,44.41785],[22.58413,44.34206],[22.69027,44.28539],[22.67575,44.22686],[23.01675,44.10485],[23.04089,44.05851],[22.92928,43.99555],[22.82115,43.89757],[22.93976,43.84753],[23.10331,43.83447],[23.28476,43.84461],[23.46906,43.81949],[23.77485,43.80293],[23.90605,43.75847],[24.13106,43.70894],[24.31456,43.72551],[24.44319,43.75854],[24.62933,43.78285],[24.75259,43.71234],[24.97546,43.73911],[25.32748,43.67579],[25.52793,43.6267],[25.90094,43.8273],[25.99172,43.92558],[26.17458,44.00869],[26.36153,44.06474],[26.61772,44.10881],[26.95737,44.14662],[27.14039,44.1497],[27.25214,44.12133],[27.45787,44.15481],[27.58657,44.21053],[27.80998,44.22269],[27.95091,44.31088],[28.08675,44.41747],[28.11631,44.49976],[28.04022,44.69803],[27.90748,44.73975],[27.94308,44.87369],[27.96155,45.02836],[28.0456,45.32937],[28.16623,45.3866],[28.29485,45.3631],[28.68233,45.26478],[28.76152,45.2763],[28.87519,45.3782],[29.21431,45.44571],[29.4001,45.47154],[29.58984,45.44325],[29.67176,45.36519],[29.71207,45.27762]]},"properties":{"kind":"province","source":"awmc-provinces-200ce"}},{"type":"Feature","geometry":{"type":"LineString","coordinates":[[8.57978,32.38889],[8.59842,32.8285],[8.67776,33.17213],[8.71619,34.10492],[8.52985,34.4711],[8.40168,34.81397],[8.36019,35.23303],[8.76629,35.98244],[9.09025,36.73148],[9.05202,37.17927]]},"properties":{"kind":"province","source":"awmc-provinces-200ce"}},{"type":"Feature","geometry":{"type":"LineString","coordinates":[[11.64667,43.85636],[11.69125,43.91483],[11.76215,43.97131],[11.91262,44.04743],[11.96791,44.05813],[12.1997,44.05001],[12.23086,44.03891],[12.25957,44.00809],[12.28843,43.99433],[12.42748,43.98382],[12.47269,43.96257],[12.57003,43.88872],[12.66844,43.85145],[12.707,43.85306],[12.78346,43.89297]]},"properties":{"kind":"province","source":"awmc-provinces-200ce"}},{"type":"Feature","geometry":{"type":"LineString","coordinates":[[12.47908,41.90201],[12.63522,41.89529],[12.76409,41.86314],[12.82362,41.85632],[13.10866,41.86042],[13.31162,41.85072],[13.42906,41.8366],[13.53676,41.81438],[13.72088,41.75212],[13.82205,41.70845],[13.90774,41.66318],[14.0468,41.56848],[14.13187,41.4783],[14.15365,41.46299],[14.28543,41.43539],[14.45337,41.37506],[14.5511,41.36034]]},"properties":{"kind":"province","source":"awmc-provinces-200ce"}},{"type":"Feature","geometry":{"type":"LineString","coordinates":[[12.16742,43.50163],[12.10681,43.51161],[12.06011,43.53476],[12.03447,43.561],[12.00496,43.61733],[11.96361,43.64589],[11.89122,43.65934],[11.75139,43.65961],[11.6763,43.70022],[11.65543,43.7211],[11.64647,43.75016],[11.65333,43.77691],[11.68263,43.81236],[11.68318,43.82647],[11.66628,43.8445],[11.62396,43.86726],[11.55864,43.88561],[11.36654,43.91492],[11.15921,43.9794],[10.92107,44.01985],[10.86553,44.04744],[10.78363,44.11238],[10.41482,44.28092],[10.27665,44.33333],[10.09848,44.38311],[9.81349,44.49741],[9.75364,44.50757],[9.70391,44.50287],[9.65714,44.48109],[9.63755,44.45113],[9.64467,44.37304],[9.65807,44.35834],[9.71104,44.32551],[9.72822,44.2202],[9.75099,44.18568],[9.80202,44.14296],[9.80918,44.10468]]},"properties":{"kind":"province","source":"awmc-provinces-200ce"}},{"type":"Feature","geometry":{"type":"LineString","coordinates":[[14.96354,41.96229],[14.92473,41.95608],[14.89275,41.94152],[14.87257,41.91845],[14.86812,41.89829],[14.87861,41.86077],[14.92447,41.79682],[14.94563,41.75157],[14.94755,41.71083],[14.93123,41.6719],[14.88284,41.61814],[14.69499,41.45068],[14.55405,41.35221],[14.50447,41.30921],[14.4822,41.27346],[14.46551,41.20465],[14.46344,41.15982],[14.47944,41.11281],[14.50547,41.08211],[14.54751,41.0532],[14.68933,40.9881],[14.75389,40.95021],[14.9667,40.7827],[15.06609,40.68447]]},"properties":{"kind":"province","source":"awmc-provinces-200ce"}},{"type":"Feature","geometry":{"type":"LineString","coordinates":[[14.32717,45.46329],[14.45636,45.40926],[14.69879,45.32021],[15.27315,45.12768],[15.71893,45.00612],[16.1714,44.89825],[16.73428,44.78832],[17.15294,44.71646],[17.31521,44.69487],[17.97903,44.62813],[18.5458,44.54779],[19.16473,44.51886],[19.39792,44.51956],[19.60342,44.53332],[19.9207,44.59373],[20.00187,44.62077],[20.00395,44.63047],[20.0319,44.64172],[20.10999,44.65293],[20.14803,44.67757],[20.1596,44.69564],[20.28582,44.7052],[20.45364,44.82367]]},"properties":{"kind":"province","source":"awmc-provinces-200ce"}},{"type":"Feature","geometry":{"type":"LineString","coordinates":[[4.53681,45.56237],[4.77813,45.75881],[4.98863,45.80274],[5.11077,45.77522],[5.26777,45.88283],[5.41832,45.80612],[5.59655,45.68031],[5.76271,45.68732],[5.77527,45.82143],[5.76966,45.888],[5.85261,46.04172],[5.96141,46.17969],[6.31379,46.2931],[6.40875,46.31314],[6.5496,46.36804],[6.74226,46.37427],[7.10167,46.41833],[7.36073,46.54215],[7.79301,46.61902],[8.01098,46.6234],[8.3011,46.64523],[8.56675,46.68262],[8.8312,46.78611],[8.97428,46.92123],[9.09339,47.07268],[9.21405,47.17391],[9.13907,47.25688],[9.06353,47.35651],[9.06096,47.49022],[9.30134,47.92685],[9.34726,48.21154],[9.52032,48.42999],[9.61944,48.6145],[9.77002,48.79908],[10.0491,49.10072]]},"properties":{"kind":"province","source":"awmc-provinces-200ce"}},{"type":"Feature","geometry":{"type":"LineString","coordinates":[[12.2063,45.12349],[11.79843,45.06315],[11.46938,45.02743],[11.25737,45.03029],[11.14295,45.08633],[10.98831,45.07428],[10.81423,45.04849],[10.69853,45.04935],[10.69741,44.96734],[10.62006,44.9405],[10.46624,44.955],[10.25484,45.02409],[10.21629,45.02418],[10.12001,45.06536],[10.04288,45.10643],[9.94632,45.13377],[9.84997,45.05164],[9.59872,45.11932],[9.4053,45.14572],[9.23121,45.15823],[9.11573,45.12994],[8.73221,45.01648],[8.59469,45.11039],[8.439,45.14914],[8.10859,45.19824],[7.93515,45.18118],[7.76302,45.1365],[7.63549,44.96947],[7.5823,44.87249],[7.41359,44.78627],[7.37665,44.75797],[7.30144,44.72864],[7.20569,44.72603],[7.0381,44.63922],[6.9673,44.54142],[6.85451,44.51061],[6.84466,44.35997],[6.75563,44.26149],[6.62996,44.14804],[6.55515,44.13182]]},"properties":{"kind":"province","source":"awmc-provinces-200ce"}},{"type":"Feature","geometry":{"type":"LineString","coordinates":[[7.40647,45.17617],[7.37899,45.2713],[7.34805,45.43027],[7.27663,45.49232],[7.26714,45.66789],[7.30756,45.76489],[7.50418,45.94576],[7.8429,46.06536],[8.11298,46.21461],[8.22357,46.34455],[8.35789,46.47477],[8.44498,46.65216]]},"properties":{"kind":"province","source":"awmc-provinces-200ce"}},{"type":"Feature","geometry":{"type":"LineString","coordinates":[[9.97953,45.14542],[10.07004,45.36888],[10.13883,45.67227],[10.25349,45.81585],[10.324,46.11936],[10.46358,46.29474],[10.53659,46.64636],[10.56182,46.82228],[10.61044,46.98211]]},"properties":{"kind":"province","source":"awmc-provinces-200ce"}},{"type":"Feature","geometry":{"type":"LineString","coordinates":[[8.42734,46.47584],[8.70393,46.52766],[8.98174,46.54675],[9.25881,46.6291],[9.62975,46.7271],[10.02544,46.77577],[10.30561,46.87137],[10.63425,47.01399],[10.61223,47.12622],[10.58954,47.19041],[10.87317,47.28456],[11.03929,47.34713],[11.29767,47.31224],[11.55823,47.35678],[11.75022,47.44994],[12.01457,47.55744],[12.18379,47.63426],[12.18884,47.7464],[12.12461,47.90807],[12.13238,48.08436],[12.28045,48.17758],[12.52598,48.28442],[12.719,48.29577],[12.95718,48.25738],[13.13037,48.33275],[13.39923,48.38884],[13.45429,48.48345],[13.46475,48.62767]]},"properties":{"kind":"province","source":"awmc-provinces-200ce"}},{"type":"Feature","geometry":{"type":"LineString","coordinates":[[8.96021,45.11913],[9.15768,44.9525],[9.37347,44.93875],[9.46083,44.83209],[9.46228,44.69435],[9.39882,44.61748],[9.27095,44.57074],[9.29319,44.5097],[9.4642,44.51076],[9.57184,44.41951],[9.74392,44.14489]]},"properties":{"kind":"province","source":"awmc-provinces-200ce"}},{"type":"Feature","geometry":{"type":"LineString","coordinates":[[12.22168,43.49928],[12.23685,43.39999],[12.36919,43.32624],[12.40334,43.2265],[12.45727,43.14041],[12.43409,43.05625],[12.39177,42.97257],[12.38603,42.84566],[12.30632,42.77702],[12.24772,42.75016],[12.24294,42.63741],[12.25843,42.55243],[12.37023,42.49336],[12.44377,42.43514],[12.45888,42.35017],[12.55108,42.29141],[12.58695,42.24817],[12.61931,42.13458],[12.49866,41.98284],[12.49473,41.89846],[12.43508,41.82961],[12.3417,41.84601],[12.2823,41.77707]]},"properties":{"kind":"province","source":"awmc-provinces-200ce"}},{"type":"Feature","geometry":{"type":"LineString","coordinates":[[12.40702,42.46426],[12.48574,42.51868],[12.60274,42.57203],[12.75739,42.61009],[12.84045,42.73469],[13.0205,42.87045],[13.0988,42.89624],[13.45282,42.72903],[13.5665,42.71082],[13.73835,42.70437],[13.93135,42.72502]]},"properties":{"kind":"province","source":"awmc-provinces-200ce"}},{"type":"Feature","geometry":{"type":"LineString","coordinates":[[13.09963,42.91033],[13.14638,43.05008],[13.16672,43.38863],[13.15587,43.5304],[13.1627,43.64335],[13.26257,43.68255]]},"properties":{"kind":"province","source":"awmc-provinces-200ce"}},{"type":"Feature","geometry":{"type":"LineString","coordinates":[[10.59719,46.78155],[11.24944,46.7758],[11.80757,46.7463],[12.2071,46.65324],[12.67153,46.64238],[13.07253,46.60998],[13.65679,46.5484],[13.93464,46.53827],[14.33017,46.45845],[14.69569,46.39982],[14.9682,46.34438],[15.24234,46.30949],[15.73309,46.28347],[16.15773,46.47309],[16.31868,46.76324],[16.18106,47.15712],[16.10608,47.31152],[16.07265,47.54925],[16.03358,47.74445],[16.09735,47.99821],[16.17722,48.12236],[16.38788,48.26025]]},"properties":{"kind":"province","source":"awmc-provinces-200ce"}},{"type":"Feature","geometry":{"type":"LineString","coordinates":[[15.07685,46.32352],[14.89043,46.21102],[14.7956,46.1345],[14.6916,45.95719],[14.34236,45.6086],[14.17885,45.37297],[14.18908,45.15041]]},"properties":{"kind":"province","source":"awmc-provinces-200ce"}},{"type":"Feature","geometry":{"type":"LineString","coordinates":[[17.93949,47.75021],[18.18061,47.56892],[18.33115,47.39419],[18.35923,47.20866],[18.36458,47.0657],[18.15723,46.71577],[18.04956,46.41913],[18.04088,46.251],[17.98341,46.02625],[17.82977,45.0486],[17.78482,44.82345],[17.69806,44.66059]]},"properties":{"kind":"province","source":"awmc-provinces-200ce"}}]}