{"type":"FeatureCollection","features":[{"type":"Feature","geometry":{"type":"MultiLineString","coordinates":[[[14.4622,45.35637],[14.46814,45.39325]],[[14.43662,45.41585],[14.42115,45.43786]],[[14.42115,45.44619],[14.43602,45.48248]],[[14.43186,45.49794],[14.45208,45.54851],[14.46398,45.57409],[14.49551,45.60978],[14.53001,45.64547]],[[14.56213,45.76444],[14.56451,45.80073]],[[14.52228,45.83464],[14.56273,45.84118]],[[14.50205,45.86379],[14.53536,45.87152]],[[14.38248,45.909],[14.4158,45.89888]],[[14.31348,45.91019],[14.34977,45.91257]],[[14.23912,45.89591],[14.26886,45.91019]],[[14.11628,45.88996],[14.13294,45.86736],[14.13889,45.84475],[14.16328,45.82572]],[[14.1716,45.90067],[14.19183,45.88223]],[[14.23525,45.97265],[14.24537,45.96134],[14.25429,45.9554],[14.2882,45.96194]],[[14.10855,46.10471],[14.09308,46.12434]],[[13.89231,46.18918],[13.93039,46.18085]]]},"properties":{"kind":"wall","source":"awmc-walls"}}]}