{"type":"FeatureCollection","features":[{"type":"Feature","geometry":{"type":"Point","coordinates":[16.60757,43.96052]},"properties":{"name":"Troglav","class":"mountain","kind":"peak","source":"ne-elevation-points"}},{"type":"Feature","geometry":{"type":"Point","coordinates":[13.56116,42.48732]},"properties":{"name":"Corno Grande","class":"mountain","kind":"peak","source":"ne-elevation-points"}},{"type":"Feature","geometry":{"type":"Point","coordinates":[12.69533,47.07471]},"properties":{"name":"Grossglockner","class":"mountain","kind":"peak","source":"ne-elevation-points"}},{"type":"Feature","geometry":{"type":"Point","coordinates":[14.43337,40.81672]},"properties":{"name":"Mount Vesuvius","class":"mountain","kind":"peak","source":"ne-elevation-points"}},{"type":"Feature","geometry":{"type":"Point","coordinates":[13.83,46.38006]},"properties":{"name":"Triglav","class":"mountain","kind":"peak","source":"ne-elevation-points"}},{"type":"Feature","geometry":{"type":"Point","coordinates":[13.37003,41.88007]},"properties":{"name":"Monte Viglio","class":"mountain","kind":"peak","source":"ne-elevation-points"}},{"type":"Feature","geometry":{"type":"Point","coordinates":[12.44999,43.90999]},"properties":{"name":"Monte Titano","class":"mountain","kind":"peak","source":"ne-elevation-points"}},{"type":"Feature","geometry":{"type":"Point","coordinates":[9.58,47.04999]},"properties":{"name":"Grauspitz","class":"mountain","kind":"peak","source":"ne-elevation-points"}},{"type":"Feature","geometry":{"type":"Point","coordinates":[8.13003,46.54001]},"properties":{"name":"Finsteraarhorn","class":"mountain","kind":"peak","source":"ne-elevation-points"}},{"type":"Feature","geometry":{"type":"Point","coordinates":[16.38001,44.06]},"properties":{"name":"Dinara","class":"mountain","kind":"peak","source":"ne-elevation-points"}},{"type":"Feature","geometry":{"type":"Point","coordinates":[9.31738,40.03115]},"properties":{"name":"Punta La Marmora","class":"mountain","kind":"peak","source":"ne-elevation-points"}},{"type":"Feature","geometry":{"type":"Point","coordinates":[8.95143,42.38598]},"properties":{"name":"Monte Cinto","class":"mountain","kind":"peak","source":"ne-elevation-points"}},{"type":"Feature","geometry":{"type":"Point","coordinates":[14.99514,37.75512]},"properties":{"name":"Mount Etna","class":"mountain","kind":"peak","source":"ne-elevation-points"}}]}