{"type":"FeatureCollection","features":[{"type":"Feature","geometry":{"type":"Polygon","coordinates":[[[17.86982,46.86377],[17.84568,46.84817],[17.56309,46.76456],[17.5316,46.74337],[17.47449,46.71717],[17.43122,46.71393],[17.35321,46.72424],[17.30994,46.72483],[17.2752,46.71658],[17.25843,46.71806],[17.24783,46.7316],[17.26284,46.7678],[17.30317,46.76839],[17.34526,46.75809],[17.36469,46.76221],[17.37087,46.77546],[17.38618,46.78753],[17.40502,46.79695],[17.42298,46.80048],[17.46065,46.79842],[17.4789,46.7943],[17.49568,46.78635],[17.5469,46.81284],[17.57546,46.82314],[17.62785,46.82844],[17.63963,46.83315],[17.67171,46.86553],[17.6826,46.86995],[17.82125,46.90615],[17.83773,46.91999],[17.87806,46.89703],[17.89278,46.89556],[17.90191,46.90704],[17.89543,46.92028],[17.88071,46.93147],[17.86511,46.93706],[17.86511,46.94383],[17.96431,46.98239],[17.99551,46.99917],[18.02289,47.02449],[18.03349,47.04068],[18.03731,47.05687],[18.04673,47.0604],[18.11208,47.04686],[18.15211,47.02743],[18.1686,47.0136],[18.16948,47.00212],[18.13593,46.9559],[18.11885,46.94383],[18.07823,46.92735],[17.93899,46.89408],[17.91957,46.89556],[17.89955,46.87554],[17.86982,46.86377]]]},"properties":{"name":"Balaton","class":"lake","kind":"lake","source":"ne-lakes"}},{"type":"Feature","geometry":{"type":"Polygon","coordinates":[[[8.84609,46.16907],[8.84903,46.16495],[8.84167,46.15435],[8.78015,46.11755],[8.746,46.09253],[8.74188,46.08341],[8.74188,46.06398],[8.75277,46.02895],[8.75336,46.01747],[8.73806,45.99451],[8.7201,45.98156],[8.64857,45.94506],[8.61884,45.92268],[8.60795,45.90855],[8.60441,45.88265],[8.62149,45.84703],[8.62149,45.82702],[8.61325,45.81406],[8.57498,45.79434],[8.57027,45.78374],[8.57763,45.76667],[8.6206,45.72546],[8.61207,45.72222],[8.59411,45.72987],[8.56615,45.75696],[8.54878,45.7911],[8.55202,45.80052],[8.56703,45.81848],[8.57439,45.85204],[8.56644,45.86999],[8.52111,45.89766],[8.4955,45.92975],[8.49285,45.9377],[8.50374,45.943],[8.54054,45.93299],[8.56026,45.9321],[8.6156,45.95506],[8.6783,46.0104],[8.69655,46.02041],[8.71362,46.03866],[8.71392,46.05191],[8.70038,46.08105],[8.70038,46.09194],[8.71068,46.11049],[8.73335,46.1305],[8.76337,46.14934],[8.79516,46.16436],[8.83137,46.17172],[8.84609,46.16907]]]},"properties":{"name":"Como","class":"lake","kind":"lake","source":"ne-lakes"}},{"type":"Feature","geometry":{"type":"Polygon","coordinates":[[[10.85512,45.8956],[10.86778,45.87971],[10.86984,45.86028],[10.86278,45.83761],[10.84806,45.81347],[10.77623,45.73164],[10.7624,45.72104],[10.72001,45.67041],[10.71088,45.65216],[10.69205,45.59741],[10.68969,45.57592],[10.71088,45.58093],[10.71294,45.56533],[10.73119,45.51823],[10.71824,45.48231],[10.70088,45.44935],[10.67998,45.45729],[10.65584,45.45936],[10.63052,45.46701],[10.61198,45.48143],[10.60845,45.50439],[10.60256,45.48114],[10.58313,45.47201],[10.55929,45.47437],[10.53898,45.48408],[10.54663,45.49085],[10.53044,45.49703],[10.5116,45.49821],[10.5116,45.50439],[10.51925,45.50645],[10.56753,45.5406],[10.57371,45.54914],[10.55752,45.57239],[10.55546,45.58122],[10.57371,45.58711],[10.56782,45.59859],[10.55693,45.60565],[10.52543,45.60801],[10.60285,45.64216],[10.62817,45.66276],[10.71442,45.71722],[10.72943,45.73017],[10.76358,45.78698],[10.783,45.79993],[10.82392,45.84379],[10.84188,45.88471],[10.85512,45.8956]]]},"properties":{"name":"Garda","class":"lake","kind":"lake","source":"ne-lakes"}},{"type":"Feature","geometry":{"type":"Polygon","coordinates":[[[11.97694,42.63994],[11.99961,42.62021],[11.99961,42.61285],[11.99313,42.60049],[11.9949,42.56105],[11.98519,42.54427],[11.9637,42.53573],[11.94103,42.5375],[11.91984,42.54603],[11.87039,42.5793],[11.85949,42.59284],[11.86155,42.61285],[11.87539,42.63199],[11.89393,42.64258],[11.94486,42.65348],[11.97694,42.63994]]]},"properties":{"name":"Bracciano","class":"lake","kind":"lake","source":"ne-lakes"}},{"type":"Feature","geometry":{"type":"Polygon","coordinates":[[[9.20607,47.12244],[9.13795,47.1327],[9.13136,47.14063],[9.1504,47.1446],[9.23219,47.13941],[9.30213,47.13062],[9.28004,47.12391],[9.20607,47.12244]]]},"properties":{"name":"Walensee","class":"lake","kind":"lake","source":"ne-lakes"}},{"type":"Feature","geometry":{"type":"Polygon","coordinates":[[[8.50709,47.07557],[8.47938,47.09412],[8.47608,47.1233],[8.45899,47.15613],[8.46205,47.18684],[8.49244,47.18507],[8.51027,47.16102],[8.49952,47.12543],[8.52687,47.08863],[8.52406,47.0741],[8.50709,47.07557]]]},"properties":{"name":"Zug","class":"lake","kind":"lake","source":"ne-lakes"}},{"type":"Feature","geometry":{"type":"Polygon","coordinates":[[[8.35328,47.04883],[8.386,47.05762],[8.42103,47.07435],[8.43043,47.06769],[8.4131,47.04944],[8.42372,47.03852],[8.46534,47.03004],[8.48756,47.01087],[8.50758,47.00086],[8.53736,46.99988],[8.56227,47.00294],[8.58058,47.00904],[8.59913,47.00599],[8.61549,46.97803],[8.61708,46.93519],[8.62464,46.92151],[8.61671,46.90504],[8.6006,46.89991],[8.5879,46.93275],[8.58729,46.95496],[8.59486,46.98377],[8.5912,46.99506],[8.53163,46.97645],[8.49366,46.97163],[8.42213,46.98987],[8.43897,46.99988],[8.41468,47.00977],[8.35987,47.00171],[8.32154,46.97071],[8.2942,46.96162],[8.28297,46.96467],[8.31495,46.99439],[8.31129,47.00904],[8.31275,47.01813],[8.33522,47.01148],[8.33924,47.02753],[8.3307,47.05799],[8.33839,47.05945],[8.35328,47.04883]]]},"properties":{"name":"Lucerne","class":"lake","kind":"lake","source":"ne-lakes"}},{"type":"Feature","geometry":{"type":"Polygon","coordinates":[[[9.12916,45.88233],[9.14161,45.89503],[9.13111,45.93372],[9.15162,45.96558],[9.23097,45.99537],[9.23732,46.00635],[9.23646,46.02851],[9.24464,46.047],[9.27076,46.07349],[9.28541,46.13428],[9.30763,46.15162],[9.33924,46.16254],[9.34889,46.17225],[9.37013,46.17499],[9.37989,46.16193],[9.37306,46.14857],[9.32862,46.13428],[9.31703,46.1233],[9.31617,46.10389],[9.30543,46.08716],[9.30616,46.07862],[9.31312,46.06714],[9.30763,46.05347],[9.29371,46.0398],[9.28492,46.02576],[9.32032,45.9209],[9.34132,45.90357],[9.36317,45.89417],[9.40821,45.84156],[9.41285,45.81934],[9.4004,45.81971],[9.39637,45.83973],[9.38148,45.85889],[9.36598,45.86951],[9.35621,45.88135],[9.3097,45.90571],[9.28199,45.94733],[9.26466,45.98475],[9.24684,45.98499],[9.22316,45.96802],[9.19825,45.95679],[9.1681,45.94947],[9.15406,45.93336],[9.15602,45.89905],[9.14747,45.87073],[9.12709,45.86652],[9.10609,45.85401],[9.07594,45.82276],[9.06752,45.82667],[9.07325,45.84217],[9.10694,45.87232],[9.12916,45.88233]]]},"properties":{"name":"Como","class":"lake","kind":"lake","source":"ne-lakes"}},{"type":"Feature","geometry":{"type":"Polygon","coordinates":[[[14.05946,46.62366],[14.09596,46.63758],[14.14369,46.64429],[14.17738,46.63392],[14.21412,46.63062],[14.24305,46.63398],[14.25221,46.62604],[14.22902,46.61964],[14.19557,46.61695],[14.1421,46.62848],[14.09742,46.6255],[14.06556,46.61848],[14.05946,46.62366]]]},"properties":{"name":"Wörthersee","class":"lake","kind":"lake","source":"ne-lakes"}},{"type":"Feature","geometry":{"type":"Polygon","coordinates":[[[8.96559,45.95276],[8.98304,45.92151],[8.97731,45.91425],[8.96022,45.93885],[8.92799,45.92792],[8.9015,45.91273],[8.886,45.97437],[8.89454,45.9911],[8.90333,45.99934],[8.90638,45.98749],[8.90272,45.95008],[8.90882,45.93641],[8.92494,45.93641],[8.93922,45.95313],[8.95167,45.97498],[8.95326,45.99811],[8.96046,46.0124],[8.98976,46.01087],[9.02162,46.02332],[9.12184,46.04127],[9.11061,46.02637],[9.06837,46.01783],[9.03932,46.01697],[9.00709,46.0033],[8.97145,45.97498],[8.96559,45.95276]]]},"properties":{"name":"Lugano","class":"lake","kind":"lake","source":"ne-lakes"}},{"type":"Feature","geometry":{"type":"Polygon","coordinates":[[[12.1194,44.58082],[12.10023,44.60877],[12.10304,44.64405],[12.13246,44.66047],[12.16652,44.66346],[12.1808,44.69721],[12.22755,44.6626],[12.24427,44.6067],[12.22377,44.58369],[12.20533,44.57349],[12.17774,44.56421],[12.12904,44.55921],[12.1194,44.58082]]]},"properties":{"class":"lake","kind":"lake","source":"ne-lakes"}},{"type":"Feature","geometry":{"type":"Polygon","coordinates":[[[15.61903,43.86439],[15.52443,43.91913],[15.51393,43.93861],[15.53334,43.94648],[15.55824,43.93885],[15.63795,43.86536],[15.61903,43.86439]]]},"properties":{"class":"lake","kind":"lake","source":"ne-lakes"}},{"type":"Feature","geometry":{"type":"Polygon","coordinates":[[[10.02821,45.6659],[9.99305,45.67353],[9.97731,45.67139],[9.9712,45.67469],[9.98963,45.68507],[10.05006,45.69446],[10.05006,45.72822],[10.04566,45.75318],[10.03712,45.77106],[10.08058,45.82764],[10.09693,45.81879],[10.09474,45.79969],[10.07838,45.79236],[10.07142,45.78443],[10.11036,45.71815],[10.09938,45.69752],[10.06691,45.67652],[10.02821,45.6659]]]},"properties":{"name":"Iseo","class":"lake","kind":"lake","source":"ne-lakes"}},{"type":"Feature","geometry":{"type":"Polygon","coordinates":[[[11.94886,42.54291],[11.91908,42.54651],[11.89894,42.56171],[11.87318,42.58509],[11.8628,42.60853],[11.87965,42.63801],[11.91114,42.65687],[11.95069,42.65961],[11.98268,42.64893],[11.99244,42.63318],[11.99513,42.5702],[11.98414,42.54835],[11.94886,42.54291]]]},"properties":{"name":"Bolsena","class":"lake","kind":"lake","source":"ne-lakes"}},{"type":"Feature","geometry":{"type":"Polygon","coordinates":[[[12.10511,43.09266],[12.07496,43.10425],[12.05494,43.11915],[12.05274,43.12977],[12.02369,43.17322],[12.03736,43.19391],[12.07691,43.20093],[12.11756,43.19666],[12.18202,43.18116],[12.18592,43.16901],[12.17225,43.15894],[12.16285,43.14014],[12.18141,43.10816],[12.16139,43.09876],[12.13331,43.09266],[12.10511,43.09266]]]},"properties":{"name":"Trasimeno","class":"lake","kind":"lake","source":"ne-lakes"}},{"type":"Feature","geometry":{"type":"Polygon","coordinates":[[[18.49708,42.74683],[18.46974,42.76502],[18.45692,42.80152],[18.43312,42.81251],[18.41822,42.82435],[18.39332,42.85596],[18.40455,42.85804],[18.4336,42.85413],[18.44874,42.84473],[18.46754,42.8122],[18.47657,42.77296],[18.49952,42.74744],[18.49708,42.74683]]]},"properties":{"class":"lake","kind":"lake","source":"ne-lakes"}},{"type":"Feature","geometry":{"type":"Polygon","coordinates":[[[12.22755,42.0918],[12.20448,42.09998],[12.18568,42.11371],[12.17604,42.13044],[12.18568,42.1493],[12.20899,42.16383],[12.25587,42.16657],[12.27626,42.15052],[12.28321,42.12464],[12.26564,42.10065],[12.24586,42.094],[12.22755,42.0918]]]},"properties":{"name":"Bracciano","class":"lake","kind":"lake","source":"ne-lakes"}},{"type":"Feature","geometry":{"type":"Polygon","coordinates":[[[15.8971,43.73707],[15.90406,43.72669],[15.89588,43.72584],[15.84791,43.77112],[15.84645,43.78846],[15.85487,43.79969],[15.85719,43.83985],[15.87672,43.8346],[15.89064,43.81428],[15.8871,43.79725],[15.86891,43.79481],[15.85279,43.7848],[15.87062,43.75837],[15.8971,43.73707]]]},"properties":{"class":"lake","kind":"lake","source":"ne-lakes"}},{"type":"Feature","geometry":{"type":"Polygon","coordinates":[[[17.02711,43.64191],[17.00135,43.64893],[16.97877,43.66016],[16.97389,43.67176],[16.97303,43.70545],[16.98402,43.70881],[17.05726,43.69605],[17.11622,43.69178],[17.07972,43.68751],[17.07618,43.66627],[17.06788,43.64466],[17.04811,43.64039],[17.02711,43.64191]]]},"properties":{"class":"lake","kind":"lake","source":"ne-lakes"}},{"type":"Feature","geometry":{"type":"Polygon","coordinates":[[[16.09815,41.38087],[16.1194,41.37299],[16.09596,41.36573],[16.06556,41.3747],[16.03822,41.37226],[16.02174,41.38593],[15.97193,41.40626],[15.95582,41.4184],[15.94886,41.43305],[15.96009,41.43909],[16.01478,41.42267],[16.05433,41.39985],[16.05738,41.38923],[16.07081,41.38984],[16.09815,41.38087]]]},"properties":{"class":"lake","kind":"lake","source":"ne-lakes"}},{"type":"Feature","geometry":{"type":"Polygon","coordinates":[[[15.74928,41.84638],[15.69777,41.85944],[15.68458,41.88105],[15.68312,41.90021],[15.71229,41.90656],[15.79689,41.90809],[15.80372,41.89411],[15.80323,41.86005],[15.78712,41.84882],[15.74928,41.84638]]]},"properties":{"class":"lake","kind":"lake","source":"ne-lakes"}},{"type":"Feature","geometry":{"type":"Polygon","coordinates":[[[15.33082,41.86884],[15.31324,41.88068],[15.32423,41.88923],[15.4214,41.89197],[15.51954,41.90595],[15.54213,41.90388],[15.53358,41.89655],[15.48829,41.87348],[15.45069,41.87012],[15.41139,41.87409],[15.38282,41.87128],[15.35792,41.8628],[15.33082,41.86884]]]},"properties":{"class":"lake","kind":"lake","source":"ne-lakes"}}]}