{"type":"FeatureCollection","features":[{"type":"Feature","geometry":{"type":"MultiLineString","coordinates":[[[9.12762,47.67068],[9.18287,47.67068]],[[9.4087,46.83458],[9.49627,46.8631],[9.53224,46.88748],[9.55274,46.93077],[9.54591,46.9643],[9.54046,46.97468],[9.49562,47.02647],[9.47698,47.05988],[9.47535,47.07351],[9.50237,47.095],[9.51189,47.10834],[9.51124,47.12967],[9.48439,47.17658],[9.48683,47.21027],[9.50392,47.24396],[9.55274,47.30012],[9.58684,47.32807],[9.60051,47.36152],[9.63917,47.3948],[9.64894,47.40998],[9.64983,47.45226],[9.6211,47.46951],[9.58399,47.48102],[9.55437,47.51118]],[[8.71022,46.62267],[8.71412,46.65066],[8.72942,46.6693],[8.75091,46.67634],[8.82911,46.68769],[8.86818,46.71491],[8.91774,46.73432],[8.96485,46.73957],[9.04558,46.75776],[9.13567,46.78567],[9.18287,46.78567],[9.22608,46.79743],[9.26458,46.80244],[9.30462,46.81611],[9.41554,46.83458]]]},"properties":{"name":"Rhein","class":"river","kind":"river","source":"ne-rivers"}},{"type":"Feature","geometry":{"type":"MultiLineString","coordinates":[[[15.12867,40.89806],[15.14422,40.90046],[15.19337,40.89948],[15.22633,40.91096],[15.24733,40.91413],[15.34124,40.89798],[15.47071,40.90168],[15.48919,40.90729],[15.53639,40.93317],[15.54396,40.94379],[15.55494,40.97154],[15.57203,40.99738],[15.57781,41.01093],[15.5761,41.02643],[15.55836,41.055],[15.55462,41.06904],[15.56145,41.08601],[15.58302,41.10444],[15.5962,41.1092],[15.75294,41.10261],[15.77101,41.10444],[15.84929,41.13141],[15.92351,41.17316],[15.94825,41.18171],[16.10084,41.29519],[16.1281,41.30988],[16.17994,41.32294],[16.20061,41.33662],[16.19972,41.36249]]]},"properties":{"name":"Ofanto","class":"river","kind":"river","source":"ne-rivers"}},{"type":"Feature","geometry":{"type":"MultiLineString","coordinates":[[[13.49928,47.16279],[13.58888,47.11673],[13.6172,47.1055],[13.65887,47.10021],[13.70558,47.10476],[13.77679,47.12873],[13.79876,47.13097],[13.80983,47.1221],[13.82179,47.09044],[13.88624,47.08002],[13.90447,47.0799],[13.96876,47.09785],[13.98968,47.10041],[14.00384,47.10505],[14.03289,47.12482],[14.05462,47.12763],[14.09669,47.11404],[14.14055,47.12088],[14.219,47.12202],[14.2732,47.14033],[14.37737,47.14924],[14.40333,47.16169],[14.44353,47.20152],[14.46819,47.21577],[14.55364,47.22968],[14.58424,47.22712],[14.64104,47.20197],[14.67189,47.20372],[14.71461,47.21308],[14.78883,47.20616],[14.81788,47.20844],[14.84278,47.22163],[14.8471,47.23326],[14.84978,47.26288],[14.85987,47.26883],[14.89153,47.27639],[14.90545,47.28429],[14.91578,47.30463],[14.98878,47.35574],[15.00392,47.35883],[15.03175,47.35851],[15.05519,47.36502],[15.07317,47.37482],[15.10255,47.39798],[15.11931,47.40742],[15.13836,47.41262],[15.21266,47.41681],[15.25099,47.40998],[15.27263,47.4173],[15.28175,47.41681],[15.28899,47.39936],[15.30584,47.39195],[15.34522,47.35236],[15.36712,47.32429],[15.35841,47.31244],[15.30885,47.29194],[15.32952,47.27965],[15.31471,47.27265],[15.30901,47.2591],[15.31397,47.24665],[15.33277,47.23615],[15.33693,47.22846],[15.34246,47.19396],[15.32634,47.17296],[15.32268,47.1636],[15.33562,47.1343],[15.41188,47.10334],[15.43873,47.08161],[15.44606,47.04007],[15.46339,47.02289],[15.47071,47.0008],[15.49342,46.97472],[15.50147,46.95746],[15.49895,46.91881],[15.50196,46.90229],[15.5298,46.88723],[15.56975,46.83458],[15.58277,46.81086],[15.57415,46.7781],[15.57594,46.75886],[15.58766,46.74287],[15.60613,46.73001],[15.65162,46.71105],[15.72804,46.70323],[15.75465,46.70429],[15.82244,46.72309],[15.85027,46.72472],[15.8781,46.72097],[15.94581,46.69737],[15.9865,46.69245],[15.99733,46.6872],[16.01629,46.67092],[16.02784,46.66507],[16.042,46.66266],[16.06707,46.64435],[16.12037,46.61909],[16.20338,46.5919],[16.21673,46.58409],[16.25408,46.54743],[16.268,46.53974],[16.28167,46.54723],[16.29217,46.53473],[16.31023,46.53128],[16.32952,46.53571],[16.34368,46.54723],[16.35109,46.53974],[16.35743,46.54723],[16.36891,46.54084],[16.40577,46.53974],[16.43987,46.51931],[16.47022,46.52054],[16.49065,46.51541],[16.52052,46.49885],[16.51507,46.49885],[16.56373,46.48017],[16.57708,46.47089],[16.58326,46.47089],[16.58766,46.4798],[16.59392,46.48322],[16.63722,46.47472],[16.6587,46.46442],[16.71193,46.41291],[16.74236,46.39985],[16.75457,46.38215],[16.7614,46.38215],[16.76881,46.39643],[16.80738,46.38756],[16.82708,46.37434],[16.83196,46.38215],[16.83717,46.38215],[16.85003,46.37332],[16.865,46.3594],[16.87452,46.34313],[16.87127,46.3275],[16.88868,46.29243],[16.9402,46.25178],[16.97429,46.2108],[17.02752,46.18073],[17.03582,46.17328],[17.04078,46.16242],[17.05226,46.15375],[17.11573,46.12336],[17.19679,46.12141],[17.20802,46.11681],[17.24798,46.08043],[17.2754,46.01227],[17.30714,46.00666],[17.31633,45.99791],[17.28956,45.99173],[17.28956,45.98493],[17.32667,45.97228],[17.33741,45.98493],[17.34319,45.9678],[17.34156,45.95885],[17.3449,45.95592],[17.36467,45.9569],[17.38868,45.96332],[17.39918,45.96015],[17.40569,45.94391],[17.4262,45.9569],[17.51149,45.95417],[17.55388,45.94806],[17.59075,45.93647],[17.63795,45.90156],[17.64527,45.89212],[17.65602,45.84565],[17.66407,45.84186],[17.68678,45.84089],[17.8086,45.81464],[17.83766,45.79987],[17.85743,45.77607],[17.85759,45.772],[17.8694,45.77375],[17.88006,45.78876],[17.88917,45.79243],[17.97486,45.79243],[18.07984,45.77192],[18.10247,45.77485],[18.12843,45.78567],[18.2107,45.78567],[18.22926,45.78152],[18.26002,45.76545],[18.28272,45.76516],[18.29249,45.7475],[18.3069,45.73566],[18.32488,45.72834],[18.37639,45.72199],[18.39259,45.70372],[18.40911,45.69811],[18.48194,45.69233],[18.49318,45.68427],[18.48878,45.66897],[18.50603,45.66938],[18.51677,45.66266],[18.53663,45.64228],[18.57838,45.63398],[18.59181,45.628],[18.61451,45.59703],[18.62599,45.58698],[18.64031,45.58059],[18.77296,45.5552],[18.9275,45.55284]]]},"properties":{"name":"Mur","class":"river","kind":"river","source":"ne-rivers"}},{"type":"Feature","geometry":{"type":"MultiLineString","coordinates":[[[8.37859,46.5788],[8.36915,46.56452],[8.3567,46.55642],[8.34816,46.54348],[8.32545,46.52721],[8.10646,46.3935],[8.03826,46.36249],[8.02906,46.34907],[8.0075,46.33808],[7.96314,46.32465],[7.92433,46.31891],[7.62672,46.33141],[7.60426,46.32722],[7.56788,46.30895],[7.47649,46.29047],[7.42962,46.26134],[7.39129,46.25393],[7.36158,46.23725],[7.19532,46.18126],[7.10206,46.13211],[7.07179,46.12824],[7.063,46.13398],[7.04192,46.15774],[7.03777,46.16612],[7.03338,46.20006],[7.00343,46.23078],[6.93995,46.30748],[6.93092,46.33425],[6.8943,46.34797],[6.89055,46.35541],[6.8943,46.3747],[6.86638,46.40261]],[[6.13331,46.20462],[6.09221,46.21296],[6.05079,46.20462],[6.02003,46.18346],[6.00172,46.1756],[5.9546,46.12824],[5.91375,46.12824],[5.90553,46.12263],[5.88624,46.09931],[5.87159,46.09333],[5.84596,46.11103],[5.82521,46.09528],[5.82423,46.05024],[5.83912,45.97057],[5.84059,45.93293],[5.83196,45.89822],[5.79957,45.83185],[5.78883,45.79694],[5.73585,45.79255],[5.72047,45.77741],[5.70802,45.75711],[5.7129,45.70014],[5.66057,45.65705],[5.64088,45.64578],[5.61988,45.64374],[5.60051,45.65559],[5.56593,45.70136],[5.54705,45.71955],[5.47771,45.76411],[5.45021,45.793],[5.43304,45.83108],[5.43898,45.83369],[5.43019,45.84427],[5.38494,45.87389],[5.36907,45.87995],[5.33351,45.86799],[5.27288,45.79983],[5.25734,45.78974],[5.23919,45.78567],[5.2199,45.78885],[5.19109,45.80292],[5.11842,45.82661],[5.0503,45.81977],[4.9922,45.82661],[4.91692,45.81135],[4.87737,45.79918],[4.86524,45.79243],[4.86109,45.7602],[4.85597,45.74994],[4.83806,45.7589],[4.82439,45.74466],[4.84368,45.71735],[4.84051,45.68317],[4.82317,45.64814],[4.79981,45.61803],[4.80242,45.59296],[4.83929,45.57294],[4.87005,45.54967],[4.85475,45.515],[4.78639,45.47309],[4.76002,45.44444],[4.75538,45.40205],[4.77345,45.35663],[4.77589,45.33718],[4.78346,45.3249],[4.81153,45.29934],[4.81072,45.27912],[4.81691,45.27912],[4.81251,45.2602],[4.81414,45.19737],[4.82732,45.1579],[4.82244,45.13276],[4.82277,45.11119],[4.84474,45.10102],[4.84108,45.08832],[4.85841,45.06562],[4.85857,45.05382],[4.851,45.02155],[4.85743,45.0023],[4.88592,44.96674],[4.89259,44.94953],[4.8886,44.93224],[4.86183,44.87507],[4.83058,44.8509],[4.8283,44.83702],[4.82228,44.83076],[4.80323,44.8205],[4.78826,44.80764],[4.7776,44.79544],[4.77125,44.77936],[4.76905,44.75471],[4.77296,44.74148],[4.79119,44.71276],[4.7964,44.69636],[4.78948,44.65847],[4.74,44.60627],[4.72136,44.57343],[4.70338,44.47472],[4.69964,44.46552],[4.67701,44.4372],[4.67034,44.42092],[4.67351,44.41515],[4.66603,44.39171],[4.65764,44.27566],[4.65984,44.26435],[4.68352,44.24636],[4.69239,44.21711],[4.71583,44.19444],[4.72136,44.16873],[4.71754,44.12311],[4.71925,44.10314],[4.72877,44.08556],[4.73561,44.08556],[4.75261,44.09646],[4.77068,44.08824],[4.851,44.02542],[4.85084,44.01386],[4.84636,44.00751],[4.81666,44.00084],[4.82325,43.98253],[4.82057,43.97321],[4.77068,43.93688],[4.64674,43.88414],[4.64674,43.81184],[4.64129,43.78925],[4.6115,43.73733],[4.6159,43.70913]],[[4.61744,43.71003],[4.6159,43.70913]],[[4.6159,43.70913],[4.60279,43.70161],[4.57423,43.70942],[4.51246,43.70942],[4.47967,43.69973],[4.46168,43.67719],[4.44777,43.6518],[4.42701,43.63373],[4.42701,43.62751],[4.46388,43.61754],[4.46119,43.60639],[4.4489,43.59597],[4.41944,43.58922],[4.40667,43.57913],[4.40333,43.57156],[4.35133,43.54495],[4.35955,43.53742],[4.40105,43.45319]],[[4.6159,43.70913],[4.61028,43.65872],[4.62233,43.64802],[4.6421,43.63874],[4.67701,43.59431],[4.69459,43.57913]]]},"properties":{"name":"Rhône","class":"river","kind":"river","source":"ne-rivers"}},{"type":"Feature","geometry":{"type":"MultiLineString","coordinates":[[[17.20647,48.0611],[17.24293,48.04133],[17.25652,48.0281],[17.26173,48.0093],[17.27223,48.00556],[17.33741,47.99897],[17.36907,47.98147],[17.47145,47.88911],[17.48146,47.88292],[17.52613,47.87238],[17.55983,47.83824],[17.57203,47.82978],[17.60377,47.8345],[17.63941,47.81944],[17.65789,47.80756],[17.67604,47.78941],[17.74147,47.76565],[17.82521,47.75027],[18.11223,47.76272],[18.23536,47.75418],[18.27247,47.75646],[18.34734,47.77696],[18.55201,47.79316],[18.59693,47.79088],[18.63331,47.7801],[18.6631,47.77619],[18.69239,47.77818],[18.71673,47.78836],[18.74977,47.81383],[18.7671,47.82258],[18.78981,47.82661],[18.89812,47.8238],[18.91114,47.81961],[18.92791,47.8028],[18.9485,47.80309],[19.01384,47.82897],[19.03907,47.83043],[19.06324,47.82648],[19.08595,47.81721],[19.10686,47.80284],[19.12306,47.77546],[19.12835,47.7364],[19.12403,47.69343],[19.11199,47.65412],[19.05445,47.54039],[19.05055,47.50617],[19.06422,47.47822],[19.06227,47.46845],[19.05055,47.44782],[19.0468,47.42556],[19.03639,47.41254],[18.97438,47.37946],[18.95257,47.357],[18.93499,47.32848],[18.92018,47.29328],[18.90764,47.23749],[18.88697,47.2082],[18.88136,47.18964],[18.87916,47.14924],[18.8969,47.09028],[18.90309,47.08161],[18.91871,47.07404],[18.96803,47.03323],[18.96673,47.02375],[18.95436,47.00532],[18.96697,46.93586],[18.96656,46.9173],[18.9489,46.90392],[18.93092,46.87722],[18.92604,46.83527],[18.9275,46.82717],[18.93312,46.82058],[18.98479,46.77566],[18.98902,46.74518],[18.99895,46.72321],[19.00172,46.70852],[18.99635,46.69489],[18.98162,46.67634],[18.95289,46.65619],[18.88527,46.63532],[18.85816,46.61485],[18.87721,46.59117],[18.90764,46.53181],[18.92018,46.49885],[18.92278,46.46869],[18.89894,46.41437],[18.89226,46.37844],[18.89552,46.3629],[18.91008,46.34296],[18.91334,46.33063],[18.91497,46.19526],[18.90358,46.17304],[18.87233,46.18346],[18.82521,46.14155],[18.81341,46.12617],[18.79412,46.11673],[18.78981,46.11152],[18.78517,46.11225],[18.76246,46.08727],[18.70037,46.04479],[18.69166,46.0185],[18.72161,45.98493],[18.80616,45.92361],[18.83147,45.89554],[18.83147,45.87507],[18.84742,45.87315],[18.85198,45.86819],[18.85393,45.85924],[18.85198,45.83035],[18.84449,45.81594],[18.84815,45.80984],[18.89967,45.76516],[18.90846,45.71967],[18.91676,45.70685],[18.96209,45.6833],[18.96803,45.66897],[18.96241,45.66035],[18.93483,45.63361],[18.91188,45.61945],[18.90309,45.57331],[18.94133,45.53925],[18.95965,45.53937],[18.98268,45.555],[19.01759,45.56757],[19.02662,45.56281],[19.04029,45.54527],[19.05055,45.53925],[19.09449,45.52631],[19.10572,45.51191],[19.07659,45.49189],[19.00904,45.49889],[18.99586,45.47407],[19.00245,45.45559],[19.03102,45.43419],[19.03679,45.42255],[19.02809,45.41242],[18.97535,45.39521],[19.00318,45.3664],[19.02052,45.35749],[19.04021,45.35428],[19.08155,45.35428],[19.09132,45.35029],[19.09832,45.32014],[19.12428,45.29841],[19.16155,45.28526],[19.36272,45.24848],[19.40675,45.24897],[19.4909,45.26427],[19.52955,45.26687],[19.55763,45.25581],[19.57171,45.2366],[19.5805,45.23078],[19.59856,45.22785],[19.65813,45.23444],[19.6985,45.24669],[19.74195,45.24506],[19.78492,45.23749],[19.8108,45.22785],[19.83815,45.24213],[19.86248,45.27281],[19.88087,45.28229],[19.89861,45.27936],[19.91432,45.26891],[19.9275,45.25581],[19.94939,45.21869],[19.96559,45.19855],[19.98561,45.18977],[20.06471,45.17548],[20.18499,45.185],[20.22242,45.17548],[20.25701,45.15677],[20.28948,45.13227],[20.34588,45.07306],[20.35694,45.03449],[20.33326,45.01056],[20.30397,44.99396],[20.29811,44.97748],[20.2907,44.97748],[20.31886,44.93439],[20.3969,44.86457],[20.40846,44.85704],[20.45509,44.84028],[20.51417,44.83686],[20.54591,44.83979],[20.58033,44.85737],[20.62371,44.8546],[20.6364,44.84943],[20.6386,44.83735],[20.62818,44.7886],[20.62794,44.77705],[20.63331,44.7652],[20.64446,44.75581],[20.67189,44.74396],[20.72039,44.69623],[20.74195,44.67923],[20.76368,44.6684],[20.82643,44.66096],[20.88323,44.67267],[20.98951,44.71682],[21.07781,44.72651],[21.11223,44.74482],[21.15089,44.74409],[21.16383,44.74787],[21.18889,44.77827],[21.22242,44.7967],[21.26946,44.81367],[21.3191,44.82506],[21.36012,44.82669],[21.37794,44.81692],[21.39527,44.79047],[21.41163,44.7851],[21.49659,44.77827],[21.55787,44.78185],[21.57757,44.7779],[21.59498,44.76618],[21.61915,44.71418],[21.65569,44.68793],[21.7046,44.67727],[21.75628,44.67752],[21.8012,44.68415],[21.85499,44.69876],[21.87151,44.69623],[21.96184,44.66254],[21.99383,44.6588],[22.00383,44.65172],[22.03167,44.60358],[22.03932,44.57709],[22.04469,44.5694],[22.07569,44.55097],[22.08644,44.52204],[22.10377,44.50987],[22.12615,44.50296],[22.14772,44.50117],[22.17164,44.50564],[22.18458,44.51541],[22.29851,44.66193],[22.30445,44.6776],[22.31927,44.68561],[22.36061,44.69233],[22.38006,44.70075],[22.42555,44.73391],[22.46843,44.73041],[22.48316,44.72423],[22.55275,44.66946],[22.58693,44.6496],[22.62062,44.63772],[22.69947,44.63089],[22.71429,44.62336],[22.76482,44.58308],[22.7588,44.56489],[22.74114,44.55211],[22.71892,44.54462],[22.69947,44.5421],[22.67799,44.54572],[22.64153,44.5633],[22.62062,44.5694],[22.59978,44.5701],[22.57984,44.56574],[22.56511,44.55573],[22.55616,44.52167],[22.54786,44.51199],[22.53492,44.50776],[22.49993,44.50666],[22.48357,44.50003],[22.47657,44.47724],[22.47649,44.46418],[22.4795,44.45608],[22.5005,44.44217],[22.50489,44.43525],[22.50465,44.40432],[22.52223,44.37531],[22.54876,44.34923],[22.58229,44.32868],[22.62062,44.31623],[22.66204,44.31196],[22.68108,44.30553],[22.68897,44.29194],[22.68474,44.24392],[22.69011,44.22919],[22.90593,44.12311],[22.94215,44.11176],[22.98756,44.10724],[23.03053,44.09333],[23.03956,44.06261],[23.02247,44.03185],[22.98756,44.01789],[22.90528,44.00422],[22.88543,43.99474],[22.8742,43.97228],[22.85003,43.89724],[22.85052,43.87458],[22.86297,43.85566],[22.88819,43.83979],[22.91912,43.8345],[23.13136,43.84821],[23.16139,43.85761],[23.19646,43.86298],[23.2339,43.87751],[23.32456,43.88683]],[[23.32456,43.88683],[23.31959,43.88703],[23.32456,43.88683]],[[23.32456,43.88683],[23.48414,43.88081],[23.59205,43.83767],[23.63551,43.83238],[23.72022,43.84605],[23.7422,43.84296],[23.79949,43.81871],[24.15886,43.7532],[24.35768,43.76028],[24.37493,43.76411],[24.43059,43.79438],[24.46575,43.80268],[24.49968,43.79975],[24.70509,43.74396],[24.75213,43.73908],[24.96315,43.74986],[25.08106,43.71918],[25.2107,43.7121],[25.25188,43.7049],[25.35898,43.65449],[25.4026,43.65034],[25.46689,43.668],[25.48829,43.67076],[25.55608,43.67068],[25.61598,43.68802],[25.67091,43.7176],[25.73902,43.71918],[25.78053,43.73224],[25.80576,43.76394],[25.8388,43.78864],[25.86874,43.80113],[25.91603,43.84459],[25.93352,43.87055],[26.05372,43.9346],[26.06113,43.95002],[26.07887,43.96927],[26.11573,43.99909],[26.15016,44.01272],[26.23089,44.02778],[26.30999,44.05284],[26.6137,44.08515],[26.67685,44.09736],[26.70826,44.10834],[26.75318,44.10834],[26.78899,44.11624],[26.88356,44.15681],[27.00107,44.16535],[27.02695,44.17731],[27.09962,44.14472],[27.20501,44.12946],[27.22617,44.12092],[27.29225,44.15143],[27.44475,44.13398],[27.46103,44.13764],[27.49928,44.15579],[27.51588,44.17255],[27.56878,44.19542],[27.60784,44.20535],[27.69166,44.20441],[27.73268,44.20974],[27.78859,44.23969],[27.93385,44.26594],[27.9673,44.28038],[27.99326,44.30427],[28.04794,44.39806],[28.09856,44.43024],[28.10995,44.44245],[28.10882,44.45771],[28.10198,44.47834],[28.09319,44.49665],[28.08587,44.5045],[28.04249,44.51337],[28.02011,44.52216],[28.00693,44.53185],[28.00367,44.53974],[28.01507,44.54316],[28.02125,44.55231],[28.02109,44.58784],[28.02784,44.59809],[28.03443,44.63081],[28.03053,44.63691],[27.97779,44.67914],[27.96005,44.68631],[27.91611,44.69436],[27.89845,44.70795],[27.88429,44.7259],[27.87672,44.74409],[27.88331,44.7569],[27.87737,44.76533],[27.84571,44.77143],[27.82887,44.77912],[27.81837,44.79597],[27.81471,44.81277],[27.81878,44.8205],[27.85939,44.85505],[27.87883,44.88211],[27.87672,44.90115],[27.88925,44.92621],[27.89422,44.95698],[27.89055,44.98587],[27.87672,45.00483],[27.90724,45.05317],[27.91757,45.08161],[27.94492,45.11282],[27.95175,45.12836],[27.93808,45.16181],[27.93808,45.20657],[27.94166,45.22423],[28.01808,45.34313],[28.03443,45.40205],[28.04859,45.41376],[28.06699,45.42255],[28.10662,45.43],[28.16953,45.41498],[28.18515,45.41564],[28.19361,45.42316],[28.20167,45.44314],[28.21241,45.45047],[28.23707,45.45234],[28.26637,45.44074],[28.28582,45.42198],[28.28077,45.40205],[28.31031,45.34809],[28.32968,45.32311],[28.35263,45.31269],[28.36972,45.30952],[28.40471,45.29536],[28.49366,45.27912],[28.57659,45.24836],[28.70948,45.22724],[28.747,45.23074]]]},"properties":{"name":"Danube","class":"river","kind":"river","source":"ne-rivers"}},{"type":"Feature","geometry":{"type":"MultiLineString","coordinates":[[[12.05201,43.76516],[12.03785,43.7567],[12.03142,43.73855],[12.03321,43.71686],[12.06056,43.64728],[12.06642,43.61384],[12.04664,43.59333],[12.04664,43.58653],[12.08204,43.57994],[12.11232,43.56977],[12.13893,43.55423],[12.16334,43.53132],[12.17189,43.5067],[12.21119,43.48969],[12.2221,43.47858],[12.24,43.44831],[12.23902,43.43509],[12.23219,43.44249],[12.24635,43.38093],[12.2527,43.36681],[12.2986,43.3485],[12.31422,43.34638],[12.30983,43.32482],[12.32399,43.3109],[12.36256,43.29169],[12.40943,43.21495],[12.4253,43.19709],[12.43849,43.1741],[12.45802,43.16401],[12.45574,43.15327],[12.44459,43.13748],[12.44459,43.11697],[12.46502,43.10297],[12.45989,43.09418],[12.424,43.05895],[12.42937,43.05187],[12.42937,43.04405],[12.41717,43.03103],[12.43092,43.0242],[12.417,43.00955],[12.4135,43.00125],[12.41717,42.99006],[12.40423,42.98542],[12.39674,42.97639],[12.40358,42.96955],[12.3899,42.94908],[12.39552,42.94038],[12.39503,42.93049],[12.38307,42.91433],[12.38307,42.90815],[12.39039,42.89594],[12.38673,42.88463],[12.36883,42.86713],[12.39007,42.85672],[12.39796,42.8498],[12.40358,42.83922],[12.38714,42.83377],[12.36883,42.83238],[12.36883,42.8262],[12.37688,42.81769],[12.39861,42.80496],[12.40358,42.79084],[12.38836,42.78885],[12.37029,42.78119],[12.32171,42.7486],[12.2732,42.73619],[12.23219,42.70201],[12.19744,42.70201],[12.20257,42.68395],[12.21038,42.66629],[12.22137,42.65278],[12.23561,42.64741],[12.24049,42.63898],[12.24733,42.5987],[12.24529,42.58539],[12.25896,42.5655],[12.27141,42.56598],[12.28004,42.51028],[12.30047,42.48981],[12.31886,42.49787],[12.3427,42.49177],[12.39332,42.46235],[12.41717,42.44135],[12.41717,42.42829],[12.42815,42.42902],[12.45143,42.42084],[12.45143,42.41466],[12.4406,42.4066],[12.43092,42.39293],[12.44671,42.38776],[12.46502,42.39293],[12.46502,42.38675],[12.45338,42.37214],[12.4546,42.35285],[12.46624,42.33523],[12.4861,42.32526],[12.47242,42.31843],[12.49098,42.29828],[12.54689,42.29352],[12.56056,42.27062],[12.56951,42.27827],[12.57423,42.29112],[12.58172,42.29112],[12.58107,42.27892],[12.58465,42.27224],[12.59173,42.27155],[12.60222,42.27753],[12.62981,42.2414],[12.62941,42.22223],[12.6111,42.23774],[12.60572,42.22614],[12.61207,42.19493],[12.60613,42.19176],[12.62941,42.17451],[12.63787,42.15632],[12.63624,42.13972],[12.62941,42.12067],[12.61883,42.10981],[12.58155,42.08137],[12.56056,42.07888],[12.54298,42.06904],[12.542,42.06391],[12.55372,42.05781],[12.55372,42.05158],[12.53069,42.05016],[12.51539,42.03864],[12.50921,42.02155],[12.51271,42.0032],[12.49968,41.98994],[12.49293,41.97521],[12.4922,41.9442],[12.4817,41.93476],[12.45818,41.93427],[12.45818,41.92805],[12.46673,41.92451],[12.4712,41.9184],[12.47096,41.91035],[12.46502,41.90074],[12.47486,41.89155],[12.47381,41.87983],[12.45948,41.83613],[12.41717,41.83185],[12.41595,41.81082],[12.41033,41.80451],[12.35051,41.80919],[12.33937,41.80772],[12.32854,41.79707],[12.3117,41.80431],[12.29737,41.79902],[12.2732,41.77721],[12.27931,41.76134],[12.26783,41.75222],[12.23219,41.7425]]]},"properties":{"name":"Tiber","class":"river","kind":"river","source":"ne-rivers"}},{"type":"Feature","geometry":{"type":"MultiLineString","coordinates":[[[15.2295,46.04584],[15.247,46.04031],[15.29664,46.04352],[15.36451,46.02477],[15.43531,46.01777],[15.45631,46.00995],[15.47356,45.99531],[15.48919,45.96345],[15.50001,45.95685],[15.54566,45.94143],[15.5971,45.93684],[15.62102,45.92369],[15.68751,45.86998],[15.75733,45.85004],[15.77385,45.84064],[15.80999,45.84089],[15.82244,45.83283],[15.85768,45.79617],[15.86695,45.79161],[15.9839,45.78827],[16.01441,45.78136],[16.042,45.76516],[16.04884,45.76516],[16.08302,45.79243],[16.09376,45.78889],[16.1115,45.79291],[16.14039,45.7934],[16.14503,45.79243],[16.15528,45.772],[16.20851,45.75446],[16.22698,45.7589],[16.22999,45.75027],[16.22828,45.74262],[16.21331,45.73163],[16.22698,45.71833],[16.22413,45.71316],[16.21331,45.70991],[16.21331,45.70372],[16.2343,45.70051],[16.24757,45.70372],[16.25261,45.67243],[16.2649,45.66897],[16.28541,45.67239],[16.2929,45.66999],[16.29591,45.659],[16.30608,45.64777],[16.32643,45.64838],[16.34181,45.64488],[16.33684,45.62177],[16.34929,45.62446],[16.35621,45.62047],[16.3554,45.6138],[16.34368,45.6081],[16.34368,45.60065],[16.36329,45.59699],[16.40577,45.57331],[16.40577,45.56651],[16.38404,45.54707],[16.37981,45.53681],[16.38527,45.52558],[16.42628,45.52558],[16.40577,45.49824],[16.39894,45.50446],[16.40577,45.51191],[16.38527,45.51191],[16.38771,45.48489],[16.39088,45.47553],[16.41521,45.46503],[16.43987,45.44298],[16.5114,45.41352],[16.53663,45.40921],[16.56121,45.4134],[16.58326,45.43],[16.59514,45.41315],[16.60206,45.41132],[16.61061,45.41564],[16.62501,45.40416],[16.67945,45.38898],[16.67579,45.3734],[16.68702,45.36481],[16.70403,45.36371],[16.73097,45.37706],[16.761,45.35875],[16.77508,45.35428],[16.77467,45.34272],[16.78932,45.3406],[16.78102,45.3249],[16.78248,45.32014],[16.80983,45.31269],[16.81682,45.31843],[16.82179,45.31733],[16.82415,45.30646],[16.80299,45.27912],[16.85426,45.26988],[16.88038,45.28205],[16.89641,45.26838],[16.92384,45.28486],[16.93214,45.279],[16.9402,45.25808],[16.94093,45.24148],[16.94679,45.23595],[16.96746,45.23758],[16.9607,45.25117],[16.97552,45.24738],[16.99806,45.23163],[17.00782,45.24441],[17.01311,45.23082],[17.00782,45.2165],[17.03582,45.23074],[17.05519,45.20071],[17.09783,45.17792],[17.18653,45.14879],[17.19728,45.15318],[17.24488,45.15563],[17.26856,45.18977],[17.38201,45.13984],[17.4336,45.14879],[17.4428,45.1623],[17.45069,45.15876],[17.45753,45.14643],[17.44728,45.13455],[17.45989,45.13154],[17.47169,45.133],[17.49578,45.14203],[17.48146,45.11469],[17.53907,45.1212],[17.57195,45.12067],[17.59254,45.12983],[17.6294,45.15758],[17.65105,45.1656],[17.68434,45.16425],[17.71404,45.15229],[17.7409,45.13349],[17.79705,45.08222],[17.81511,45.07038],[17.83522,45.06477],[17.91065,45.08137],[17.92726,45.09223],[17.98797,45.14407],[18.00294,45.1496],[18.01856,45.14968],[18.03443,45.14362],[18.08977,45.10822],[18.11199,45.1009],[18.15309,45.09785],[18.17449,45.10102],[18.1919,45.10875],[18.19874,45.11925],[18.20183,45.14435],[18.21282,45.15408],[18.23731,45.15774],[18.26149,45.15099],[18.30681,45.12775],[18.32179,45.12311],[18.39234,45.11884],[18.41155,45.11266],[18.46551,45.07433],[18.49025,45.06306],[18.51653,45.0561],[18.54054,45.05553],[18.53395,45.08173],[18.53443,45.09068],[18.54908,45.095],[18.58131,45.09162],[18.60865,45.10037],[18.62062,45.09345],[18.64007,45.06562],[18.6482,45.06293],[18.65748,45.0666],[18.66554,45.08332],[18.67083,45.0871],[18.6836,45.08507],[18.72584,45.02643],[18.7378,45.01614],[18.77752,45.01056],[18.7885,45.00597],[18.79412,44.99567],[18.79534,44.9853],[18.80413,44.97407],[18.80104,44.96422],[18.77931,44.9525],[18.77215,44.94273],[18.78289,44.91401],[18.81715,44.8878],[18.85816,44.86876],[18.88917,44.86144],[19.0044,44.86359],[19.06788,44.87507],[19.084,44.87922],[19.17376,44.92565],[19.18629,44.9278],[19.20134,44.90864],[19.23894,44.91539],[19.28338,44.90864],[19.30974,44.91262],[19.3296,44.89899],[19.34978,44.89728],[19.3589,44.90115],[19.34124,44.90969],[19.32488,44.92231],[19.34059,44.92158],[19.37159,44.91389],[19.3864,44.91539],[19.39747,44.92353],[19.39568,44.93183],[19.37257,44.94339],[19.38917,44.95332],[19.41008,44.96015],[19.43108,44.96178],[19.44777,44.95637],[19.44988,44.97171],[19.46315,44.98041],[19.48487,44.98383],[19.51189,44.98322],[19.61915,44.96381],[19.64641,44.96357],[19.65667,44.95978],[19.66749,44.9361],[19.70021,44.92971],[19.7221,44.92101],[19.75685,44.91539],[19.75856,44.90498],[19.75318,44.89212],[19.70997,44.83027],[19.70069,44.80764],[19.70501,44.78876],[19.72022,44.76447],[19.72902,44.75776],[19.74529,44.75227],[19.79656,44.75157],[19.8462,44.73347],[19.91399,44.69542],[19.98259,44.69591],[20.01002,44.68891],[19.98967,44.67858],[19.93084,44.65929],[19.92066,44.64789],[19.94044,44.63178],[19.9734,44.64118],[20.04542,44.69025],[20.10589,44.71251],[20.12615,44.71682],[20.14129,44.71613],[20.15406,44.71064],[20.15813,44.70563],[20.16033,44.68891],[20.18653,44.68272],[20.20191,44.6861],[20.21412,44.71198],[20.22584,44.72154],[20.23748,44.72374],[20.24285,44.71369],[20.23609,44.69029],[20.24659,44.6789],[20.27434,44.66474],[20.29241,44.67902],[20.31178,44.7298],[20.32179,44.74392],[20.36126,44.78413],[20.37664,44.79255],[20.44117,44.81037],[20.44695,44.83161],[20.45509,44.84028]]]},"properties":{"name":"Sava","class":"river","kind":"river","source":"ne-rivers"}},{"type":"Feature","geometry":{"type":"MultiLineString","coordinates":[[[10.69044,45.45047],[10.70216,45.42267],[10.70411,45.40205],[10.70191,45.38227],[10.70501,45.37373],[10.71778,45.3673],[10.71778,45.36111],[10.7068,45.35358],[10.70623,45.32937],[10.69728,45.32014],[10.69728,45.31269],[10.71412,45.30398],[10.71526,45.2934],[10.67994,45.25418],[10.67726,45.24714],[10.67897,45.2176],[10.69044,45.17239],[10.69988,45.1695],[10.77931,45.16852],[10.79029,45.1656],[10.81341,45.14879],[10.84124,45.13455],[10.86492,45.11469],[10.89503,45.11188],[10.92718,45.1037],[10.95631,45.09068],[10.97796,45.07306]]]},"properties":{"name":"Mincio","class":"river","kind":"river","source":"ne-rivers"}},{"type":"Feature","geometry":{"type":"MultiLineString","coordinates":[[[18.04322,46.91653],[18.05543,46.90754],[18.0783,46.90095],[18.13941,46.89293],[18.23414,46.86404],[18.25383,46.85505],[18.27141,46.83605],[18.39861,46.76394],[18.4402,46.75052],[18.48194,46.74518],[18.5617,46.75418],[18.57976,46.75296],[18.59645,46.74738],[18.61207,46.73595],[18.62599,46.71731],[18.63234,46.69587],[18.61622,46.62234],[18.59864,46.56647],[18.59889,46.54523],[18.60426,46.52314],[18.61622,46.50589],[18.63624,46.49885],[18.64845,46.48884],[18.65325,46.42988],[18.63982,46.42243],[18.63478,46.41531],[18.63282,46.40603],[18.63575,46.39802],[18.64308,46.39545],[18.6635,46.39643],[18.7387,46.38215],[18.7693,46.36103],[18.80348,46.36103],[18.81764,46.34797],[18.83147,46.36103],[18.84051,46.35895],[18.851,46.35114],[18.85198,46.34113],[18.87794,46.34772],[18.9065,46.34797]]]},"properties":{"name":"Sio","class":"river","kind":"river","source":"ne-rivers"}},{"type":"Feature","geometry":{"type":"MultiLineString","coordinates":[[[8.62054,45.72639],[8.59246,45.73847],[8.56886,45.76582],[8.56292,45.79291],[8.5949,45.8415],[8.59588,45.86335],[8.57765,45.9051],[8.58741,45.92219],[8.60735,45.93635],[8.62835,45.94575],[8.70167,46.00043],[8.72999,46.03596],[8.72389,46.06123],[8.72608,46.08727],[8.73756,46.10965],[8.78606,46.1444],[8.84319,46.1717]]]},"properties":{"name":"Ticino","class":"lake centerline","kind":"river","source":"ne-rivers"}},{"type":"Feature","geometry":{"type":"MultiLineString","coordinates":[[[8.40398,46.49596],[8.42726,46.48908],[8.4524,46.48871],[8.51441,46.51183],[8.52727,46.52281],[8.56959,46.5351],[8.61402,46.54304],[8.67604,46.54169],[8.70973,46.53543],[8.75685,46.51056],[8.80633,46.49177],[8.82976,46.47602],[8.87941,46.42532],[8.93409,46.39118],[8.96258,46.36526],[8.98487,46.33596],[9.0254,46.2663],[9.04314,46.25003],[9.04811,46.24067],[9.01075,46.19843],[8.98414,46.18915],[8.84319,46.1717]]]},"properties":{"name":"Ticino","class":"river","kind":"river","source":"ne-rivers"}},{"type":"Feature","geometry":{"type":"MultiLineString","coordinates":[[[9.74602,46.40318],[9.7444,46.42467],[9.75554,46.43826],[9.79908,46.46406],[9.80559,46.47537],[9.83668,46.49543],[9.87086,46.53632],[9.9048,46.56598],[10.01051,46.63837],[10.09563,46.70624],[10.09718,46.71662],[10.08839,46.73713],[10.08977,46.74763],[10.10524,46.76817],[10.11573,46.77509],[10.12989,46.77916],[10.18995,46.78132],[10.29925,46.80683],[10.39178,46.84101],[10.42888,46.86213],[10.4607,46.88984],[10.51433,46.95999],[10.65358,47.06184],[10.65919,47.06952],[10.66066,47.07913],[10.64715,47.10794],[10.63884,47.11652],[10.6032,47.12995],[10.57879,47.13357],[10.57228,47.13845],[10.57008,47.15839],[10.58839,47.17434],[10.70314,47.21943],[10.80519,47.22936],[10.82976,47.2366],[10.87615,47.26891],[11.02654,47.31098],[11.11712,47.30952],[11.22462,47.2829],[11.31764,47.28278],[11.36907,47.27485],[11.43157,47.29064],[11.53655,47.30154],[11.60906,47.31843],[11.67701,47.34549],[11.76287,47.39899],[11.82228,47.41681],[11.844,47.42963],[11.88136,47.45917],[11.90423,47.47199],[12.04444,47.5115],[12.08473,47.54462],[12.14129,47.57783],[12.20159,47.63007],[12.20533,47.6365],[12.2046,47.67255],[12.20191,47.67805],[12.18116,47.69241],[12.17473,47.71153],[12.1491,47.72468],[12.13543,47.75678],[12.12916,47.79731],[12.14178,47.82941],[12.15618,47.83893],[12.15398,47.84919],[12.14283,47.86925],[12.14454,47.91083],[12.15056,47.95038],[12.16326,47.98701],[12.18434,48.02009],[12.20729,48.04645],[12.22242,48.05935],[12.23902,48.06733],[12.23902,48.07477],[12.21868,48.07477],[12.23528,48.10383],[12.24855,48.11746],[12.26637,48.1225],[12.26637,48.12995],[12.2527,48.14362],[12.26531,48.14362],[12.28688,48.15668],[12.31218,48.1623],[12.32106,48.17097],[12.33473,48.16344],[12.32854,48.17719],[12.33473,48.1798],[12.40358,48.17719],[12.42311,48.18879],[12.43458,48.19078],[12.44597,48.2047],[12.45818,48.19827],[12.47405,48.21003],[12.49293,48.21809],[12.48024,48.22773],[12.47242,48.23981],[12.65008,48.25288],[12.71485,48.26655],[12.77727,48.2591],[12.81813,48.27501],[12.83221,48.26988],[12.85475,48.25467],[12.88673,48.25288],[12.89552,48.24763],[12.93116,48.21186],[12.97893,48.23224],[13.03224,48.26386],[13.136,48.29133],[13.27369,48.30732],[13.3073,48.31989],[13.40504,48.37682],[13.41896,48.3924],[13.42669,48.41877],[13.43556,48.43085],[13.43767,48.47883],[13.45598,48.5069],[13.45875,48.51667],[13.45655,48.52546],[13.44728,48.53502],[13.43946,48.56114],[13.45403,48.57368],[13.48658,48.58185]]]},"properties":{"name":"Inn","class":"river","kind":"river","source":"ne-rivers"}},{"type":"Feature","geometry":{"type":"MultiLineString","coordinates":[[[10.71095,46.82717],[10.68971,46.83019],[10.64495,46.84475],[10.60662,46.82815],[10.5608,46.82087],[10.53907,46.8135],[10.52971,46.7685],[10.53004,46.71223],[10.53655,46.70332],[10.57838,46.66726],[10.61524,46.65095],[10.68092,46.63544],[10.71363,46.63251],[10.77833,46.6339],[10.84522,46.62824],[10.90943,46.63141],[10.93116,46.63556],[10.97845,46.65656],[11.00017,46.65021],[11.08416,46.68513],[11.10467,46.69013],[11.11842,46.6872],[11.16383,46.64667],[11.17644,46.62918],[11.19134,46.58792],[11.20314,46.56847],[11.22145,46.56025],[11.27263,46.50629],[11.30022,46.49124],[11.3069,46.48457],[11.30372,46.45563],[11.31056,46.45099],[11.31178,46.4394],[11.25831,46.30984],[11.24,46.28014],[11.21803,46.25922],[11.16285,46.23224],[11.14601,46.22077],[11.10133,46.16987],[11.0818,46.15668],[11.08245,46.13886],[11.08668,46.12507],[11.09221,46.11298],[11.10792,46.09996],[11.11516,46.08185],[11.12184,46.04633],[11.11858,46.00495],[11.1128,45.98603],[11.10475,45.97805],[11.09449,45.94733],[11.08929,45.9405],[11.05348,45.92963],[11.03834,45.91828],[11.00213,45.87844],[10.99488,45.85895],[11.01384,45.81232],[11.01881,45.79243],[11.00921,45.77306],[10.99,45.75825],[10.95045,45.73717],[10.91692,45.70828],[10.88844,45.67638],[10.89593,45.66897],[10.84059,45.59573],[10.8357,45.58967],[10.82146,45.58434],[10.82081,45.55911],[10.80274,45.52985],[10.80242,45.51533],[10.81341,45.49824],[10.82691,45.49108],[10.86329,45.48383],[10.8755,45.47712],[10.94361,45.48058],[10.95159,45.47073],[10.96974,45.45905],[11.00579,45.44298],[10.9983,45.43],[11.01637,45.43012],[11.03248,45.43623],[11.02833,45.41653],[11.03956,45.40123],[11.07399,45.38154],[11.07399,45.39521],[11.19435,45.37047],[11.25172,45.34752],[11.25904,45.31269],[11.27263,45.31269],[11.27263,45.30646],[11.25904,45.29963],[11.26238,45.29145],[11.25221,45.27912],[11.28004,45.26492],[11.27654,45.24807],[11.29249,45.22492],[11.33107,45.18606],[11.34173,45.17809],[11.3825,45.16181],[11.4179,45.1319],[11.44573,45.12653],[11.48829,45.11127],[11.49659,45.11136],[11.53956,45.12836],[11.56682,45.12922],[11.63762,45.1186],[11.6631,45.10786],[11.71868,45.1103],[11.75384,45.0987],[11.77394,45.10737],[11.80096,45.12836],[11.84002,45.13886],[12.08107,45.14741],[12.115,45.14203],[12.18914,45.11433],[12.22845,45.10883],[12.28093,45.12824],[12.28533,45.13386],[12.28688,45.14537],[12.32146,45.1649]]]},"properties":{"name":"Adige","class":"river","kind":"river","source":"ne-rivers"}},{"type":"Feature","geometry":{"type":"MultiLineString","coordinates":[[[8.62054,45.72639],[8.64251,45.7215],[8.64967,45.71349],[8.64845,45.68517],[8.65309,45.67776],[8.67254,45.67068],[8.67994,45.6623],[8.68255,45.64802],[8.67425,45.63239],[8.67408,45.62031],[8.69752,45.5998],[8.69825,45.581],[8.70818,45.56244],[8.72022,45.51911],[8.72731,45.50983],[8.75807,45.49763],[8.77858,45.48107],[8.81593,45.4219],[8.86476,45.35932],[8.9406,45.30423],[8.99024,45.25776],[9.02784,45.23224],[9.06739,45.21162],[9.17237,45.178],[9.20582,45.16218],[9.22413,45.14057]]]},"properties":{"name":"Ticino","class":"river","kind":"river","source":"ne-rivers"}},{"type":"Feature","geometry":{"type":"MultiLineString","coordinates":[[[7.64746,44.83906],[7.61408,44.82352],[7.56401,44.81196],[7.55354,44.79626],[7.52326,44.78386],[7.47901,44.75162],[7.45107,44.73922],[7.44874,44.72102],[7.45456,44.70778],[7.44408,44.6581],[7.42545,44.63822],[7.40682,44.63242],[7.3812,44.63325],[7.35326,44.63905],[7.27408,44.68212],[7.24846,44.68626],[7.21702,44.68377],[7.19257,44.68709],[7.14133,44.70116],[7.10407,44.70116]],[[7.64747,44.83906],[7.65113,44.86078],[7.6692,44.88276],[7.68312,44.91433],[7.68312,44.92117],[7.67156,44.92853],[7.67237,44.93859],[7.68922,44.9621],[7.69402,44.95958],[7.69719,44.96174],[7.69728,44.96955],[7.67058,45.00739],[7.667,45.03136],[7.66871,45.07343],[7.68385,45.09858],[7.75139,45.1295],[7.76165,45.15876],[7.76881,45.16303],[7.79029,45.16686],[7.80511,45.17597],[7.82708,45.19782],[7.8711,45.22028],[7.90626,45.21979],[7.93938,45.20999],[7.97722,45.20405],[8.06389,45.21829],[8.14178,45.2108],[8.20623,45.22175],[8.2151,45.21516],[8.27174,45.22102],[8.29021,45.21829],[8.31682,45.19477],[8.34197,45.18915],[8.36476,45.17609],[8.37501,45.17426],[8.3921,45.16311],[8.45452,45.15058],[8.48968,45.14846],[8.51124,45.15563],[8.52125,45.15095],[8.56959,45.14203],[8.60735,45.10786],[8.64544,45.04108],[8.66887,45.02468],[8.68214,45.03119],[8.7129,45.02468],[8.77385,45.02745],[8.83343,45.05325],[8.85743,45.06041],[8.92888,45.07306],[8.96656,45.07587],[8.97779,45.08845],[8.99269,45.08771],[9.01832,45.0799],[9.02508,45.08637],[9.05299,45.08735],[9.06959,45.10541],[9.11842,45.11485],[9.16692,45.1352],[9.18556,45.13923],[9.22454,45.14049],[9.30568,45.12836],[9.36451,45.10456],[9.38453,45.10102],[9.5005,45.10297],[9.51189,45.10102],[9.53191,45.08808],[9.54168,45.08588],[9.54591,45.09728],[9.53883,45.12405],[9.54249,45.13141],[9.5525,45.13471],[9.57325,45.11469],[9.5901,45.11241],[9.61427,45.12535],[9.62843,45.12836],[9.64031,45.12592],[9.64129,45.12193],[9.6347,45.11127],[9.63665,45.09382],[9.68133,45.07522],[9.72218,45.07213],[9.75237,45.0819],[9.75196,45.10786],[9.75774,45.10993],[9.75823,45.11469],[9.76441,45.11469],[9.77491,45.10139],[9.8117,45.08454],[9.82423,45.06855],[9.83351,45.06814],[9.8401,45.07368],[9.83009,45.09614],[9.83863,45.09842],[9.88063,45.09142],[9.89568,45.09174],[9.89943,45.09898],[9.88478,45.11774],[9.88274,45.13398],[9.90374,45.13829],[9.92303,45.12991],[9.91578,45.10786],[9.98634,45.12853],[9.99781,45.12458],[10.00213,45.11949],[10.02141,45.10993],[10.04615,45.06562],[10.07171,45.03742],[10.10475,45.0351],[10.14283,45.04316],[10.18336,45.04641],[10.22356,45.03803],[10.32683,44.99116],[10.35027,44.98391],[10.39894,44.99116],[10.41383,44.98469],[10.42994,44.95124],[10.44337,44.93655],[10.47771,44.9232],[10.52117,44.91604],[10.56536,44.91547],[10.60108,44.92231],[10.6325,44.93932],[10.66326,44.96511],[10.68523,44.99352],[10.69044,45.01842],[10.66993,45.03498],[10.66936,45.04641],[10.67425,45.04926],[10.70069,45.05939],[10.78663,45.04641],[10.81756,45.04523],[10.83758,45.05085],[10.85499,45.0631],[10.86492,45.06562],[10.89544,45.05817],[10.90553,45.06253],[10.91595,45.07563],[10.93621,45.0799],[10.97364,45.07278],[10.98463,45.0799],[11.04046,45.0561],[11.06349,45.05325],[11.12867,45.06936],[11.14967,45.05878],[11.27263,45.05939],[11.27247,45.03372],[11.30494,45.0128],[11.38868,44.97346],[11.40569,44.97223],[11.41887,44.96674],[11.42408,44.94648],[11.43165,44.93757],[11.44972,44.93736],[11.48829,44.94339],[11.52467,44.9398],[11.55323,44.92906],[11.60621,44.89863],[11.62208,44.89496],[11.64015,44.89814],[11.67742,44.92231],[11.73561,44.93842],[11.73878,44.94953],[11.74733,44.95661],[11.75628,44.96101],[11.78346,44.96381],[11.79713,44.97748],[11.9026,44.98591],[11.93116,44.97748],[11.96843,44.98294],[12.05218,44.9798],[12.08815,44.99116],[12.08815,44.99799],[12.0722,45.00255],[12.06031,45.01101],[12.06031,45.01842],[12.12574,45.02155],[12.14137,45.03034],[12.15675,45.03144],[12.18434,45.02468],[12.2422,45.00483],[12.2942,44.96381],[12.32496,44.95759],[12.44597,44.95576],[12.53387,44.97004]]]},"properties":{"name":"Po","class":"river","kind":"river","source":"ne-rivers"}},{"type":"Feature","geometry":{"type":"MultiLineString","coordinates":[[[12.29476,46.73269],[12.32897,46.73374],[12.39368,46.74449],[12.44532,46.74855],[12.47758,46.746],[12.64003,46.77926],[12.69187,46.78419],[12.75478,46.81262],[12.77192,46.83814]],[[12.77192,46.83814],[12.83831,46.81598],[12.95696,46.76272],[13.02491,46.74832],[13.13941,46.74401],[13.17384,46.74742],[13.32268,46.7742],[13.34913,46.7886],[13.35637,46.80642],[13.35719,46.82408],[13.36858,46.8345],[13.40113,46.83466],[13.438,46.82604],[13.47877,46.80284],[13.542,46.78038],[13.57415,46.76183],[13.61061,46.74938],[13.63502,46.73815],[13.70704,46.69054],[13.79029,46.65847],[13.8589,46.62478],[13.92498,46.61852],[13.96656,46.60509],[13.99318,46.60257],[14.02605,46.59467],[14.09913,46.55447],[14.13893,46.54474],[14.1718,46.54495],[14.2461,46.55642],[14.35906,46.55716],[14.41839,46.56383],[14.4699,46.57384],[14.49309,46.58287],[14.52003,46.61046],[14.55144,46.62861],[14.59327,46.64545],[14.63014,46.65335],[14.66717,46.64289],[14.78688,46.64448],[14.81105,46.6492],[14.85743,46.67133],[14.88697,46.661],[14.91871,46.65913],[14.93938,46.6518],[14.95851,46.63902],[14.98341,46.6116],[14.99879,46.60143],[15.01881,46.59874],[15.08888,46.61477],[15.1482,46.60578],[15.18548,46.61795],[15.24684,46.60094],[15.37184,46.59622],[15.42189,46.57941],[15.44239,46.58304],[15.45403,46.55577],[15.46575,46.5469],[15.48357,46.54743],[15.53395,46.56501],[15.57008,46.57233],[15.60369,46.57425],[15.67506,46.56277],[15.70021,46.55524],[15.71266,46.53998],[15.72657,46.50764],[15.74342,46.49693],[15.79957,46.47561],[15.851,46.43842],[15.92034,46.39855],[15.94231,46.3826],[15.96721,46.37824],[16.04851,46.39798],[16.07268,46.39741],[16.08587,46.39187],[16.09962,46.39049],[16.1277,46.40318],[16.14446,46.40705],[16.19239,46.39191],[16.25115,46.39049],[16.29811,46.37018],[16.31829,46.36872],[16.34099,46.35191],[16.34685,46.33417],[16.35882,46.32062],[16.4839,46.30179],[16.51612,46.30146],[16.59514,46.31794],[16.72047,46.31139],[16.76637,46.32091],[16.87794,46.31407]]]},"properties":{"name":"Drau","class":"river","kind":"river","source":"ne-rivers"}},{"type":"Feature","geometry":{"type":"LineString","coordinates":[[12.26686,47.1013],[12.25571,47.09976],[12.23992,47.10375],[12.21705,47.11563],[12.19809,47.13272],[12.19166,47.14908],[12.17856,47.21719],[12.18678,47.23591],[12.20786,47.24657],[12.26873,47.25528],[12.3462,47.27513],[12.40105,47.28465],[12.47104,47.29002],[12.67921,47.29255],[12.761,47.29035],[12.85206,47.29316],[12.94044,47.29938],[13.01051,47.31143],[13.07,47.31005],[13.1198,47.31753],[13.16627,47.33246],[13.19402,47.35041],[13.20631,47.37348],[13.21567,47.40078],[13.21656,47.43114],[13.20777,47.46174],[13.17905,47.50845],[13.1692,47.53018],[13.1565,47.5965],[13.14039,47.63296],[13.09799,47.69066],[13.08367,47.71751],[13.07114,47.78425],[13.05714,47.80467],[13.04225,47.8166],[13.01759,47.84984],[12.98601,47.85053],[12.96437,47.87226],[12.93043,47.9252],[12.88551,47.95319],[12.86158,47.96284],[12.85336,47.97077],[12.84498,47.99348],[12.82993,48.01577],[12.75961,48.06513],[12.74147,48.0871],[12.73634,48.10016],[12.73829,48.11371],[12.77369,48.1354],[12.78549,48.13784],[12.80388,48.15445],[12.84409,48.17821],[12.87647,48.20808],[12.89918,48.21601],[12.93116,48.21186]]},"properties":{"name":"Salzach","class":"river","kind":"river","source":"ne-rivers"}},{"type":"Feature","geometry":{"type":"LineString","coordinates":[[17.40561,45.94391],[17.39243,45.92617],[17.3978,45.91356],[17.46388,45.91112],[17.49366,45.90599],[17.5975,45.84935],[17.63022,45.83755],[17.66407,45.84186]]},"properties":{"name":"Drava","class":"river","kind":"river","source":"ne-rivers"}},{"type":"Feature","geometry":{"type":"LineString","coordinates":[[15.8034,47.5301],[15.77719,47.52513],[15.74562,47.5078],[15.71762,47.48408],[15.70045,47.46332],[15.69532,47.44627],[15.69842,47.41576],[15.69337,47.37979],[15.69752,47.357],[15.69361,47.33242],[15.69386,47.30239],[15.70582,47.27627],[15.73113,47.25894],[15.76368,47.25023],[15.80128,47.23501],[15.87794,47.16299],[15.97983,47.09227],[16.00245,47.07978],[16.08912,47.06419],[16.11622,47.04926],[16.17359,47.00654],[16.25603,46.98485],[16.36313,46.97614],[16.41017,46.95991],[16.43946,46.95401],[16.47185,46.95576],[16.56609,47.00007],[16.65675,47.02985],[16.67897,47.05044],[16.69752,47.06151],[16.79509,47.09101],[16.82057,47.10077],[16.8353,47.11131],[16.85035,47.13524],[16.8781,47.16865],[16.90642,47.21719],[16.96095,47.26293],[16.96656,47.27456],[16.96843,47.2989],[16.97739,47.31757],[17.0298,47.378],[17.06495,47.40648],[17.15219,47.444],[17.17408,47.44896],[17.20769,47.44912],[17.299,47.44111],[17.33416,47.44261],[17.35621,47.44855],[17.37078,47.45531],[17.37989,47.47411],[17.39845,47.54532],[17.40724,47.56778],[17.445,47.60273],[17.4756,47.62202],[17.50856,47.63719],[17.58855,47.6625],[17.65382,47.71621],[17.688,47.73111],[17.73536,47.7416],[17.82521,47.75023]]},"properties":{"name":"Rába","class":"river","kind":"river","source":"ne-rivers"}},{"type":"Feature","geometry":{"type":"LineString","coordinates":[[14.28533,37.83503],[14.28419,37.82022],[14.29086,37.80781],[14.33237,37.78657],[14.37778,37.74535],[14.44256,37.72525],[14.51157,37.68822],[14.55299,37.67601],[14.58766,37.6743],[14.63266,37.68626],[14.68019,37.68236],[14.72926,37.67178],[14.81788,37.63801],[14.83562,37.59658],[14.87745,37.53388],[14.8851,37.48965],[14.89381,37.47407],[14.90748,37.46455],[14.94117,37.45401],[15.00994,37.42426],[15.04908,37.41576],[15.09067,37.41389]]},"properties":{"name":"Simeto","class":"river","kind":"river","source":"ne-rivers"}},{"type":"Feature","geometry":{"type":"LineString","coordinates":[[18.5145,43.30199],[18.47877,43.31957],[18.43849,43.33173],[18.41163,43.34488],[18.34547,43.39574],[18.31984,43.42276],[18.30885,43.44082],[18.31178,43.45205],[18.32472,43.47281],[18.32154,43.48314],[18.31202,43.48945],[18.28785,43.48859],[18.24952,43.49527],[18.202,43.49168],[18.15561,43.50609],[18.10646,43.51439],[18.08424,43.52774],[18.06959,43.54556],[18.05323,43.58202],[18.02858,43.61042],[17.99236,43.64004],[17.89487,43.69912],[17.87062,43.70474],[17.84425,43.70576],[17.80551,43.69912],[17.74855,43.70344],[17.73268,43.69896],[17.73292,43.69042],[17.75668,43.67243],[17.7614,43.65864],[17.75457,43.64077],[17.72486,43.60106],[17.71852,43.58291],[17.7225,43.56371],[17.73325,43.54149],[17.7527,43.5207],[17.80795,43.48603],[17.83985,43.45775],[17.85743,43.42621],[17.85353,43.3994],[17.81088,43.36286],[17.82456,43.31997],[17.83082,43.28388],[17.82789,43.25113],[17.81593,43.23192],[17.80112,43.2202],[17.77947,43.18846],[17.73455,43.15176],[17.71632,43.12808],[17.69158,43.10497]]},"properties":{"name":"Neretva","class":"river","kind":"river","source":"ne-rivers"}},{"type":"Feature","geometry":{"type":"LineString","coordinates":[[13.70232,41.80614],[13.69386,41.8194],[13.66147,41.84903],[13.59571,41.90156],[13.54217,41.95059],[13.53956,41.9715],[13.56951,41.96992],[13.61394,41.96141],[13.62965,41.96516],[13.63592,41.97907],[13.63233,42.00068],[13.6211,42.01846],[13.6089,42.02293],[13.5949,42.02216],[13.56414,42.0292],[13.53354,42.01081],[13.45851,42.0043],[13.43344,41.99901],[13.41228,42.0043],[13.38258,42.02717],[13.35816,42.05557],[13.34685,42.08617],[13.33815,42.10033],[13.31666,42.11831],[13.28346,42.14004],[13.21453,42.173],[13.1784,42.21776],[13.15528,42.23501],[13.12973,42.24453],[13.08326,42.25568],[13.01441,42.29702],[12.99008,42.33275],[12.97657,42.34781],[12.96119,42.35773],[12.9319,42.36978],[12.90642,42.39126],[12.88868,42.40135],[12.84742,42.41144],[12.82447,42.43452],[12.79908,42.44986],[12.78272,42.47801],[12.74464,42.51219],[12.72804,42.53547],[12.70395,42.55541],[12.66554,42.56615],[12.62306,42.56883],[12.58961,42.5694],[12.55958,42.56029],[12.44117,42.48363],[12.42482,42.46817],[12.41717,42.44135]]},"properties":{"name":"Salto","class":"river","kind":"river","source":"ne-rivers"}},{"type":"Feature","geometry":{"type":"LineString","coordinates":[[16.28541,45.67235],[16.30738,45.68073],[16.34197,45.67707],[16.37273,45.66348],[16.40984,45.61909],[16.45582,45.59593],[16.46306,45.5812],[16.45753,45.54336],[16.46583,45.52973],[16.48422,45.52367],[16.52475,45.52261],[16.54998,45.50483],[16.65414,45.47386],[16.6819,45.46988],[16.69606,45.44986],[16.74415,45.4147],[16.76661,45.37914],[16.81365,45.35252],[16.83237,45.32412],[16.84278,45.31452],[16.85743,45.31086],[16.89584,45.31297],[16.92286,45.30972],[16.97828,45.2919],[17.02711,45.28083],[17.05641,45.2652],[17.07691,45.24697],[17.08522,45.22313],[17.11378,45.20531],[17.12965,45.18993],[17.14527,45.16234]]},"properties":{"name":"Ljubljanica","class":"river","kind":"river","source":"ne-rivers"}},{"type":"Feature","geometry":{"type":"LineString","coordinates":[[14.49968,45.57632],[14.49488,45.6236],[14.47234,45.659],[14.46925,45.68024],[14.46193,45.70083],[14.44068,45.71678],[14.41619,45.72895],[14.33888,45.7851],[14.32521,45.81257],[14.27328,45.85554],[14.24513,45.86555],[14.22071,45.88007],[14.21652,45.89098]]},"properties":{"name":"Ljubljanica","class":"river","kind":"river","source":"ne-rivers"}},{"type":"Feature","geometry":{"type":"LineString","coordinates":[[14.57154,41.42984],[14.59164,41.44465],[14.61362,41.45185],[14.63836,41.44839],[14.65642,41.43505],[14.66261,41.41865],[14.66293,41.40229],[14.667,41.38898],[14.7282,41.33535],[14.73683,41.31802],[14.74,41.30313],[14.74903,41.2888],[14.76303,41.27998],[14.79469,41.27513],[14.82976,41.25454],[14.84881,41.25861],[14.8672,41.26752],[14.8838,41.27025],[14.89487,41.26154],[14.90016,41.24266],[14.89682,41.22167],[14.85987,41.17349],[14.84498,41.16324],[14.82545,41.15713],[14.78492,41.15253],[14.74708,41.13793],[14.73162,41.13825],[14.72291,41.14932],[14.7212,41.19009],[14.7151,41.20718],[14.6985,41.21784],[14.67221,41.22411],[14.64283,41.22484],[14.53443,41.21357],[14.49936,41.20401],[14.4725,41.1905],[14.45362,41.16543],[14.44068,41.1542],[14.4214,41.1507],[14.37843,41.16401],[14.33155,41.1518],[14.24936,41.14086],[14.23341,41.13516],[14.22755,41.12767],[14.21323,41.11864],[14.17189,41.10643],[14.08644,41.10712],[14.05738,41.0996],[14.01222,41.06981],[13.95826,41.05801],[13.94191,41.04922],[13.91798,41.02367]]},"properties":{"name":"Volturno","class":"river","kind":"river","source":"ne-rivers"}},{"type":"Feature","geometry":{"type":"LineString","coordinates":[[12.18035,47.07779],[11.96925,46.99726],[11.93775,46.97675],[11.93214,46.95775],[11.95436,46.92455],[11.9485,46.85712],[11.93824,46.83096],[11.92262,46.80976],[11.90748,46.79759],[11.88836,46.79707],[11.82057,46.81346],[11.7601,46.81932],[11.70558,46.81802],[11.6775,46.81029],[11.67555,46.79759],[11.68434,46.78433],[11.68434,46.76122],[11.66114,46.725],[11.62306,46.68716],[11.54396,46.6306],[11.51189,46.56297],[11.4961,46.541],[11.47527,46.52432],[11.45004,46.51024],[11.41896,46.50259],[11.34978,46.49852],[11.30616,46.47748]]},"properties":{"name":"Adige","class":"river","kind":"river","source":"ne-rivers"}},{"type":"Feature","geometry":{"type":"LineString","coordinates":[[7.68092,44.14521],[7.68832,44.15054],[7.69972,44.1529],[7.73658,44.14936],[7.77914,44.15306],[7.8379,44.13996],[7.86549,44.13727],[7.88689,44.14228],[7.9192,44.16633],[7.96949,44.1822],[7.99147,44.19452],[8.00856,44.21979],[8.03395,44.28657],[8.05006,44.31517],[8.05356,44.33291],[8.04754,44.35782],[8.03077,44.38589],[7.99855,44.40973],[7.91765,44.43708],[7.8982,44.45531],[7.89747,44.47362],[7.90455,44.48656],[7.90797,44.51317],[7.88608,44.61913],[7.88396,44.65355],[7.89161,44.67088],[7.90358,44.68431],[7.92506,44.69237],[7.98552,44.7014],[8.0149,44.71572],[8.02963,44.71719],[8.05502,44.72744],[8.0923,44.75532],[8.12241,44.78583],[8.13087,44.80248],[8.12916,44.81151],[8.13461,44.82372],[8.14772,44.83641],[8.17905,44.85773],[8.19752,44.88377],[8.21518,44.89419],[8.25099,44.89712],[8.3943,44.8815],[8.41928,44.88565],[8.46803,44.90347],[8.49733,44.89765],[8.52394,44.90664],[8.59002,44.92105],[8.63356,44.94131],[8.65447,44.94038],[8.67311,44.94619],[8.69451,44.95864],[8.7256,44.98676],[8.75245,44.99994],[8.77377,45.02749]]},"properties":{"name":"Tanaro","class":"river","kind":"river","source":"ne-rivers"}},{"type":"Feature","geometry":{"type":"MultiLineString","coordinates":[[[18.03964,46.91812],[18.04322,46.91649]],[[16.35141,46.87661],[16.38038,46.85741],[16.46323,46.84174],[16.60922,46.85594],[16.66782,46.86758],[16.73146,46.87523],[16.78663,46.87075],[16.82691,46.86213],[16.8545,46.86009],[16.87257,46.86685],[16.90553,46.88959],[16.91912,46.89134],[16.94215,46.90314],[17.02076,46.97187],[17.04786,46.98363],[17.06227,46.97191],[17.09352,46.88296],[17.10873,46.83124],[17.13543,46.69335],[17.15284,46.65819],[17.17058,46.64956],[17.18458,46.6481],[17.22438,46.6752],[17.25856,46.71796]]]},"properties":{"name":"Zala","class":"river","kind":"river","source":"ne-rivers"}},{"type":"Feature","geometry":{"type":"MultiLineString","coordinates":[[[9.97185,45.6743],[9.92888,45.66543],[9.89226,45.62027],[9.87062,45.60448],[9.8567,45.57974],[9.85987,45.53929],[9.88901,45.46263],[9.89186,45.43643],[9.88551,45.37051],[9.88966,45.35904],[10.00831,45.2954],[10.07748,45.27831],[10.1102,45.25943],[10.18328,45.24462],[10.23463,45.22752],[10.27914,45.20799],[10.32211,45.1833],[10.36061,45.16901],[10.37257,45.15917],[10.39235,45.15184],[10.48024,45.1457],[10.53199,45.12906],[10.56886,45.10798],[10.58351,45.09243],[10.59352,45.06167],[10.60922,45.05004],[10.67416,45.04926]],[[10.44353,46.34227],[10.47316,46.33169],[10.49391,46.31631],[10.50733,46.29678],[10.50611,46.27871],[10.48699,46.26496],[10.38624,46.23843],[10.35963,46.22362],[10.34327,46.2045],[10.33937,46.18716],[10.34262,46.166],[10.32097,46.12572],[10.31902,46.10855],[10.32643,46.09626],[10.33758,46.08682],[10.3462,46.07152],[10.34767,46.0454],[10.34099,46.01667],[10.33009,45.9951],[10.30812,45.97663],[10.2422,45.93447],[10.20948,45.90404],[10.1609,45.88076],[10.13282,45.8631],[10.08904,45.82306]]]},"properties":{"name":"Oglio","class":"river","kind":"river","source":"ne-rivers"}},{"type":"Feature","geometry":{"type":"MultiLineString","coordinates":[[[12.22381,44.58369],[12.28582,44.60269]],[[10.81666,44.01642],[10.83155,44.01537],[10.85581,44.02546],[10.94068,44.08853],[10.96664,44.11343],[10.98325,44.13817],[10.98634,44.16275],[11.00074,44.19164],[11.09213,44.26118],[11.11557,44.28783],[11.12403,44.30297],[11.17872,44.32543],[11.20037,44.34081],[11.21949,44.3723],[11.26401,44.41161],[11.27833,44.4394],[11.28256,44.46699],[11.28248,44.50576],[11.30388,44.54027],[11.31227,44.56184],[11.3156,44.58511],[11.31544,44.60741],[11.30633,44.63101],[11.27182,44.68179],[11.26832,44.70124],[11.28688,44.72305],[11.32399,44.75316],[11.36769,44.77558],[11.40235,44.77863],[11.46843,44.76118],[11.51531,44.7447],[11.5691,44.71996],[11.66798,44.65567],[11.69565,44.64842],[11.79566,44.6398],[11.81617,44.63028],[11.84392,44.61172],[11.89161,44.59105],[11.96046,44.57665],[12.0809,44.55907],[12.12908,44.55923]]]},"properties":{"name":"Reno","class":"river","kind":"river","source":"ne-rivers"}},{"type":"Feature","geometry":{"type":"LineString","coordinates":[[17.82179,43.91787],[17.67172,43.8924],[17.65333,43.89395],[17.63038,43.9051],[17.61158,43.92064],[17.59295,43.94237],[17.54469,43.96638],[17.52345,43.98623],[17.46876,44.04466],[17.4546,44.08902],[17.44549,44.10545],[17.37379,44.16519],[17.33619,44.20352],[17.30714,44.23867],[17.28891,44.26952],[17.25563,44.3017],[17.24773,44.31538],[17.25408,44.32827],[17.2715,44.34292],[17.28549,44.36245],[17.28321,44.38695],[17.26922,44.40961],[17.24415,44.43578],[17.23976,44.44945],[17.23162,44.46125],[17.19109,44.47557],[17.18092,44.48924],[17.17262,44.51162],[17.1399,44.56867],[17.13217,44.59101],[17.13413,44.60684],[17.14772,44.63459],[17.15187,44.67748],[17.17693,44.70808],[17.17189,44.7224],[17.16049,44.73591],[17.15553,44.74738],[17.16375,44.7582],[17.18409,44.77017],[17.20582,44.78848],[17.22779,44.8417],[17.24879,44.8618],[17.3156,44.90668],[17.35231,44.92674],[17.39283,44.97158],[17.42555,45.00145],[17.45753,45.06342],[17.46892,45.09195],[17.4865,45.12108]]},"properties":{"name":"Vrbas","class":"river","kind":"river","source":"ne-rivers"}},{"type":"Feature","geometry":{"type":"LineString","coordinates":[[12.71998,46.60415],[12.71461,46.58666],[12.6963,46.57608],[12.67091,46.57486],[12.64861,46.58027],[12.61248,46.5795],[12.55372,46.5633],[12.49684,46.53779],[12.46559,46.51455],[12.44703,46.49189],[12.37233,46.42284],[12.36069,46.40501],[12.3506,46.37442],[12.32252,46.32388],[12.30649,46.25918],[12.29396,46.22337],[12.29005,46.19326],[12.19703,46.12653],[12.16863,46.11347],[12.10629,46.09471],[12.063,46.07258],[12.0315,46.06395],[12.00213,46.05012],[11.98487,46.02635],[11.97291,46.00214],[11.9393,45.97679],[11.92872,45.96381],[11.92791,45.95116],[11.9441,45.93163],[11.952,45.90355],[11.96217,45.89069],[11.98683,45.87812],[12.02622,45.86416],[12.09522,45.84772],[12.11329,45.84976],[12.13014,45.85668],[12.15504,45.85957],[12.19264,45.85147],[12.23756,45.83246],[12.31756,45.78783],[12.37647,45.76236],[12.41822,45.73135],[12.47999,45.70783],[12.49928,45.69302],[12.52426,45.65811],[12.54615,45.64102],[12.70533,45.56973],[12.74057,45.53994]]},"properties":{"name":"Piave","class":"river","kind":"river","source":"ne-rivers"}},{"type":"Feature","geometry":{"type":"LineString","coordinates":[[12.74822,41.72769],[12.79933,41.7792],[12.8235,41.79393],[12.85043,41.79735],[12.95769,41.77668],[12.99887,41.75568],[13.08725,41.72285],[13.19679,41.66974],[13.24684,41.65005],[13.26596,41.63809],[13.28191,41.62295],[13.30014,41.59756],[13.32325,41.58666],[13.36866,41.54995],[13.39015,41.53848],[13.41041,41.53531],[13.45777,41.53571],[13.5184,41.5266],[13.55958,41.52554],[13.59889,41.49828],[13.66066,41.46186],[13.7033,41.42829],[13.7256,41.42451],[13.80616,41.42349],[13.84897,41.41673],[13.85971,41.41926],[13.87534,41.39362],[13.86948,41.35814],[13.87257,41.33539],[13.86752,41.3216],[13.86549,41.30244],[13.84669,41.28803],[13.83041,41.284],[13.81756,41.2766],[13.813,41.26948],[13.81251,41.26032],[13.80494,41.25373],[13.77076,41.24921],[13.75945,41.22358]]},"properties":{"name":"Sacco","class":"river","kind":"river","source":"ne-rivers"}},{"type":"Feature","geometry":{"type":"LineString","coordinates":[[15.93051,44.51577],[15.9546,44.50015],[15.95973,44.48871],[15.95289,44.47236],[15.93434,44.45161],[15.90162,44.4357],[15.83009,44.42788],[15.82032,44.41608],[15.8226,44.36945],[15.84474,44.31786],[15.84522,44.3037],[15.83522,44.30093],[15.82081,44.30321],[15.80242,44.31244],[15.75611,44.34369],[15.6902,44.37499],[15.66049,44.39541],[15.62037,44.41059],[15.56804,44.46532],[15.54469,44.4772],[15.52296,44.47492],[15.49936,44.46784],[15.47153,44.468],[15.45183,44.47582],[15.44777,44.48705],[15.44801,44.49917],[15.42799,44.51944],[15.41961,44.55272],[15.40366,44.57461],[15.3838,44.59064],[15.36012,44.5987],[15.35271,44.62417],[15.34596,44.63605],[15.3025,44.66673],[15.28142,44.68574],[15.27914,44.7023],[15.28566,44.71528],[15.28549,44.72565],[15.29314,44.73151],[15.36232,44.73778],[15.36476,44.74657],[15.35572,44.77705],[15.35816,44.78921],[15.35597,44.79999],[15.3401,44.81257],[15.26027,44.84976],[15.24252,44.86347],[15.23683,44.87889],[15.24098,44.89525],[15.2361,44.91397],[15.20867,44.935],[15.17205,44.94986],[15.12241,44.95726],[15.0962,44.97211],[15.07716,44.98945],[15.0713,44.99917],[15.1128,44.9986],[15.1443,45.00259],[15.16725,45.01874],[15.18531,45.05418],[15.17701,45.06883],[15.09848,45.14228],[15.05738,45.14619],[15.0359,45.15656],[15.02361,45.17284],[15.02996,45.22818],[15.03736,45.23973],[15.05698,45.24462],[15.1159,45.23534],[15.13185,45.24136],[15.14112,45.2495],[15.16969,45.25092],[15.20314,45.26756],[15.22145,45.27265],[15.23569,45.27119],[15.26433,45.24136],[15.28297,45.23184],[15.30201,45.22752],[15.31886,45.23045],[15.34547,45.2425],[15.37582,45.23005],[15.39308,45.23021],[15.4061,45.23835],[15.41212,45.25039],[15.41033,45.2624],[15.39723,45.28124],[15.39308,45.29971],[15.39503,45.32518],[15.4026,45.35318],[15.41391,45.37792],[15.42498,45.39566],[15.43775,45.40542],[15.47039,45.41625],[15.48536,45.42528],[15.49448,45.43838],[15.49708,45.45336],[15.50636,45.46572],[15.60629,45.48713],[15.67189,45.49144],[15.68247,45.50316],[15.68572,45.51455],[15.69793,45.517],[15.71363,45.51626],[15.73878,45.52216],[15.75831,45.51911],[15.78354,45.52074],[15.79135,45.52456],[15.81284,45.52342],[15.83969,45.54605],[15.85426,45.54987],[15.86744,45.54487],[15.86834,45.53482],[15.87184,45.53242],[15.90219,45.52774],[15.92286,45.5113],[15.92848,45.50312],[15.92774,45.4842],[15.93588,45.4748],[15.97779,45.47272],[15.99203,45.47529],[16.0075,45.48526],[16.02524,45.48566],[16.06031,45.46996],[16.07634,45.4558],[16.08579,45.45922],[16.09303,45.47175],[16.10385,45.48094],[16.17823,45.49364],[16.2046,45.5126],[16.21892,45.51435],[16.23064,45.50898],[16.23487,45.50056],[16.22975,45.49087],[16.21339,45.47386],[16.22104,45.46345],[16.23845,45.45799],[16.30006,45.47671],[16.32252,45.47647],[16.35963,45.45987],[16.40577,45.47089]]},"properties":{"name":"Kupa","class":"river","kind":"river","source":"ne-rivers"}},{"type":"Feature","geometry":{"type":"LineString","coordinates":[[17.01612,44.03124],[17.0407,44.00699],[17.06918,43.9702],[17.08668,43.9597],[17.10377,43.95702],[17.11573,43.96019],[17.1198,43.96865],[17.11801,43.9912],[17.13819,44.02505],[17.12371,44.05418],[17.12631,44.06363],[17.14088,44.06224],[17.1609,44.0493],[17.17709,44.02656],[17.1867,43.97773],[17.20948,43.93618],[17.20639,43.90933],[17.19467,43.88573],[17.17742,43.86359],[17.17726,43.85155],[17.20639,43.80288],[17.25782,43.74673],[17.26832,43.69562],[17.28159,43.67349],[17.29217,43.64354],[17.29127,43.59764],[17.27947,43.55077],[17.26368,43.5187],[17.2444,43.50861],[17.19654,43.52603],[17.16033,43.52725],[17.13502,43.51968],[17.1338,43.50971],[17.14625,43.49404],[17.15398,43.4726],[17.16863,43.4523],[17.19801,43.43919],[17.22625,43.43098],[17.23829,43.42227],[17.24903,43.40697],[17.27426,43.383],[17.32838,43.3417],[17.40935,43.30463],[17.43434,43.28872],[17.44801,43.26919],[17.45021,43.24681],[17.46518,43.22134],[17.50953,43.19432],[17.56528,43.17422],[17.6399,43.15526],[17.67123,43.1328],[17.69158,43.10497],[17.69679,43.08194],[17.68312,43.06729],[17.62599,43.05337],[17.57602,43.03376],[17.5267,43.03913],[17.50196,43.03099]]},"properties":{"name":"Neretva","class":"river","kind":"river","source":"ne-rivers"}},{"type":"Feature","geometry":{"type":"MultiLineString","coordinates":[[[7.89405,46.70629],[7.85808,46.69587],[7.81967,46.67959]],[[8.31959,46.63247],[8.30405,46.66519],[8.22055,46.73363],[8.13697,46.75947],[8.09116,46.76317],[8.04835,46.75552]],[[7.64194,46.74994],[7.57683,46.81151],[7.56739,46.84414],[7.54957,46.87128],[7.52223,46.89964],[7.4922,46.92325],[7.44451,46.94986],[7.43653,46.96353],[7.41912,46.97525],[7.34506,46.9748],[7.29762,46.97826],[7.26108,46.98652],[7.24415,46.9958],[7.24635,47.00918],[7.25636,47.02709],[7.2562,47.04336],[7.23414,47.05248],[7.20086,47.06078],[7.17897,47.07209]],[[7.23316,47.13882],[7.32879,47.1472],[7.38014,47.15717],[7.46998,47.20571],[7.48927,47.21027],[7.53028,47.21231],[7.59409,47.23627],[7.62477,47.24388],[7.72853,47.24339],[7.83302,47.28376],[7.86118,47.30947],[7.8895,47.32738],[7.92319,47.36441],[7.97145,47.37295],[8.0687,47.41234],[8.1482,47.4326],[8.17303,47.46817],[8.22413,47.50772],[8.2317,47.53384],[8.23219,47.55744],[8.24545,47.58438],[8.23959,47.60008],[8.22584,47.61864]]]},"properties":{"name":"Aare","class":"river","kind":"river","source":"ne-rivers"}},{"type":"Feature","geometry":{"type":"LineString","coordinates":[[18.55991,43.68724],[18.52931,43.69473],[18.47153,43.69575],[18.45314,43.69896],[18.4319,43.72451],[18.40642,43.74348],[18.39234,43.77635],[18.36622,43.7884],[18.34864,43.80549],[18.30836,43.83031],[18.29347,43.84414],[18.29265,43.86156],[18.3152,43.90721],[18.30787,43.92951],[18.28981,43.94432],[18.26417,43.95287],[18.25424,43.97264],[18.23731,43.98778],[18.21608,43.99901],[18.18287,44.00707],[18.12233,44.05614],[18.11166,44.07152],[18.11215,44.1175],[18.10011,44.13353],[18.06593,44.1402],[18.01254,44.14053],[17.96949,44.14509],[17.95965,44.16226],[17.96022,44.18366],[17.91814,44.21369],[17.90447,44.23481],[17.89698,44.25414],[17.88795,44.26504],[17.88453,44.2766],[17.89015,44.29784],[17.91619,44.34398],[17.93409,44.35594],[17.98072,44.35961],[17.99562,44.36416],[17.99952,44.37328],[17.9922,44.39899],[17.99724,44.4145],[18.0149,44.42788],[18.04225,44.43675],[18.0735,44.43854],[18.11899,44.43134],[18.12713,44.43464],[18.13445,44.444],[18.16472,44.46646],[18.16782,44.47549],[18.167,44.48627],[18.17164,44.50194],[18.16969,44.51537],[18.12843,44.52432],[18.10743,44.53213],[18.09669,44.5454],[18.10109,44.57624],[18.08961,44.60358],[18.10027,44.61896],[18.09034,44.6352],[18.09002,44.64326],[18.06788,44.67032],[18.06446,44.69452],[18.07732,44.71296],[18.08229,44.75609],[18.06056,44.78563],[18.07106,44.83275],[18.07277,44.86563],[18.11215,44.91226],[18.13356,44.92963],[18.19842,44.94579],[18.2444,44.97118],[18.33595,44.9912],[18.3895,45.04027],[18.42498,45.0585],[18.46551,45.07437]]},"properties":{"name":"Bosna","class":"river","kind":"river","source":"ne-rivers"}},{"type":"Feature","geometry":{"type":"LineString","coordinates":[[17.08082,43.91153],[17.05795,43.93285],[17.04575,43.93586],[17.03093,43.93033],[17.01295,43.91836],[16.99106,43.91543],[16.96681,43.93163],[16.92221,43.98835],[16.9087,44.01569],[16.89536,44.06973],[16.88152,44.09325],[16.85475,44.11717],[16.8169,44.14419],[16.73072,44.19644],[16.69972,44.22647],[16.64991,44.22899],[16.62403,44.23969],[16.52955,44.30174],[16.50082,44.32819],[16.41944,44.36518],[16.37159,44.39501],[16.32797,44.41128],[16.29575,44.43041],[16.24806,44.47012],[16.22625,44.48249],[16.18775,44.49291],[16.14674,44.50991],[16.11883,44.53799],[16.09897,44.5703],[16.03924,44.64346],[16.02003,44.66283],[15.97397,44.6896],[15.96127,44.70336],[15.93133,44.74502],[15.93629,44.76801],[15.92164,44.78872],[15.85719,44.83832],[15.85157,44.85074],[15.86915,44.86791],[15.90943,44.89151],[15.96046,44.90965],[16.00424,44.9138],[16.03859,44.90473],[16.06674,44.89102],[16.09352,44.88255],[16.12452,44.88622],[16.14747,44.89981],[16.1548,44.91543],[16.15797,44.93578],[16.17066,44.96101],[16.18702,44.97989],[16.22169,44.98603],[16.24586,44.98334],[16.25294,44.98721],[16.27174,44.98969],[16.27866,44.99506],[16.30584,45.00043],[16.31251,44.99852],[16.33041,45.01496],[16.34083,45.01789],[16.35841,45.02985],[16.36134,45.04072],[16.3812,45.06704],[16.39332,45.09398],[16.41065,45.12197],[16.45729,45.15469],[16.4782,45.19074],[16.4961,45.21117],[16.52418,45.22724],[16.55812,45.23607],[16.58985,45.23623],[16.66359,45.21377],[16.69361,45.20897],[16.73854,45.21068],[16.79933,45.19855],[16.82325,45.19843],[16.83546,45.20498],[16.84693,45.23111],[16.89633,45.26838]]},"properties":{"name":"Una","class":"river","kind":"river","source":"ne-rivers"}},{"type":"Feature","geometry":{"type":"MultiLineString","coordinates":[[[9.41131,45.8194],[9.42856,45.79662],[9.43198,45.77367],[9.44777,45.74994],[9.45582,45.69986],[9.46876,45.68342],[9.48276,45.67178],[9.49643,45.64525],[9.51775,45.62425],[9.52711,45.60444],[9.5324,45.58055],[9.53395,45.55882],[9.53012,45.54165],[9.48162,45.46117],[9.46974,45.44652],[9.46363,45.43207],[9.4629,45.40786],[9.46827,45.37995],[9.47674,45.35692],[9.49879,45.33714],[9.53712,45.31712],[9.57358,45.30524],[9.59116,45.30492],[9.59848,45.30923],[9.61036,45.30809],[9.67661,45.27082],[9.70688,45.26463],[9.77125,45.21621],[9.79298,45.1787],[9.81275,45.16665],[9.8672,45.16035],[9.87631,45.15282],[9.88266,45.13398]],[[10.14674,46.44404],[10.15358,46.43667],[10.17303,46.43765],[10.20973,46.45043],[10.28631,46.4912],[10.31568,46.49388],[10.34327,46.48599],[10.35662,46.46841],[10.35743,46.44823],[10.35271,46.41771],[10.35515,46.36758],[10.35287,46.35126],[10.3436,46.3426],[10.30844,46.32783],[10.28981,46.31582],[10.22804,46.24958],[10.16993,46.22329],[10.11703,46.18871],[10.06544,46.17548],[10.04591,46.17422],[9.96648,46.18159],[9.89959,46.18334],[9.66179,46.17573],[9.5879,46.15103],[9.5525,46.14834],[9.4026,46.16206],[9.37924,46.16063]]]},"properties":{"name":"Adda","class":"river","kind":"river","source":"ne-rivers"}},{"type":"Feature","geometry":{"type":"LineString","coordinates":[[11.66049,43.33902],[11.66391,43.31631],[11.67433,43.29393],[11.6906,43.27342],[11.72836,43.25556],[11.77443,43.21748],[11.81056,43.19798],[11.83676,43.19286],[11.83961,43.20596],[11.8318,43.23827],[11.83513,43.31729],[11.82057,43.39891],[11.81837,43.43773],[11.82252,43.48798],[11.81202,43.50283],[11.79274,43.50943],[11.69239,43.51073],[11.64389,43.51838],[11.60646,43.52928],[11.56739,43.55492],[11.51531,43.59821],[11.47145,43.64842],[11.45265,43.69098],[11.45851,43.74925],[11.45232,43.76846],[11.42726,43.78482],[11.39031,43.79116],[11.35475,43.78636],[11.32106,43.77757],[11.28834,43.77416],[11.25636,43.77831],[11.22381,43.7875],[11.17652,43.79214],[11.10873,43.78535],[11.049,43.77066],[11.02076,43.75617],[11.01149,43.74746],[10.97983,43.74722],[10.94239,43.7368],[10.90113,43.73994],[10.8659,43.73041],[10.80738,43.72435],[10.76043,43.7062],[10.71974,43.69701],[10.67547,43.67723],[10.63152,43.68623],[10.5394,43.69257],[10.50441,43.69945],[10.45362,43.7237],[10.43409,43.71279],[10.40528,43.7202],[10.38787,43.72012],[10.32586,43.69212],[10.30405,43.68838],[10.27906,43.69229]]},"properties":{"name":"Arno","class":"river","kind":"river","source":"ne-rivers"}},{"type":"Feature","geometry":{"type":"MultiLineString","coordinates":[[[9.13136,47.14061],[9.10768,47.14647],[9.07993,47.14672],[9.05006,47.1564],[9.03956,47.1909],[9.02443,47.18814],[9.00807,47.18936],[8.99122,47.20401],[8.98976,47.21434],[8.97364,47.22736],[8.93702,47.22818]],[[8.5503,47.3618],[8.54331,47.37409],[8.51637,47.39354],[8.4568,47.41254],[8.41114,47.41327],[8.39039,47.43374],[8.32081,47.46455],[8.31235,47.47797],[8.292,47.4916],[8.24586,47.50617],[8.22413,47.50772]]]},"properties":{"name":"Limmat","class":"river","kind":"river","source":"ne-rivers"}},{"type":"Feature","geometry":{"type":"LineString","coordinates":[[8.33229,47.04702],[8.30812,47.05158],[8.29493,47.06208],[8.29811,47.07062],[8.35426,47.10904],[8.39332,47.1258],[8.39959,47.13178],[8.40553,47.14228],[8.39291,47.21955],[8.39438,47.22846],[8.40748,47.24555],[8.40284,47.26325],[8.37428,47.31192],[8.35353,47.34081],[8.33497,47.36489],[8.30787,47.38422],[8.28248,47.41181],[8.2527,47.4311],[8.2531,47.44929],[8.2365,47.45966],[8.22918,47.48066],[8.21469,47.4997]]},"properties":{"name":"Reuss","class":"river","kind":"river","source":"ne-rivers"}},{"type":"Feature","geometry":{"type":"LineString","coordinates":[[17.25856,46.71796],[17.28517,46.73835],[17.43165,46.74616],[17.52931,46.77351],[17.67775,46.82681],[17.81446,46.8614],[17.90626,46.89655],[17.96095,46.92585],[18.00978,46.93171],[18.03964,46.91812]]},"properties":{"name":"Zala","class":"lake centerline","kind":"river","source":"ne-rivers"}},{"type":"Feature","geometry":{"type":"LineString","coordinates":[[12.12908,44.55923],[12.17774,44.56419],[12.20533,44.57347],[12.22381,44.58369]]},"properties":{"name":"Reno","class":"lake centerline","kind":"river","source":"ne-rivers"}},{"type":"Feature","geometry":{"type":"LineString","coordinates":[[10.08904,45.82306],[10.06235,45.78413],[10.06251,45.76606],[10.07252,45.71589],[10.06397,45.69668],[10.03614,45.68464],[9.97185,45.6743]]},"properties":{"name":"Oglio","class":"lake centerline","kind":"river","source":"ne-rivers"}},{"type":"Feature","geometry":{"type":"LineString","coordinates":[[9.37924,46.16063],[9.34002,46.15355],[9.30397,46.13296],[9.29509,46.11636],[9.28492,46.06672],[9.27524,46.04755],[9.27198,46.02216],[9.28175,45.98184],[9.30079,45.93561],[9.33204,45.90241],[9.3672,45.88093],[9.40235,45.83601],[9.41131,45.8194]]},"properties":{"name":"Adda","class":"lake centerline","kind":"river","source":"ne-rivers"}},{"type":"Feature","geometry":{"type":"LineString","coordinates":[[14.63629,46.07738],[14.66847,46.09203],[14.69109,46.09626],[14.72902,46.09642],[14.75758,46.10326],[14.78688,46.10383],[14.82928,46.07616],[14.85402,46.07933],[14.88217,46.09081],[14.93832,46.10391],[14.99008,46.12596],[15.01515,46.13239],[15.06715,46.13345],[15.09742,46.12637],[15.13233,46.11221],[15.16521,46.093],[15.2295,46.04584]]},"properties":{"name":"Sava","class":"river","kind":"river","source":"ne-rivers"}},{"type":"Feature","geometry":{"type":"LineString","coordinates":[[14.63516,46.07726],[14.62088,46.0776],[14.59995,46.08453],[14.54999,46.08321],[14.52382,46.08783],[14.51525,46.10498],[14.49336,46.11587],[14.46481,46.1162],[14.44674,46.12016],[14.41295,46.13961],[14.41438,46.1551],[14.42675,46.15906],[14.42532,46.16664],[14.4101,46.17883],[14.40439,46.19728],[14.38821,46.21308],[14.36252,46.22625],[14.34967,46.24106],[14.30875,46.26409],[14.26688,46.27692],[14.25974,46.2927],[14.24832,46.30717],[14.17029,46.33477],[14.11776,46.39093],[14.12442,46.40176],[14.12402,46.41182]]},"properties":{"name":"Sava","class":"river","kind":"river","source":"ne-rivers"}},{"type":"Feature","geometry":{"type":"LineString","coordinates":[[14.12402,46.41182],[13.96645,46.45997],[13.91006,46.46947],[13.88437,46.47783],[13.85439,46.4775],[13.82347,46.4875],[13.74067,46.49274]]},"properties":{"name":"Sava","class":"river","kind":"river","source":"ne-rivers"}},{"type":"Feature","geometry":{"type":"LineString","coordinates":[[14.21652,45.89098],[14.21095,45.90546],[14.23072,45.93675],[14.26791,45.96174],[14.30006,45.97183],[14.37379,45.97761],[14.41871,45.98827],[14.46339,46.00511],[14.4944,46.02489],[14.50636,46.04279],[14.50994,46.05533],[14.52068,46.0624],[14.59702,46.05866],[14.63629,46.07738]]},"properties":{"name":"Ljubljanica","class":"river","kind":"river","source":"ne-rivers"}}]}