{"type":"FeatureCollection","features":[{"type":"Feature","geometry":{"type":"MultiPolygon","coordinates":[[[[15.60707,38.24952],[15.61867,38.27441],[15.63467,38.26758],[15.60707,38.24952]]],[[[15.73048,39.97675],[15.7516,40.00495],[15.79786,40.02094],[15.97181,40.02387],[16.10633,40.03901],[16.22767,40.07899],[16.48341,40.20026],[16.53834,40.21448],[16.61097,40.21784],[16.67982,40.20411],[16.7036,40.18399],[16.66963,40.13721],[16.52998,39.85967],[16.52188,39.74756],[16.59775,39.63892],[16.82432,39.57832],[16.99922,39.48159],[17.11455,39.38061],[17.12295,39.13657],[17.17461,38.9981],[17.09853,38.91934],[16.95146,38.93979],[16.75547,38.8897],[16.6167,38.80015],[16.55898,38.7148],[16.57422,38.49356],[16.5456,38.40908],[16.28242,38.24956],[16.14414,38.08638],[16.10977,38.01865],[16.05684,37.94185],[15.72451,37.93911],[15.6458,38.03423],[15.64307,38.17539],[15.7002,38.2623],[15.82236,38.30298],[15.90479,38.4835],[15.87891,38.61392],[15.92695,38.67173],[15.97236,38.7126],[16.06553,38.73643],[16.19678,38.75923],[16.20996,38.94111],[16.10742,39.02383],[16.07148,39.13945],[16.02363,39.35361],[15.8544,39.62651],[15.76367,39.87007],[15.72348,39.93817],[15.73048,39.97675]]]]},"properties":{"name":"Calabria","class":"range/mtn","kind":"range","source":"ne-regions"}},{"type":"Feature","geometry":{"type":"Polygon","coordinates":[[[21.08973,44.80817],[21.00904,44.77485],[20.92054,44.75507],[20.82496,44.74525],[20.75611,44.74628],[20.59046,44.7826],[20.50514,44.78706],[20.32972,44.77717],[20.2472,44.78791],[20.1006,44.86097],[19.9579,44.91181],[19.7046,44.95856],[19.60536,44.98823],[19.04212,45.24183],[18.86183,45.34681],[18.70997,45.46992],[18.54298,45.71143],[18.29798,46.25983],[18.11561,46.49177],[18.01149,46.58063],[17.97682,46.62934],[17.95582,46.69697],[17.9496,46.75544],[17.95106,46.88782],[17.95912,46.94575],[18.02601,47.08509],[18.14796,47.21113],[18.29664,47.31501],[18.74232,47.52192],[18.88331,47.59779],[19.02113,47.68226],[19.2295,47.82758],[19.31141,47.87507],[19.39869,47.90931],[19.49867,47.92866],[20.0027,47.95496],[20.141,47.97852],[20.41419,48.04395],[21.0243,48.15388],[21.25087,48.232],[21.45729,48.35145],[21.78102,48.63666],[21.96559,48.70832],[22.27772,48.71039],[22.66944,48.63306],[23.00843,48.49567],[23.25111,48.32459],[23.3545,48.14631],[23.3589,47.99128],[23.31275,47.8675],[23.18507,47.76777],[22.63746,47.57313],[22.35462,47.40607],[22.12953,47.20539],[21.99574,46.99262],[21.75221,46.39973],[21.63514,46.04438],[21.58546,45.71058],[21.59315,45.47565],[21.58985,45.35517],[21.57032,45.24445],[21.52796,45.16266],[21.46315,45.10041],[21.30616,45.00391],[21.26454,44.97211],[21.16127,44.85877],[21.08973,44.80817]]]},"properties":{"name":"Great Hungarian Plain","class":"plain","kind":"range","source":"ne-regions"}},{"type":"Feature","geometry":{"type":"Polygon","coordinates":[[[9.51979,44.34186],[9.52711,44.26801],[9.52235,44.25581],[9.51564,44.24384],[9.46668,44.23165],[9.28936,44.31924],[9.23282,44.32151],[9.18446,44.34418],[8.93037,44.40776],[8.76582,44.42231],[8.69119,44.39574],[8.62074,44.38581],[8.46571,44.2876],[8.41393,44.23468],[8.29238,44.13652],[8.16013,43.99997],[8.11598,43.96235],[7.96504,43.86585],[7.7333,43.80259],[7.49316,43.76714],[7.40156,43.73904],[7.23841,43.72364],[7.10109,43.66602],[6.96461,43.5467],[6.85994,43.43623],[6.7166,43.37358],[6.6874,43.33457],[6.65723,43.26167],[6.57022,43.19907],[6.49404,43.16929],[6.30537,43.13872],[6.1465,43.08307],[6.12049,43.08167],[5.98707,43.18189],[5.9922,43.43751],[6.0492,43.54517],[6.13771,43.61262],[6.35218,43.70832],[6.77113,43.93537],[7.26161,44.11457],[8.15772,44.5218],[8.31983,44.57697],[8.48524,44.62244],[8.65297,44.65845],[8.82203,44.68507],[8.98243,44.69141],[9.10597,44.66364],[9.2201,44.60468],[9.40785,44.47614],[9.47169,44.41443],[9.51979,44.34186]]]},"properties":{"name":"French Riviera","class":"coast","kind":"range","source":"ne-regions"}},{"type":"Feature","geometry":{"type":"MultiPolygon","coordinates":[[[[16.56422,45.16395],[17.14369,45.04865],[19.50758,44.76319],[19.69508,44.71686],[20.06105,44.60041],[20.55409,44.48041],[20.71229,44.42145],[20.78236,44.383],[20.8401,44.33887],[20.99061,44.17219],[21.16359,44.04621],[21.27223,43.94532],[21.37672,43.81129],[21.46827,43.66608],[21.5381,43.53144],[21.58924,43.40137],[21.6305,43.24537],[21.64381,43.08765],[21.61109,42.95258],[21.55384,42.87848],[21.47242,42.80555],[21.22328,42.61628],[21.17359,42.59058],[21.12782,42.58436],[21.04664,42.61896],[20.891,42.73426],[20.79957,42.76838],[20.65553,42.76728],[20.53968,42.72492],[19.98609,42.32178],[19.87965,42.22382],[19.81166,42.1709],[19.65589,42.07099],[19.6056,42.003],[19.5973,41.95923],[19.61647,41.85419],[19.60133,41.82471],[19.55301,41.80291],[19.46826,41.85615],[19.34238,41.86909],[19.18643,41.94863],[19.12227,42.0605],[19.03285,42.1346],[18.99562,42.23127],[18.85402,42.32465],[18.62964,42.41667],[18.6459,42.44273],[18.5916,42.44419],[18.5771,42.43822],[18.55592,42.44691],[18.24989,42.6048],[17.98009,42.72161],[17.82383,42.79741],[17.79328,42.8025],[17.68092,42.85114],[17.58481,42.89896],[17.72363,42.85068],[17.66758,42.89712],[17.5373,42.96226],[17.32988,43.11489],[17.12939,43.21113],[16.90312,43.39243],[16.60029,43.46406],[16.39394,43.54336],[16.26894,43.53125],[16.13105,43.5063],[16.07551,43.50579],[16.0254,43.52387],[15.94562,43.5866],[15.94912,43.60698],[15.9415,43.65664],[15.82061,43.73594],[15.67522,43.80235],[15.46839,43.9911],[15.41005,44.05152],[15.37806,44.11414],[15.36769,44.18677],[15.37246,44.28879],[15.471,44.27197],[15.36593,44.33591],[15.36048,44.37519],[15.30043,44.43623],[15.11549,44.52497],[15.01551,44.59357],[14.91993,44.68568],[14.89398,44.72042],[14.88525,44.81826],[14.90654,44.97139],[14.85459,45.08101],[14.63203,45.2229],[14.55049,45.29771],[14.38613,45.34214],[14.35876,45.34052],[14.32887,45.35077],[14.2798,45.35334],[14.17897,45.34638],[14.12989,45.34949],[14.08583,45.36231],[13.95716,45.43171],[13.85402,45.51044],[13.78785,45.59687],[13.77355,45.62116],[13.7833,45.62725],[13.75392,45.65449],[13.66725,45.78284],[13.59571,45.99415],[13.71937,46.14533],[13.9391,46.22004],[14.15565,46.20197],[14.98866,45.9126],[15.20411,45.82185],[15.98707,45.40089],[16.56422,45.16395]]],[[[16.77391,43.35889],[16.83438,43.35083],[16.89131,43.31465],[16.87785,43.30194],[16.77391,43.35889]]],[[[14.77589,45.00056],[14.77094,45.02595],[14.81025,44.97705],[14.77886,44.97159],[14.77589,45.00056]]]]},"properties":{"name":"Dinaric Alps","class":"range/mtn","kind":"range","source":"ne-regions"}},{"type":"Feature","geometry":{"type":"MultiPolygon","coordinates":[[[[14.7569,44.83822],[14.76377,44.82139],[14.79859,44.78925],[14.85664,44.71484],[14.7625,44.75464],[14.67822,44.76987],[14.66035,44.7998],[14.69053,44.84815],[14.75114,44.84498],[14.7569,44.83822]]],[[[15.09596,44.53504],[15.63514,44.38886],[15.89674,44.33454],[16.03712,44.28614],[16.18287,44.21863],[16.64161,43.93354],[16.89808,43.73676],[17.47731,43.19685],[17.64894,43.01423],[17.74183,42.88044],[17.77565,42.80543],[17.58496,42.83716],[17.2582,42.96846],[17.04541,43.01489],[17.12646,43.02559],[17.21982,43.02588],[17.72363,42.85068],[17.66758,42.89712],[17.5373,42.96226],[17.32988,43.11489],[17.12939,43.21113],[16.90312,43.39243],[16.60029,43.46406],[16.39394,43.54336],[16.26894,43.53125],[16.13105,43.5063],[16.046,43.50552],[15.98555,43.51978],[15.94258,43.56894],[15.94912,43.60698],[15.9415,43.65664],[15.82061,43.73594],[15.65566,43.81128],[15.49941,43.90879],[15.18584,44.17212],[15.12295,44.25679],[15.18467,44.2729],[15.23135,44.27144],[15.28428,44.28882],[15.36973,44.28926],[15.471,44.27197],[15.38135,44.32827],[15.26982,44.3835],[15.00911,44.58181],[15.09596,44.53504]]],[[[17.60781,42.76904],[17.74424,42.70034],[17.34414,42.79038],[17.43193,42.80039],[17.60781,42.76904]]],[[[16.85068,42.89551],[16.73887,42.91274],[16.69639,42.93369],[16.66631,42.95991],[16.65068,42.99658],[16.83555,42.96865],[16.97109,42.98149],[17.09365,42.96435],[17.16982,42.93262],[17.18828,42.91704],[17.08936,42.91489],[16.97754,42.92778],[16.85068,42.89551]]],[[[16.65596,43.21377],[16.69727,43.17495],[17.06113,43.1439],[17.19404,43.12578],[17.12412,43.11543],[16.6792,43.12315],[16.5498,43.1439],[16.40586,43.19736],[16.37646,43.21377],[16.52139,43.22925],[16.65596,43.21377]]],[[[16.60156,43.38188],[16.83438,43.35083],[16.89131,43.31465],[16.87363,43.29795],[16.78525,43.27065],[16.62744,43.26807],[16.49033,43.28618],[16.42315,43.31724],[16.42813,43.34341],[16.44893,43.38706],[16.60156,43.38188]]],[[[15.20166,43.89775],[15.14981,43.91182],[15.13584,43.90727],[14.89131,44.12554],[14.86504,44.16797],[14.95254,44.11719],[15.18877,43.92236],[15.20303,43.90772],[15.20166,43.89775]]],[[[15.12187,44.09331],[15.07461,44.13784],[15.06582,44.15767],[15.23105,44.06231],[15.24668,44.02705],[15.12187,44.09331]]],[[[15.37422,43.91479],[15.30859,43.96079],[15.27002,44.01074],[15.37139,43.97383],[15.43721,43.89951],[15.37422,43.91479]]],[[[14.80381,44.64868],[14.85537,44.61826],[14.89805,44.61084],[15.00644,44.53423],[15.11299,44.43574],[15.23994,44.35019],[15.21357,44.34756],[15.18848,44.33574],[15.1626,44.30918],[15.09795,44.35815],[15.03857,44.39302],[14.99609,44.43433],[14.91279,44.48584],[14.88467,44.54473],[14.76045,44.66475],[14.74189,44.69736],[14.80381,44.64868]]]]},"properties":{"name":"Dalmatia","class":"coast","kind":"range","source":"ne-regions"}},{"type":"Feature","geometry":{"type":"Polygon","coordinates":[[[20.74589,49.9397],[20.98902,49.93738],[21.69642,49.98786],[22.17518,49.94098],[22.57313,49.83686],[22.95814,49.67866],[23.68934,49.2873],[24.4336,48.80677],[24.818,48.59748],[25.22706,48.47394],[25.39125,48.43769],[25.54078,48.38489],[25.83644,48.25031],[26.03395,48.14124],[26.21058,48.00788],[26.37269,47.85145],[26.52723,47.67328],[26.72926,47.40241],[26.90895,47.10963],[27.05494,46.80067],[27.15589,46.48121],[27.20204,46.10334],[27.15333,45.74555],[26.99122,45.43983],[26.69679,45.2179],[26.36329,45.10316],[26.00904,45.04365],[25.6482,45.02509],[25.04811,45.02637],[23.87721,44.86292],[23.66554,44.82129],[23.08998,44.65034],[22.72987,44.60352],[22.36866,44.61652],[22.00428,44.69056],[21.72377,44.84632],[21.60365,45.08137],[21.57923,45.37604],[21.58546,45.71058],[21.63514,46.04438],[21.75221,46.39973],[21.99574,46.99262],[22.12953,47.20539],[22.35462,47.40607],[22.63746,47.57313],[23.18507,47.76777],[23.31275,47.8675],[23.3589,47.99128],[23.3545,48.14631],[23.25111,48.32459],[23.00843,48.49567],[22.66944,48.63306],[22.27772,48.71039],[21.96559,48.70832],[21.78102,48.63666],[21.45729,48.35145],[21.25087,48.232],[21.0243,48.15388],[20.78785,48.10401],[20.55226,48.0694],[20.09083,47.96888],[19.8545,47.94733],[19.6371,47.9997],[19.3921,48.15107],[19.27418,48.21284],[19.12562,48.25458],[18.60096,48.32691],[18.3495,48.39228],[18.11219,48.5138],[17.72975,48.76484],[17.55348,48.93323],[17.48341,49.12055],[17.594,49.5456],[17.86793,49.79041],[18.27662,49.92457],[18.7909,50.01789],[19.3097,50.06721],[19.76832,50.0467],[20.61122,49.94098],[20.74589,49.9397]]]},"properties":{"name":"Carpathian Mountains","class":"range/mtn","kind":"range","source":"ne-regions"}},{"type":"Feature","geometry":{"type":"Polygon","coordinates":[[[16.03492,39.91144],[15.98439,39.90052],[15.93885,39.90711],[15.8982,39.92304],[15.73915,40.01703],[15.53224,40.18555],[15.40419,40.26862],[15.36695,40.30384],[15.04359,40.68775],[14.86439,40.86713],[14.66212,41.01166],[14.44825,41.11542],[14.19081,41.21674],[13.93104,41.29816],[13.5149,41.39118],[13.31275,41.49451],[13.11061,41.64747],[12.9159,41.8451],[12.83558,41.95356],[12.76869,42.07215],[12.66322,42.32227],[12.62233,42.46003],[12.5569,42.74427],[12.50929,42.87727],[12.48793,42.91407],[12.23121,43.21039],[12.11708,43.36017],[12.0558,43.42768],[11.97877,43.4867],[11.41029,43.81818],[11.20216,43.91706],[10.98487,43.98762],[10.38575,44.05976],[9.9922,44.16681],[9.344,44.39832],[9.14332,44.50837],[9.00502,44.65754],[8.94032,44.81269],[8.96034,44.94074],[9.18531,45.06971],[9.50941,45.02009],[12.33375,44.0279],[12.85865,43.75031],[13.23829,43.42432],[13.49647,43.06611],[13.65675,42.69178],[13.83888,42.37177],[14.11146,42.14606],[14.42127,41.98481],[14.7151,41.85834],[15.03749,41.6551],[15.41944,41.33411],[15.78663,40.97095],[16.06446,40.64124],[16.15602,40.50837],[16.18592,40.43806],[16.19715,40.35822],[16.19606,40.27381],[16.18934,40.18928],[16.17164,40.10712],[16.13758,40.02985],[16.07508,39.94117],[16.03492,39.91144]]]},"properties":{"name":"Appennino Ligure","class":"range/mtn","kind":"range","source":"ne-regions"}},{"type":"Feature","geometry":{"type":"Polygon","coordinates":[[[10.44203,36.68574],[10.46852,36.32856],[9.96583,35.87873],[9.93934,35.40247],[9.95252,34.71455],[9.9922,34.15894],[9.59535,34.11927],[9.29103,34.06635],[8.65614,34.13251],[8.16664,34.26478],[7.72999,34.45002],[7.04213,34.84687],[6.52613,34.92621],[5.6399,34.82038],[5.25624,34.79395],[4.68739,34.64844],[3.90687,34.31769],[3.16603,34.10602],[2.75587,33.85468],[2.0547,33.65626],[1.12867,33.14033],[0.40113,32.90217],[-0.39269,32.49207],[-0.90856,32.00257],[-1.71557,31.65864],[-2.25799,31.44697],[-2.93267,31.28821],[-4.03069,31.14271],[-4.61278,30.78553],[-5.16838,30.42829],[-5.40648,30.13727],[-6.46483,29.95209],[-7.23217,29.52875],[-7.62902,29.13184],[-8.50213,28.78791],[-9.2694,28.60273],[-10.06316,28.33814],[-10.53942,28.31165],[-10.98925,28.54975],[-10.89146,28.8187],[-10.67383,28.93921],[-10.48648,29.06494],[-10.27004,29.30374],[-10.18224,29.37],[-9.73247,29.75361],[-9.28264,30.12403],[-8.81963,30.48127],[-8.56829,30.69294],[-8.7932,30.75904],[-9.33556,30.57386],[-9.62664,30.53412],[-9.86473,30.7458],[-9.83242,30.84727],[-9.83335,31.06963],[-9.81343,31.35636],[-9.46789,31.93647],[-9.21654,32.16132],[-8.91222,32.34656],[-8.17138,32.70374],[-7.78777,32.90217],[-7.27184,33.10059],[-7.24535,33.37842],[-7.17919,33.60334],[-7.00725,33.76209],[-6.80883,34.03986],[-6.62359,34.10602],[-6.27965,34.09278],[-6.01506,34.21186],[-5.60497,34.41029],[-5.9489,34.93946],[-5.8695,35.33637],[-5.8822,35.79306],[-5.74795,35.81597],[-5.62285,35.82891],[-5.52227,35.86201],[-5.46919,35.89085],[-5.3933,35.90522],[-5.33765,35.80855],[-5.33765,35.74522],[-5.25269,35.61475],[-5.19016,35.55237],[-5.14196,35.46863],[-5.06253,35.43798],[-4.83721,35.2813],[-4.62832,35.2064],[-4.32998,35.16148],[-3.98242,35.24341],[-3.78799,35.24492],[-3.74408,35.26117],[-3.69994,35.25696],[-3.66325,35.26488],[-3.59063,35.22832],[-3.39473,35.21182],[-3.20601,35.23911],[-3.06309,35.31724],[-3.00395,35.37584],[-2.91475,35.26435],[-2.86953,35.17266],[-2.83994,35.12783],[-2.7314,35.1352],[-2.63682,35.1127],[-2.42373,35.12349],[-2.01777,35.08506],[-1.91328,35.09424],[-1.67363,35.1831],[-1.48374,35.30308],[-1.33584,35.36426],[-1.29976,35.40062],[-1.2658,35.41572],[-1.17089,35.5201],[-1.0877,35.57886],[-0.91748,35.66841],[-0.42612,35.86152],[-0.35078,35.86318],[-0.18916,35.81909],[-0.04824,35.83281],[0.04795,35.90054],[0.15166,36.06314],[0.30699,36.15913],[0.68283,36.31946],[0.79082,36.35654],[0.97168,36.44394],[1.25723,36.51958],[1.97451,36.56758],[2.34287,36.6103],[2.59336,36.60068],[2.74699,36.68455],[3.24003,36.78967],[3.52051,36.79512],[3.779,36.89619],[4.7581,36.89634],[4.86285,36.86665],[5.00553,36.80142],[5.1956,36.67681],[5.29541,36.64824],[5.42461,36.67544],[5.68653,36.78353],[5.9441,36.83124],[5.96574,36.84539],[6.06475,36.86426],[6.24912,36.93833],[6.32783,37.04604],[6.33802,37.04859],[6.56359,37.0144],[6.57588,37.00303],[6.92754,36.91943],[7.14346,36.94336],[7.23848,36.96851],[7.21891,37.03943],[7.2538,37.04291],[7.55064,37.01914],[7.60771,36.99976],[7.7916,36.88027],[7.91045,36.85635],[7.99879,36.87836],[8.02113,36.87092],[8.17492,36.91321],[8.57656,36.93721],[8.82353,36.99761],[8.95879,37.08855],[9.00001,37.09583],[9.67469,37.3075],[9.82745,37.28286],[9.81553,37.25464],[9.78398,37.21143],[9.83027,37.13535],[9.89639,37.18164],[9.8794,37.21284],[9.87559,37.25415],[9.98387,37.25763],[10.08485,37.24134],[10.19209,37.10883],[10.18877,37.03389],[10.33408,36.86538],[10.29326,36.78149],[10.4123,36.73184],[10.41843,36.73528],[10.44203,36.68574]]]},"properties":{"name":"Atlas Mountains","class":"range/mtn","kind":"range","source":"ne-regions"}},{"type":"Feature","geometry":{"type":"MultiPolygon","coordinates":[[[[23.4839,43.88202],[23.59193,43.83881],[23.63527,43.83362],[23.7201,43.84723],[23.74208,43.84418],[23.79921,43.81995],[24.1587,43.7544],[24.35756,43.76142],[24.43043,43.7956],[24.46559,43.8039],[24.49952,43.80097],[24.70497,43.74518],[24.75196,43.7403],[24.96302,43.75104],[25.08094,43.7204],[25.21058,43.71332],[25.25172,43.70612],[25.3589,43.65571],[25.40248,43.6515],[25.48817,43.672],[25.5558,43.67182],[25.61573,43.68915],[25.67079,43.71876],[25.7389,43.7204],[25.78041,43.73347],[25.80568,43.76514],[25.83863,43.78986],[25.86854,43.80231],[25.91578,43.84577],[25.93324,43.87177],[26.0536,43.93574],[26.07875,43.97046],[26.11561,44.00031],[26.15003,44.01392],[26.23072,44.02894],[26.30983,44.05402],[26.61354,44.08631],[26.70814,44.10957],[26.75306,44.10957],[26.78883,44.11738],[26.88343,44.15796],[27.00087,44.16657],[27.02687,44.17841],[27.0995,44.14594],[27.20484,44.13068],[27.22609,44.12214],[27.26576,44.1355],[27.3274,44.18671],[27.34889,44.1966],[27.3899,44.1966],[27.41065,44.20905],[27.4607,44.21485],[27.6399,44.27119],[27.65333,44.27656],[27.69777,44.32758],[27.80604,44.344],[27.83558,44.36176],[27.86927,44.40949],[27.90846,44.42115],[27.9275,44.43427],[27.93873,44.4538],[27.93397,44.48658],[27.89576,44.50355],[27.89845,44.51496],[27.92506,44.5467],[27.91749,44.56714],[27.92347,44.58344],[27.938,44.59449],[27.92628,44.61341],[27.92506,44.63202],[27.93678,44.64655],[27.90748,44.65998],[27.89698,44.68391],[27.86415,44.71869],[27.86305,44.73078],[27.88307,44.75806],[27.87721,44.76655],[27.82875,44.78034],[27.81446,44.81397],[27.85926,44.85627],[27.87867,44.88325],[27.87647,44.90229],[27.88917,44.92737],[27.89405,44.9582],[27.89039,44.98701],[27.87647,45.00599],[27.90712,45.05439],[27.91749,45.08283],[27.95167,45.12952],[27.938,45.16303],[27.94154,45.22547],[28.01796,45.34431],[28.03419,45.4032],[28.0669,45.42377],[28.10646,45.43116],[28.18507,45.41688],[28.20143,45.44428],[28.21229,45.45167],[28.23695,45.4535],[28.26625,45.44196],[28.28565,45.42316],[28.28065,45.4032],[28.31019,45.34931],[28.32948,45.32429],[28.35255,45.31391],[28.40455,45.29658],[28.49354,45.28034],[28.57643,45.24952],[28.70936,45.2284],[28.74671,45.23188],[28.88551,45.18189],[28.96925,45.19782],[29.01075,45.1767],[29.48341,45.17048],[29.53126,45.19098],[29.54872,45.1767],[29.67946,45.15504],[29.66432,45.11811],[29.66088,45.08116],[29.63535,44.97964],[29.60547,44.91548],[29.55752,44.84341],[29.2933,44.79887],[29.1919,44.79407],[29.15602,44.78565],[29.12525,44.77055],[29.04824,44.75757],[29.05761,44.76935],[29.09803,44.77662],[29.12049,44.78779],[29.13856,44.80524],[29.14454,44.82783],[29.12587,44.8537],[29.0962,44.87629],[29.10365,44.8415],[29.08766,44.84388],[29.07472,44.8373],[29.06914,44.87114],[29.04775,44.92568],[29.07237,44.95124],[29.09852,44.95814],[29.11048,44.9712],[29.10157,44.98151],[29.04506,45.00599],[28.97267,45.01215],[28.96009,44.9889],[28.91676,44.9809],[28.86927,44.94452],[28.86341,44.92347],[28.87647,44.90607],[28.86341,44.89271],[28.86634,44.88373],[28.91053,44.85902],[28.92617,44.81001],[28.87707,44.75712],[28.79823,44.72138],[28.787,44.69446],[28.79359,44.68903],[28.80812,44.69752],[28.80409,44.68537],[28.78517,44.68085],[28.78395,44.6504],[28.79237,44.64594],[28.84701,44.65344],[28.84648,44.63687],[28.77406,44.60193],[28.79444,44.63544],[28.76686,44.63495],[28.75355,44.61494],[28.76661,44.61494],[28.76051,44.60493],[28.76417,44.59705],[28.78773,44.58765],[28.74793,44.57892],[28.73243,44.56904],[28.73243,44.55353],[28.74671,44.56714],[28.77406,44.55353],[28.74549,44.48737],[28.75013,44.4679],[28.75831,44.46644],[28.77186,44.48493],[28.77821,44.50855],[28.80812,44.52619],[28.85548,44.56885],[28.88818,44.57476],[28.85176,44.5061],[28.79652,44.46906],[28.70643,44.38221],[28.68413,44.35219],[28.65113,44.34125],[28.63502,44.31757],[28.63075,44.26551],[28.64792,44.23627],[28.65055,44.17412],[28.63063,44.15565],[28.65575,44.05099],[28.65859,43.98384],[28.63285,43.91312],[28.60926,43.87574],[28.58424,43.80207],[28.589,43.79255],[28.57606,43.72877],[28.5733,43.61886],[28.56182,43.50132],[28.46543,43.38931],[28.40761,43.4042],[28.39369,43.41547],[28.36842,43.42292],[28.32154,43.42945],[28.21824,43.40982],[28.15712,43.409],[28.11866,43.39271],[28.09144,43.36518],[28.03516,43.26826],[27.96437,43.21737],[27.90382,43.2035],[27.90382,43.19672],[27.92836,43.18333],[27.90352,43.05661],[27.88331,43.03217],[27.89531,42.97899],[27.8918,42.85409],[27.8838,42.84956],[27.88331,42.83308],[27.89067,42.8137],[27.88887,42.74971],[27.81836,42.71665],[27.73256,42.7157],[27.71888,42.69581],[27.71774,42.67465],[27.69276,42.6525],[27.6465,42.64179],[27.62831,42.63019],[27.63226,42.59885],[27.59482,42.56565],[27.54078,42.56672],[27.51124,42.55427],[27.47999,42.48414],[27.46217,42.49073],[27.45265,42.48127],[27.45314,42.46638],[27.46559,42.45685],[27.46095,42.44477],[27.46559,42.42951],[27.47255,42.46302],[27.50367,42.43854],[27.51405,42.43635],[27.52906,42.44887],[27.63955,42.40098],[27.7082,42.34995],[27.75734,42.28833],[27.75099,42.27827],[27.75575,42.25971],[27.78028,42.24457],[27.77345,42.23713],[27.80958,42.21955],[27.8531,42.17644],[27.84925,42.16822],[27.87056,42.15906],[27.98271,42.04741],[28.01445,41.96904],[27.99665,41.89417],[27.97743,41.88849],[27.96888,41.87494],[27.96595,41.8501],[27.97193,41.82343],[28.02113,41.77161],[28.04005,41.72663],[28.08827,41.67805],[28.0868,41.66828],[28.07655,41.66791],[28.07582,41.66175],[28.09706,41.62788],[28.11305,41.61274],[28.14173,41.6001],[28.17762,41.55933],[28.23268,41.52015],[28.38417,41.44861],[28.94678,41.24839],[29.05723,41.22974],[29.03213,41.14048],[28.996,41.06113],[28.95625,41.0082],[28.94606,41.01063],[28.93671,41.00442],[28.78037,40.97417],[28.77003,40.98047],[28.60316,41.0097],[28.57545,41.02491],[28.58241,41.04755],[28.57228,41.06769],[28.55177,41.08173],[28.5276,41.08631],[28.53272,41.07185],[28.55445,41.05488],[28.56239,41.03791],[28.5609,41.01817],[28.33265,41.06769],[28.25565,41.07444],[28.23646,41.08631],[28.19056,41.07933],[28.16517,41.08631],[28.03004,41.04883],[27.9972,41.03321],[27.97706,41.01346],[27.92519,40.99058],[27.73756,41.01386],[27.52406,40.99042],[27.49293,40.97651],[27.47145,40.94306],[27.4527,40.88328],[27.42972,40.83954],[27.3307,40.76215],[27.30778,40.73147],[27.26003,40.68915],[27.0923,40.61523],[27.04737,40.61341],[27.00784,40.57848],[26.97461,40.56401],[26.91139,40.55195],[26.85497,40.52505],[26.75929,40.49732],[26.68324,40.45667],[26.67421,40.42689],[26.66371,40.4148],[26.63136,40.40125],[26.62346,40.38244],[26.51877,40.301],[26.49708,40.29114],[26.44459,40.2428],[26.40358,40.22065],[26.34547,40.20099],[26.34864,40.18256],[26.36683,40.16026],[26.32998,40.12339],[26.27178,40.09658],[26.20273,40.07539],[26.22598,40.1417],[26.25965,40.19568],[26.27186,40.23163],[26.26686,40.25892],[26.25293,40.27455],[26.25381,40.3147],[26.35527,40.39023],[26.44746,40.44502],[26.63969,40.51492],[26.66969,40.51203],[26.68348,40.51655],[26.73694,40.56332],[26.75611,40.55604],[26.7881,40.56415],[26.81654,40.5821],[26.82887,40.60316],[26.79029,40.66181],[26.71412,40.65253],[26.67726,40.64069],[26.60914,40.64069],[26.55658,40.62284],[26.47194,40.61571],[26.44459,40.62018],[26.39048,40.60884],[26.37293,40.61561],[26.33173,40.60885],[26.22422,40.61807],[26.10547,40.61133],[26.04786,40.72083],[26.03309,40.73627],[26.04676,40.74372],[26.0359,40.75898],[26.02723,40.79737],[26.00575,40.80512],[26.00575,40.81196],[26.0536,40.81745],[26.06043,40.82197],[26.05372,40.8321],[26.01197,40.82569],[26.00575,40.83991],[25.9983,40.83991],[26.00575,40.81818],[25.9983,40.81818],[25.95155,40.84669],[25.91835,40.85413],[25.8965,40.84614],[25.82557,40.85084],[25.80299,40.85773],[25.76473,40.85516],[25.50819,40.8864],[25.48671,40.89826],[25.44066,40.9059],[25.29957,40.95307],[25.27732,40.93654],[25.24484,40.93505],[25.13778,40.98057],[25.14808,40.99128],[25.16969,40.99702],[25.13832,41.0113],[25.03883,41.00727],[25.03932,40.99079],[25.01856,40.97633],[24.99147,40.96967],[24.99446,40.96221],[24.95608,40.94227],[24.89198,40.92182],[24.86341,40.90638],[24.83925,40.88157],[24.79309,40.85758],[24.76564,40.86664],[24.75155,40.86186],[24.69452,40.86783],[24.66043,40.87938],[24.57545,40.92792],[24.56642,40.95289],[24.50489,40.96284],[24.47267,40.95289],[24.46325,40.94257],[24.44288,40.94929],[24.39161,40.93769],[24.37208,40.91535],[24.31251,40.88093],[24.3298,40.867],[24.23438,40.78613],[24.0831,40.72439],[23.95206,40.74728],[23.87391,40.77888],[23.84193,40.78455],[23.80909,40.78156],[23.75392,40.76417],[23.71058,40.73884],[23.69679,40.7226],[23.69166,40.69654],[23.70008,40.67481],[23.71778,40.65992],[23.75538,40.6468],[23.78651,40.60737],[23.79249,40.58918],[23.83338,40.56495],[23.85958,40.56051],[23.87891,40.54438],[23.86239,40.52229],[23.83815,40.51996],[23.82277,40.50818],[23.81874,40.48896],[23.82655,40.46253],[23.86793,40.41468],[23.91529,40.39057],[23.96363,40.38062],[24.00221,40.38752],[24.01149,40.39362],[24.00886,40.40854],[24.03057,40.40933],[24.04834,40.40137],[24.0857,40.36719],[24.10865,40.35859],[24.12736,40.36601],[24.19211,40.33704],[24.20387,40.31855],[24.22159,40.31829],[24.29248,40.2418],[24.34336,40.14771],[24.23242,40.21519],[24.16871,40.27643],[24.12818,40.2912],[24.05606,40.30356],[23.98732,40.33013],[23.93641,40.36634],[23.83338,40.37318],[23.75941,40.35035],[23.73036,40.36011],[23.6996,40.32758],[23.69349,40.31037],[23.69557,40.29413],[23.7162,40.25648],[23.75758,40.23286],[23.76417,40.21656],[23.77845,40.20392],[23.86744,40.1739],[23.87716,40.17665],[23.91758,40.15523],[23.96748,40.11455],[23.98818,40.05865],[23.98658,40.04334],[23.99546,40.03899],[24.00078,40.02461],[23.98184,39.99404],[23.94707,39.96558],[23.85926,40.01013],[23.84474,40.02528],[23.83088,40.02754],[23.78844,40.07763],[23.7931,40.09504],[23.77821,40.10285],[23.76441,40.12739],[23.67518,40.21906],[23.64149,40.23664],[23.54017,40.24598],[23.4839,40.27076],[23.43837,40.2804],[23.3982,40.27888],[23.36488,40.26288],[23.33998,40.22919],[23.33741,40.20966],[23.36354,40.15168],[23.40052,40.14521],[23.46913,40.06831],[23.49879,40.04352],[23.59507,40.00281],[23.67412,39.95889],[23.65752,39.93447],[23.62734,39.92407],[23.47084,39.97285],[23.3956,39.98984],[23.32822,40.08994],[23.31849,40.21174],[23.29896,40.23664],[23.25856,40.25428],[23.15846,40.27952],[23.01802,40.34228],[23.01075,40.35236],[22.96376,40.38062],[22.91899,40.38923],[22.89648,40.3999],[22.85137,40.49063],[22.87756,40.51186],[22.94142,40.51838],[22.98292,40.5539],[22.97682,40.57178],[22.94166,40.58857],[22.94947,40.60657],[22.9336,40.63215],[22.91041,40.64582],[22.88294,40.64851],[22.85389,40.64069],[22.86085,40.62177],[22.85853,40.60651],[22.84022,40.58539],[22.80038,40.57192],[22.77821,40.57923],[22.74574,40.55646],[22.74189,40.53648],[22.69734,40.52025],[22.68824,40.52869],[22.67335,40.52808],[22.6576,40.51783],[22.6566,40.50543],[22.62949,40.49556],[22.62857,40.48209],[22.60279,40.48249],[22.57899,40.46937],[22.60365,40.4452],[22.60621,40.4148],[22.63664,40.38767],[22.64268,40.3666],[22.5901,40.2428],[22.59059,40.23139],[22.55226,40.16773],[22.54957,40.14503],[22.57277,40.08893],[22.57106,40.05543],[22.58753,40.04615],[22.60011,40.01752],[22.63741,39.99303],[22.7167,39.91609],[22.74073,39.87586],[22.78783,39.84707],[22.83574,39.80059],[22.92494,39.60065],[22.93922,39.58173],[23.10342,39.49204],[23.1255,39.45557],[23.24505,39.34372],[23.2815,39.29763],[23.32773,39.1749],[23.2874,39.1489],[23.2096,39.133],[23.23011,39.12556],[23.23011,39.11939],[23.20338,39.10572],[23.15169,39.10413],[23.1338,39.12001],[23.17164,39.13618],[23.18226,39.14735],[23.17543,39.15662],[23.18116,39.15986],[23.19911,39.15259],[23.21705,39.18085],[23.17543,39.23542],[23.1797,39.25202],[23.16896,39.26972],[23.11537,39.3086],[23.02027,39.31916],[23.01844,39.33167],[22.99793,39.35834],[22.9358,39.36176],[22.94264,39.34528],[22.92897,39.32538],[22.93482,39.31099],[22.90876,39.29903],[22.84242,39.28962],[22.82594,39.27332],[22.82594,39.22242],[22.85389,39.16035],[22.88036,39.18065],[22.9203,39.12629],[22.93896,39.11152],[22.9646,39.03372],[22.95863,39.02637],[22.96376,39.01014],[23.01497,39.03434],[23.0667,39.03794],[22.93047,38.9477],[22.87311,38.92702],[22.84645,38.92762],[22.84054,38.91528],[22.80264,38.90161],[22.6545,38.89659],[22.62147,38.91566],[22.58058,38.89478],[22.55201,38.89039],[22.53871,38.87916],[22.52491,38.8866],[22.52491,38.85932],[22.57277,38.86555],[22.57277,38.85932],[22.5536,38.84925],[22.56324,38.83747],[22.58253,38.8332],[22.60011,38.84571],[22.59327,38.83137],[22.63246,38.83637],[22.641,38.83137],[22.6875,38.84917],[22.71799,38.83198],[22.74793,38.80036],[22.77821,38.78296],[22.81568,38.79041],[22.84547,38.77924],[22.86695,38.75629],[22.88931,38.77301],[23.02031,38.74189],[23.06544,38.71347],[23.09034,38.65034],[23.10438,38.63959],[23.13319,38.64088],[23.15614,38.65461],[23.18238,38.65498],[23.19282,38.66475],[23.25293,38.66123],[23.31199,38.59215],[23.29322,38.58027],[23.28529,38.55768],[23.2953,38.56934],[23.30726,38.56977],[23.35282,38.5444],[23.36762,38.52709],[23.33998,38.52351],[23.32911,38.50953],[23.33473,38.50483],[23.41822,38.5055],[23.56963,38.4894],[23.5874,38.46812],[23.57325,38.46204],[23.57325,38.4546],[23.59999,38.44178],[23.59376,38.42731],[23.62477,38.41523],[23.67262,38.35767],[23.70985,38.3379],[23.75041,38.34067],[23.83287,38.32605],[23.96699,38.275],[24.00537,38.22681],[24.02451,38.13979],[23.9889,38.12379],[24.00904,38.04175],[24.03034,38.0132],[24.02992,37.99958],[24.01149,37.96802],[24.01564,37.93861],[24.01149,37.9264],[24.03431,37.92408],[24.04361,37.90389],[24.01149,37.89289],[24.0276,37.88154],[24.04871,37.87916],[24.05808,37.83369],[24.05311,37.82398],[24.06133,37.81792],[24.0623,37.77451],[24.05537,37.70962],[24.01973,37.67773],[23.97158,37.67676],[23.94297,37.70743],[23.94325,37.72846],[23.92714,37.7244],[23.91499,37.73742],[23.90235,37.78303],[23.88868,37.77558],[23.86549,37.80884],[23.84742,37.81928],[23.83338,37.81721],[23.8191,37.83082],[23.8116,37.82614],[23.74217,37.8772],[23.70045,37.92634],[23.69679,37.94068],[23.67994,37.94703],[23.66126,37.94348],[23.58628,38.00573],[23.59767,38.02235],[23.58119,38.04743],[23.52174,38.04371],[23.49249,38.03],[23.46022,38.02674],[23.39693,37.98869],[23.22669,37.97486],[23.08943,37.91372],[23.05189,37.9264],[23.01503,37.9264],[23.01014,37.89814],[22.99501,37.88331],[22.99928,37.8639],[23.01246,37.84876],[23.03212,37.85193],[23.04957,37.84479],[23.09512,37.84461],[23.14717,37.79531],[23.14717,37.76418],[23.12806,37.76166],[23.12086,37.74207],[23.14717,37.72647],[23.16387,37.68444],[23.17543,37.64588],[23.16175,37.64588],[23.16847,37.6153],[23.23011,37.58381],[23.23756,37.59125],[23.27455,37.56238],[23.32289,37.53864],[23.33656,37.53663],[23.36024,37.54883],[23.35902,37.57551],[23.34322,37.59745],[23.39447,37.58042],[23.37403,37.55707],[23.42176,37.52981],[23.39515,37.52296],[23.39515,37.51618],[23.43617,37.50935],[23.45597,37.49885],[23.49063,37.46387],[23.48926,37.44019],[23.38892,37.41353],[23.30568,37.41309],[23.3119,37.39948],[23.26258,37.40223],[23.26417,37.39203],[23.23011,37.38581],[23.22987,37.37611],[23.2419,37.37112],[23.20303,37.34853],[23.16152,37.33384],[23.1,37.36377],[23.09864,37.39353],[23.11231,37.41206],[23.11402,37.42676],[23.14137,37.41309],[23.13185,37.44977],[23.09706,37.46339],[23.06464,37.45671],[23.05103,37.4636],[23.05934,37.46772],[23.04566,37.48823],[23.02331,37.47765],[22.99246,37.49251],[22.96376,37.52296],[22.94264,37.52296],[22.9358,37.53663],[22.9214,37.54151],[22.90174,37.54279],[22.91407,37.54004],[22.92213,37.52918],[22.90223,37.53608],[22.87279,37.52855],[22.85107,37.53223],[22.79587,37.5706],[22.79872,37.57758],[22.77821,37.59809],[22.73829,37.5821],[22.72633,37.56751],[22.72291,37.54279],[22.73401,37.50977],[22.73036,37.49567],[22.743,37.47605],[22.7595,37.4141],[22.75782,37.39948],[22.81425,37.33468],[22.81227,37.33051],[22.82293,37.32435],[22.8191,37.31751],[22.85365,37.27503],[22.89373,37.20934],[22.90804,37.18201],[22.90028,37.17414],[22.89491,37.13508],[22.90309,37.1225],[22.93997,37.12103],[23.0061,36.98833],[22.99049,36.98792],[23.00477,36.96809],[23.01161,36.97431],[23.01612,36.95643],[23.01161,36.94019],[23.06071,36.85135],[23.07353,36.77495],[23.06487,36.74019],[23.05189,36.74836],[23.02552,36.7168],[23.03883,36.70734],[23.03212,36.69373],[23.05328,36.69373],[23.03419,36.67603],[23.03541,36.65021],[23.08046,36.58045],[23.09182,36.57489],[23.11172,36.54761],[23.16016,36.4481],[23.10684,36.45186],[23.06677,36.48224],[23.07191,36.49433],[23.05091,36.52369],[23.03541,36.52924],[22.99496,36.52194],[22.98291,36.52837],[22.95194,36.56102],[22.92897,36.59754],[22.88027,36.63657],[22.88868,36.64362],[22.88417,36.65546],[22.84242,36.68623],[22.83232,36.68711],[22.80763,36.74073],[22.80067,36.77692],[22.78675,36.79462],[22.76503,36.80543],[22.68543,36.81061],[22.62245,36.80469],[22.57716,36.78425],[22.57899,36.74152],[22.54603,36.7226],[22.53321,36.70838],[22.52491,36.68629],[22.54017,36.68635],[22.5504,36.67691],[22.54213,36.66225],[22.52491,36.67267],[22.51112,36.65803],[22.5099,36.64924],[22.5275,36.63632],[22.51124,36.60748],[22.5044,36.62543],[22.48988,36.61823],[22.4839,36.6078],[22.48945,36.44692],[22.42773,36.47578],[22.3748,36.51357],[22.37643,36.54697],[22.38343,36.54536],[22.38807,36.55726],[22.37801,36.57948],[22.38771,36.60377],[22.37919,36.60377],[22.38118,36.64475],[22.38771,36.64533],[22.38771,36.65211],[22.38049,36.65418],[22.37732,36.68768],[22.38771,36.70734],[22.37321,36.70535],[22.30633,36.78879],[22.29139,36.82129],[22.22145,36.89875],[22.20008,36.90754],[22.18295,36.89728],[22.16475,36.90283],[22.14368,36.94439],[22.15333,36.9881],[22.15309,37.02235],[22.04798,37.03632],[21.95448,37.00489],[21.943,36.99445],[21.92201,36.87348],[21.93483,36.83539],[21.92848,36.82349],[21.93523,36.81824],[21.93428,36.80366],[21.89238,36.7373],[21.84088,36.77934],[21.82264,36.80982],[21.80479,36.80879],[21.73809,36.86323],[21.70157,36.91446],[21.70936,36.92707],[21.70985,36.94391],[21.7024,36.95844],[21.688,36.9657],[21.66854,36.96081],[21.68141,36.97431],[21.67262,36.9748],[21.66459,36.96635],[21.65467,36.99586],[21.61868,37.03077],[21.58291,37.08096],[21.57881,37.20039],[21.61856,37.23847],[21.68202,37.28516],[21.69569,37.31751],[21.6913,37.35786],[21.67457,37.39722],[21.60694,37.50068],[21.56886,37.54658],[21.42854,37.63208],[21.40211,37.65662],[21.3293,37.66934],[21.29518,37.77289],[21.2848,37.78626],[21.20527,37.82886],[21.13799,37.85415],[21.12471,37.8916],[21.14502,37.91929],[21.16336,37.93145],[21.20753,37.94721],[21.27735,38.00214],[21.29139,37.99842],[21.32582,38.02265],[21.31837,38.03626],[21.31181,38.03401],[21.36695,38.1222],[21.40114,38.19213],[21.40834,38.18714],[21.40771,38.19736],[21.45937,38.20136],[21.52381,38.16724],[21.60292,38.15296],[21.62208,38.15595],[21.67457,38.18091],[21.70118,38.20649],[21.74844,38.27422],[21.82668,38.32802],[21.95332,38.32119],[22.15123,38.23092],[22.16114,38.21442],[22.20594,38.20136],[22.21839,38.18934],[22.25029,38.18714],[22.36256,38.15998],[22.41468,38.13911],[22.4294,38.14382],[22.5478,38.11518],[22.71152,38.04692],[22.79615,37.97803],[22.82106,37.9704],[22.86695,37.94068],[22.88258,37.93879],[22.94618,37.94745],[22.97523,37.98023],[22.95082,38.00361],[22.9086,38.02278],[22.89316,38.05093],[22.95479,38.07461],[22.99577,38.0743],[23.01893,38.06647],[23.03883,38.07105],[23.06849,38.06013],[23.17274,38.08069],[23.18959,38.09553],[23.21656,38.10456],[23.21009,38.11652],[23.18138,38.13114],[23.17543,38.14612],[23.22328,38.15296],[23.22328,38.16041],[23.15601,38.16739],[23.13812,38.18005],[23.14869,38.18714],[23.12245,38.20923],[23.10951,38.21125],[23.09023,38.19675],[23.04592,38.20099],[23.02491,38.21784],[22.95179,38.22651],[22.9336,38.22321],[22.92213,38.2082],[22.95806,38.20746],[22.93252,38.20195],[22.90359,38.21161],[22.89491,38.24238],[22.88807,38.24238],[22.88063,38.22803],[22.8744,38.24238],[22.83302,38.23544],[22.78064,38.26457],[22.79872,38.28333],[22.6963,38.31806],[22.67518,38.34473],[22.68434,38.36225],[22.67006,38.38276],[22.64637,38.39118],[22.62672,38.37269],[22.64479,38.37086],[22.64588,38.36304],[22.63661,38.35749],[22.61207,38.365],[22.59007,38.34275],[22.47835,38.40572],[22.4629,38.42731],[22.40138,38.4546],[22.40802,38.41866],[22.37355,38.39319],[22.38214,38.38418],[22.31992,38.35684],[22.27743,38.35501],[22.25233,38.36213],[22.21319,38.35595],[22.09948,38.38187],[22.04896,38.39966],[22.02522,38.3988],[21.98756,38.41175],[21.95777,38.41285],[21.85696,38.38175],[21.84596,38.39655],[21.83106,38.39789],[21.78139,38.36377],[21.72091,38.35555],[21.65785,38.35908],[21.61329,38.3462],[21.5995,38.35224],[21.56696,38.3335],[21.48459,38.32293],[21.48963,38.3379],[21.47596,38.34473],[21.47596,38.35224],[21.48963,38.35908],[21.46974,38.35908],[21.47596,38.37269],[21.45826,38.3675],[21.44252,38.37269],[21.42928,38.36676],[21.42421,38.37208],[21.42835,38.38495],[21.39014,38.40781],[21.35547,38.47481],[21.3224,38.4975],[21.30848,38.49555],[21.33057,38.46345],[21.32979,38.42437],[21.3107,38.388],[21.29103,38.37891],[21.29833,38.37275],[21.2776,38.37208],[21.18262,38.34556],[21.12202,38.37969],[21.14015,38.40003],[21.12233,38.4115],[21.1062,38.40017],[21.08967,38.43686],[21.1067,38.42658],[21.11598,38.42927],[21.11976,38.4416],[21.10609,38.43415],[21.11073,38.44727],[21.10133,38.46589],[21.10609,38.48255],[21.07875,38.48878],[21.09925,38.49555],[21.08497,38.503],[21.09584,38.53315],[21.08656,38.5376],[21.05366,38.51689],[21.02365,38.58383],[21.02455,38.60969],[21.0043,38.62699],[20.98805,38.66517],[20.97287,38.67377],[20.88947,38.75912],[20.87318,38.79651],[20.85963,38.80469],[20.83124,38.78959],[20.77686,38.80752],[20.76966,38.86548],[20.80506,38.86896],[20.79408,38.88093],[20.77119,38.89043],[20.77734,38.92788],[20.79362,38.92974],[20.8169,38.92255],[20.84051,38.9351],[20.87006,38.93847],[20.86647,38.92762],[20.9037,38.92927],[20.91238,38.93517],[21.02549,38.90022],[21.08497,38.86555],[21.09925,38.89261],[21.12913,38.90738],[21.17237,38.8747],[21.18116,38.8866],[21.16957,38.89692],[21.16676,38.91218],[21.15,38.92059],[21.14538,38.97296],[21.16065,38.97541],[21.15968,38.99891],[21.08497,39.06415],[21.07423,39.05128],[21.07875,39.03748],[21.0652,39.04169],[21.03408,39.02627],[20.98003,39.03137],[20.96559,39.0406],[20.95362,39.03541],[20.94398,39.0398],[20.9347,39.05793],[20.94837,39.06415],[20.94837,39.07099],[20.92006,39.06568],[20.89381,39.07844],[20.86647,39.05421],[20.87086,39.04426],[20.88636,39.03766],[20.84474,39.03815],[20.85963,39.04365],[20.85768,39.06013],[20.85487,39.06666],[20.84608,39.06415],[20.84608,39.07844],[20.83229,39.07807],[20.82545,39.07099],[20.8379,39.0929],[20.834,39.10969],[20.82228,39.11567],[20.81117,39.10572],[20.80506,39.11256],[20.7953,39.0998],[20.77711,39.09211],[20.77711,39.08466],[20.79164,39.08198],[20.78395,39.05048],[20.76149,39.03364],[20.75721,39.02314],[20.74305,39.03065],[20.74351,39.02307],[20.71338,39.03516],[20.68641,39.07355],[20.57503,39.14545],[20.55217,39.168],[20.47698,39.2462],[20.48219,39.28388],[20.46009,39.27851],[20.44813,39.29072],[20.41896,39.28449],[20.39344,39.29816],[20.37928,39.29343],[20.30098,39.32701],[20.29203,39.34459],[20.29054,39.36579],[20.27711,39.37592],[20.24149,39.44566],[20.2671,39.44806],[20.26381,39.46198],[20.22073,39.48716],[20.21625,39.49612],[20.25489,39.4936],[20.26381,39.50977],[20.22193,39.52253],[20.22218,39.50977],[20.20397,39.52068],[20.19141,39.5458],[20.16742,39.57069],[20.17445,39.57807],[20.17445,39.59919],[20.18812,39.60541],[20.18165,39.62568],[20.08876,39.67426],[20.03773,39.6841],[20.00127,39.70942],[19.9965,39.78653],[20.01612,39.8462],[20.00965,39.86689],[19.96156,39.87971],[19.92565,39.93169],[19.94093,39.94117],[19.92372,39.95405],[19.86329,40.04658],[19.83421,40.05155],[19.74727,40.09094],[19.73256,40.1114],[19.719,40.11726],[19.65338,40.13348],[19.59767,40.15888],[19.56556,40.18098],[19.48457,40.20996],[19.39814,40.28486],[19.32227,40.40708],[19.35859,40.40874],[19.38391,40.39814],[19.40638,40.36378],[19.41407,40.33564],[19.42347,40.33118],[19.47486,40.34956],[19.47853,40.45508],[19.43101,40.4835],[19.40587,40.52382],[19.41407,40.52399],[19.43336,40.50715],[19.44593,40.51227],[19.45436,40.55506],[19.44203,40.57429],[19.41554,40.58472],[19.39149,40.57953],[19.38673,40.55453],[19.34463,40.62207],[19.3375,40.66382],[19.36036,40.71101],[19.38389,40.79072],[19.39944,40.81939],[19.4065,40.82197],[19.40449,40.8287],[19.42878,40.87348],[19.43458,40.87348],[19.43775,40.88776],[19.44081,40.87348],[19.45399,40.88703],[19.50648,40.90632],[19.52333,40.92182],[19.52503,40.94648],[19.49537,41.00379],[19.49195,40.9781],[19.46121,40.93392],[19.46082,40.94694],[19.47706,40.9762],[19.47486,40.99702],[19.45907,41.00531],[19.45605,41.10605],[19.47208,41.19299],[19.50941,41.23853],[19.51649,41.25764],[19.50282,41.29536],[19.48793,41.30768],[19.45615,41.31232],[19.44276,41.42994],[19.44919,41.44559],[19.48915,41.46729],[19.50856,41.4881],[19.51649,41.51459],[19.51405,41.53119],[19.48907,41.54254],[19.49736,41.56269],[19.51984,41.57854],[19.56507,41.58631],[19.58473,41.6208],[19.59156,41.6208],[19.59596,41.60395],[19.6128,41.60651],[19.59986,41.64033],[19.59156,41.63379],[19.5758,41.64939],[19.57732,41.76998],[19.58937,41.76685],[19.59889,41.77985],[19.59962,41.80091],[19.59156,41.82001],[19.43275,41.86982],[19.40358,41.8628],[19.34238,41.86909],[19.31007,41.89576],[19.26378,41.90918],[19.18643,41.94863],[19.14035,42.02897],[19.13905,42.04359],[19.07591,42.09891],[19.08363,42.11127],[19.06385,42.12134],[19.04859,42.14136],[19.02514,42.14099],[18.90041,42.24434],[18.88587,42.28553],[18.85389,42.29163],[18.83243,42.27988],[18.81752,42.29236],[18.81186,42.29001],[18.71404,42.33815],[18.69337,42.35444],[18.69569,42.37501],[18.67835,42.38715],[18.65834,42.38776],[18.65325,42.36807],[18.63291,42.37808],[18.61904,42.39839],[18.63302,42.42249],[18.68543,42.40516],[18.70021,42.39417],[18.70802,42.40973],[18.70631,42.42219],[18.68373,42.46003],[18.68727,42.48414],[18.65406,42.45295],[18.60853,42.4466],[18.50233,42.45685],[18.50233,42.44941],[18.52113,42.43915],[18.51748,42.43291],[18.33301,42.52788],[18.22187,42.59633],[18.2234,42.61585],[18.21742,42.62134],[18.17143,42.62739],[18.05397,42.68578],[18.04298,42.70325],[18.033,42.69595],[17.88051,42.76992],[17.89271,42.792],[17.865,42.79108],[17.83485,42.80842],[17.80641,42.81312],[17.784,42.80404],[17.76022,42.808],[17.72084,42.82734],[17.74261,42.81093],[17.60504,42.83382],[17.44213,42.89455],[17.44264,42.89985],[17.41712,42.91236],[17.385,42.91751],[17.21376,42.98377],[17.17986,42.98555],[17.04541,43.01489],[17.12646,43.02559],[17.21982,43.02588],[17.45048,42.94567],[17.46009,42.92298],[17.48133,42.92298],[17.51881,42.90931],[17.52187,42.92085],[17.69491,42.86067],[17.71583,42.8454],[17.74134,42.8404],[17.70179,42.8697],[17.71339,42.88196],[17.70729,42.88825],[17.68537,42.88238],[17.60292,42.93378],[17.5373,42.96226],[17.47196,43.01034],[17.47902,43.02357],[17.50172,43.03217],[17.4878,43.0362],[17.45331,43.02407],[17.45,43.0265],[17.46009,43.03217],[17.44056,43.03352],[17.42604,43.04584],[17.43348,43.05268],[17.42604,43.06635],[17.4098,43.05608],[17.31617,43.12842],[17.24721,43.15458],[17.12939,43.21113],[16.98134,43.32976],[16.93385,43.37482],[16.8805,43.40711],[16.80925,43.41464],[16.60029,43.46406],[16.53468,43.49836],[16.52992,43.51002],[16.50428,43.50513],[16.44098,43.52529],[16.47328,43.53931],[16.43373,43.55097],[16.33668,43.55231],[16.23951,43.52778],[16.11756,43.52564],[16.11756,43.51887],[16.15452,43.51055],[16.13105,43.5063],[16.046,43.50552],[15.98555,43.51978],[15.98219,43.53846],[15.98719,43.54615],[15.96506,43.54321],[15.94259,43.569],[15.94912,43.60698],[15.94479,43.63521],[15.96608,43.63489],[15.96608,43.64234],[15.94315,43.64592],[15.95289,43.65205],[15.9513,43.65858],[15.93202,43.66968],[15.94581,43.67353],[15.95228,43.68098],[15.95033,43.68977],[15.93885,43.69758],[15.93959,43.67878],[15.93104,43.67774],[15.89271,43.70167],[15.87049,43.70441],[15.84388,43.73109],[15.65566,43.81128],[15.64545,43.81765],[15.67872,43.81306],[15.67872,43.8205],[15.66566,43.8205],[15.63856,43.83735],[15.58018,43.85839],[15.54187,43.8823],[15.5121,43.91224],[15.48893,43.91759],[15.18584,44.17212],[15.15709,44.21083],[15.15199,44.23646],[15.127,44.25785],[15.16293,44.26723],[15.17652,44.25111],[15.19777,44.25855],[15.20651,44.27222],[15.24934,44.27735],[15.27943,44.25294],[15.29518,44.2519],[15.2815,44.28657],[15.29073,44.28885],[15.36973,44.28926],[15.42421,44.26911],[15.50343,44.26038],[15.52516,44.26191],[15.52858,44.27296],[15.51454,44.27967],[15.44911,44.28657],[15.41395,44.31769],[15.26998,44.38342],[15.14252,44.48033],[15.07997,44.5373],[15.05793,44.54468],[14.98135,44.60293],[14.89522,44.70659],[14.88525,44.81826],[14.89681,44.90136],[14.92152,44.96003],[14.91407,44.98261],[14.85633,45.07764],[14.85255,45.09479],[14.82716,45.11518],[14.75487,45.14458],[14.63203,45.2229],[14.57095,45.27894],[14.58204,45.28657],[14.57069,45.29487],[14.53419,45.31391],[14.5541,45.29439],[14.34571,45.35285],[14.3296,45.35523],[14.31129,45.34516],[14.27174,45.29133],[14.25819,45.2569],[14.23599,45.1593],[14.20773,45.12786],[14.17921,45.13575],[14.1952,45.12177],[14.19382,45.11239],[14.16432,45.08106],[14.15809,45.08857],[14.15478,45.06896],[14.08372,44.98762],[14.07545,45.00599],[14.05445,45.0196],[14.05177,45.03925],[14.04017,45.04017],[14.0442,45.00257],[14.07142,44.99457],[14.07545,44.98493],[14.04432,44.95258],[14.03456,44.95759],[14.03895,44.93299],[14.03456,44.92347],[14.02223,44.92463],[14.02772,44.91004],[14.02027,44.90229],[14.01051,44.90644],[13.97242,44.90229],[13.99293,44.88251],[13.9861,44.88251],[13.99293,44.86884],[13.98109,44.86103],[13.96582,44.83564],[13.89943,44.83027],[13.86074,44.8374],[13.83258,44.8741],[13.84217,44.88929],[13.82334,44.88614],[13.77394,44.96503],[13.74754,44.9849],[13.6293,45.1082],[13.62456,45.12475],[13.63844,45.13117],[13.72608,45.13575],[13.68336,45.1446],[13.62027,45.13972],[13.60332,45.2314],[13.58712,45.27849],[13.60255,45.28034],[13.60255,45.28657],[13.58448,45.29438],[13.57702,45.30786],[13.60939,45.32129],[13.57068,45.32627],[13.51719,45.48179],[13.54725,45.49916],[13.58937,45.49],[13.59571,45.51929],[13.58853,45.52029],[13.64888,45.54318],[13.7527,45.55408],[13.7527,45.56025],[13.72016,45.58781],[13.76261,45.61432],[13.80799,45.61555],[13.79542,45.61823],[13.75349,45.65489],[13.75758,45.65619],[13.75343,45.67353],[13.72608,45.7049],[13.6288,45.77381],[13.55104,45.79365],[13.53431,45.78327],[13.52626,45.76502],[13.5265,45.84241],[13.53456,45.9032],[13.56105,45.95264],[13.61659,45.98438],[13.69789,45.99366],[13.78688,45.98328],[13.87257,45.95838],[13.99586,45.89588],[14.0547,45.87617],[14.11647,45.87128],[14.1775,45.88782],[14.24513,45.93903],[14.36048,46.06141],[14.43995,46.09748],[14.51246,46.10169],[14.58754,46.09028],[14.8069,46.01673],[14.89369,45.99799],[14.98231,45.99055],[15.06922,45.99671],[15.21571,46.03052],[15.2848,46.03773],[15.43507,46.01893],[15.4734,45.99647],[15.48292,45.97242],[15.49989,45.95801],[15.54554,45.94263],[15.59681,45.93806],[15.68727,45.87122],[15.77369,45.84186],[15.80983,45.84205],[15.86683,45.79285],[15.98365,45.78943],[16.04872,45.76636],[16.08277,45.79365],[16.14015,45.79456],[16.15516,45.77314],[16.20838,45.75568],[16.22682,45.76008],[16.22816,45.74384],[16.21315,45.7328],[16.22682,45.71955],[16.21315,45.71113],[16.21315,45.7049],[16.24733,45.7049],[16.25245,45.67359],[16.28529,45.67353],[16.29274,45.67115],[16.30592,45.64899],[16.34156,45.64606],[16.33668,45.62293],[16.35609,45.62165],[16.34352,45.60187],[16.36305,45.59815],[16.40553,45.57453],[16.37965,45.53803],[16.38514,45.52674],[16.42604,45.52674],[16.40553,45.49946],[16.39881,45.50568],[16.40553,45.51307],[16.38514,45.51307],[16.38758,45.48603],[16.39076,45.47669],[16.41505,45.46625],[16.43971,45.44422],[16.51124,45.41468],[16.53651,45.41035],[16.56105,45.41462],[16.58314,45.43116],[16.59498,45.41431],[16.61048,45.41688],[16.62477,45.40534],[16.67921,45.3902],[16.67567,45.37458],[16.6869,45.36597],[16.70387,45.36487],[16.73085,45.3783],[16.77491,45.35541],[16.77443,45.34388],[16.78907,45.3418],[16.78236,45.32129],[16.8097,45.31391],[16.82167,45.31855],[16.82399,45.30762],[16.80275,45.28034],[16.85414,45.27106],[16.88026,45.28321],[16.89625,45.2696],[16.92372,45.28602],[16.93202,45.28022],[16.94667,45.23713],[16.9673,45.23871],[16.96046,45.25239],[16.99793,45.23286],[17.00758,45.24555],[17.01295,45.23206],[17.00758,45.21766],[17.03565,45.23188],[17.05506,45.20185],[17.09767,45.17914],[17.18641,45.15003],[17.24476,45.15681],[17.26832,45.19098],[17.38172,45.141],[17.43348,45.15003],[17.44264,45.16352],[17.45741,45.14759],[17.44703,45.13569],[17.47157,45.13422],[17.49562,45.14319],[17.48133,45.11585],[17.57179,45.12183],[17.62916,45.15876],[17.65089,45.16681],[17.68421,45.16541],[17.74073,45.13471],[17.79689,45.08338],[17.83509,45.06592],[17.91053,45.08253],[17.9878,45.14521],[18.00282,45.15076],[18.03419,45.14478],[18.08961,45.10944],[18.15296,45.099],[18.19178,45.10993],[18.20167,45.14551],[18.21266,45.15522],[18.23719,45.15888],[18.32167,45.12427],[18.41139,45.1139],[18.46534,45.07551],[18.51637,45.05732],[18.54042,45.05671],[18.53419,45.09186],[18.54896,45.0962],[18.58119,45.09284],[18.60841,45.10151],[18.64808,45.06415],[18.65736,45.06782],[18.67066,45.08832],[18.68336,45.08631],[18.73768,45.01734],[18.78834,45.00715],[18.80384,44.97529],[18.80091,44.9654],[18.77198,44.94391],[18.78272,44.91523],[18.81703,44.88898],[18.88893,44.86262],[19.00428,44.86475],[19.06776,44.87629],[19.18605,44.92902],[19.20118,44.9098],[19.23866,44.91657],[19.28309,44.9098],[19.30946,44.91376],[19.32948,44.90015],[19.34962,44.89844],[19.35878,44.90229],[19.32472,44.92347],[19.38624,44.91657],[19.39735,44.92469],[19.39552,44.93299],[19.37245,44.94452],[19.40992,44.96131],[19.44752,44.95759],[19.4496,44.97285],[19.48463,44.98505],[19.64625,44.96467],[19.6565,44.96101],[19.66725,44.93732],[19.75672,44.91657],[19.75306,44.89332],[19.70973,44.83143],[19.70045,44.80878],[19.70484,44.78998],[19.72877,44.75898],[19.74513,44.75342],[19.7964,44.75275],[19.84608,44.73469],[19.91383,44.69666],[19.98243,44.69709],[20.0099,44.69007],[19.93068,44.66047],[19.92054,44.64912],[19.9402,44.633],[19.97328,44.6424],[20.0453,44.69147],[20.12599,44.71796],[20.15394,44.7118],[20.16005,44.69007],[20.18629,44.68391],[20.20179,44.68726],[20.21388,44.71314],[20.23731,44.72498],[20.24269,44.71491],[20.23597,44.69147],[20.27418,44.66596],[20.29212,44.68024],[20.32167,44.74506],[20.36109,44.78535],[20.44105,44.81159],[20.44789,44.8382],[20.42555,44.85212],[20.45497,44.8415],[20.51405,44.83802],[20.54579,44.84101],[20.58009,44.85859],[20.63624,44.85065],[20.62794,44.78974],[20.63319,44.76642],[20.67176,44.74518],[20.74171,44.68037],[20.76344,44.66956],[20.82631,44.66212],[20.88307,44.6739],[20.98939,44.71796],[21.07765,44.72773],[21.11207,44.74604],[21.16359,44.74903],[21.18861,44.77943],[21.2223,44.79792],[21.31886,44.82624],[21.35987,44.82783],[21.37782,44.81806],[21.39515,44.79169],[21.41151,44.78626],[21.5774,44.77912],[21.59486,44.7674],[21.61903,44.71534],[21.65553,44.68915],[21.70436,44.67847],[21.75611,44.67866],[21.85475,44.6999],[21.96168,44.66376],[21.99366,44.65998],[22.00355,44.6529],[22.0315,44.6048],[22.03919,44.57832],[22.07557,44.55219],[22.08631,44.52326],[22.10365,44.51105],[22.14759,44.50233],[22.1714,44.50678],[22.18446,44.51655],[22.29835,44.66309],[22.30421,44.67884],[22.37989,44.70191],[22.42543,44.73511],[22.46827,44.73163],[22.5868,44.65082],[22.62049,44.63892],[22.69935,44.63202],[22.76454,44.5843],[22.75868,44.56605],[22.74098,44.55329],[22.69935,44.54334],[22.62049,44.57062],[22.57972,44.56696],[22.56495,44.55689],[22.55604,44.52289],[22.54762,44.51313],[22.48341,44.50123],[22.47633,44.4654],[22.50477,44.43647],[22.5044,44.40552],[22.52198,44.37653],[22.54859,44.35041],[22.58216,44.32984],[22.68092,44.30677],[22.68885,44.29316],[22.68458,44.24512],[22.68995,44.23041],[22.90577,44.12434],[23.03028,44.09455],[23.03944,44.06379],[23.02235,44.03309],[22.98744,44.01911],[22.90516,44.00544],[22.88527,43.99598],[22.84986,43.89838],[22.85035,43.8758],[22.8628,43.85688],[22.88807,43.84095],[22.91896,43.83564],[23.13111,43.84937],[23.23378,43.87873],[23.32447,43.88806],[23.4839,43.88202]]],[[[18.55006,42.43635],[18.57404,42.43696],[18.55352,42.42852],[18.54694,42.42932],[18.55006,42.43635]]]]},"properties":{"name":"Balkans","class":"pen/cape","kind":"range","source":"ne-regions"}},{"type":"Feature","geometry":{"type":"Polygon","coordinates":[[[15.31483,46.43159],[15.26673,46.40217],[15.20509,46.37983],[14.9922,46.32032],[14.90113,46.30591],[14.80848,46.30573],[14.39027,46.38154],[14.05287,46.41529],[13.71571,46.40717],[13.39967,46.34162],[12.02369,45.95258],[11.8086,45.9173],[11.60279,45.86396],[11.43336,45.76038],[11.28968,45.60004],[11.2129,45.56214],[11.08619,45.56141],[9.32191,45.91523],[8.76832,45.93],[8.3152,45.80744],[7.9485,45.61457],[7.65406,45.41859],[7.46827,45.19489],[7.41175,44.90485],[7.44715,44.59431],[7.53736,44.30891],[7.51027,44.07941],[7.29664,43.90577],[7.01368,43.78773],[6.77797,43.7248],[6.40052,43.66578],[6.05531,43.67011],[5.72413,43.76429],[5.38844,43.97498],[5.17274,44.30848],[5.15699,44.69819],[5.25709,45.06147],[5.38844,45.31556],[5.50257,45.47736],[5.6266,45.63087],[5.79029,45.79426],[6.51551,46.41773],[6.86976,46.68006],[7.43458,47.00892],[8.01112,47.26752],[8.5774,47.45637],[9.07765,47.58369],[11.11805,47.96796],[11.66798,48.01435],[15.11524,48.08979],[15.53089,48.13776],[15.8263,48.15485],[16.02918,48.08924],[16.14601,48.00379],[16.18348,47.96143],[16.16175,47.84949],[16.10194,47.70124],[16.01234,47.55952],[15.90126,47.46748],[15.7732,47.40931],[15.52247,47.27784],[15.40516,47.20026],[15.32643,47.12794],[15.29689,47.05939],[15.3014,46.98078],[15.35157,46.77051],[15.3733,46.64686],[15.3683,46.52723],[15.31483,46.43159]]]},"properties":{"name":"Alps","class":"range/mtn","kind":"range","source":"ne-regions"}},{"type":"Feature","geometry":{"type":"MultiPolygon","coordinates":[[[[65.98286,68.32292],[65.71376,68.2497],[65.61866,68.18812],[65.55445,68.03767],[65.5287,67.85425],[65.4795,67.68647],[65.34437,67.58295],[65.16932,67.54871],[65.01783,67.53028],[64.88221,67.49604],[64.75453,67.41437],[64.48219,67.12464],[64.33363,66.98963],[64.17848,66.90864],[63.93788,66.81952],[63.59193,66.65925],[63.23024,66.4621],[62.72499,66.1023],[62.50123,65.99366],[62.24867,65.92451],[61.6006,65.82593],[60.87684,65.66981],[60.11671,65.62372],[59.74598,65.53187],[59.42543,65.35578],[59.19105,65.08216],[58.78187,64.43067],[58.62403,64.10816],[58.57289,63.78962],[58.60792,63.07599],[58.57679,62.35828],[58.41578,61.6706],[58.0608,61.04688],[57.77088,60.79999],[57.42713,60.65436],[56.31056,60.44172],[55.54969,60.37525],[51.02015,60.34394],[48.15492,60.154],[44.63197,59.6175],[41.05751,58.76508],[35.52613,56.53998],[26.81971,53.74695],[23.1056,52.83417],[19.33204,52.42402],[9.19606,51.94825],[7.64906,51.69471],[5.84523,51.10493],[4.16285,50.214],[3.02442,49.18165],[0.47438,45.62983],[0.21681,44.93635],[0.2079,44.49427],[0.22023,44.15143],[0.01026,43.85346],[-0.43535,43.64612],[-0.99871,43.52723],[-1.56371,43.49614],[-1.48486,43.56377],[-1.346,44.02022],[-1.24551,44.55986],[-1.1708,44.66182],[-1.07695,44.68984],[-1.15288,44.76401],[-1.20039,44.72646],[-1.22031,44.68662],[-1.24521,44.6667],[-1.18906,45.16148],[-1.14907,45.34263],[-1.08101,45.53242],[-0.94175,45.45708],[-0.82632,45.38066],[-0.76665,45.31435],[-0.69111,45.09346],[-0.63398,45.04712],[-0.54849,45.00059],[-0.58227,45.05137],[-0.64111,45.09019],[-0.73311,45.38462],[-0.79077,45.46802],[-0.88066,45.53818],[-1.16997,45.68594],[-1.196,45.71445],[-1.20996,45.7709],[-1.11435,45.76851],[-1.03174,45.74106],[-1.0415,45.77266],[-1.06602,45.80566],[-1.1044,45.92534],[-1.13638,46.20483],[-1.13203,46.25269],[-1.14629,46.31138],[-1.23882,46.32451],[-1.31279,46.3269],[-1.39248,46.3501],[-1.78652,46.51484],[-1.92144,46.68481],[-2.05938,46.8103],[-2.09248,46.86504],[-2.09028,46.92051],[-2.0189,47.03765],[-2.08193,47.11162],[-2.14356,47.12632],[-2.19707,47.16294],[-2.14858,47.22393],[-2.1083,47.26294],[-2.02759,47.27358],[-1.92173,47.26064],[-1.82129,47.22534],[-1.74253,47.21597],[-1.97539,47.31069],[-2.35303,47.27876],[-2.43442,47.29097],[-2.50312,47.31206],[-2.53003,47.38159],[-2.47632,47.41294],[-2.42769,47.4709],[-2.48271,47.51162],[-2.55405,47.52705],[-2.66592,47.52617],[-2.77031,47.51387],[-2.79678,47.53726],[-2.73311,47.60181],[-2.78721,47.62554],[-2.96406,47.60107],[-3.06421,47.62134],[-3.15884,47.69468],[-3.22158,47.69414],[-3.2647,47.68511],[-3.32861,47.71333],[-3.3959,47.72041],[-3.44394,47.71104],[-3.50781,47.75312],[-3.90093,47.83755],[-4.0707,47.84785],[-4.22642,47.80962],[-4.31211,47.8229],[-4.3751,47.87744],[-4.42798,47.96894],[-4.52062,47.995],[-4.5878,48.08967],[-4.5124,48.09673],[-4.37783,48.12881],[-4.32944,48.16997],[-4.43462,48.21797],[-4.51221,48.22974],[-4.54434,48.24697],[-4.57715,48.29004],[-4.53066,48.30972],[-4.4979,48.29927],[-4.40332,48.29307],[-4.24141,48.30366],[-4.30176,48.34707],[-4.3644,48.35674],[-4.39316,48.36763],[-4.5248,48.37231],[-4.58472,48.35752],[-4.71938,48.36313],[-4.75144,48.41837],[-4.71843,48.49689],[-4.65208,48.5689],[-4.5312,48.61997],[-4.05889,48.70752],[-3.85566,48.69473],[-3.7148,48.7105],[-3.546,48.76567],[-3.47148,48.81294],[-3.23144,48.84082],[-3.00322,48.79067],[-2.79287,48.60107],[-2.69233,48.53682],[-2.44619,48.64829],[-2.07944,48.64502],[-2.00371,48.58208],[-1.97314,48.63511],[-1.90571,48.69712],[-1.85195,48.66885],[-1.82471,48.63052],[-1.43765,48.64141],[-1.37647,48.65259],[-1.48047,48.69761],[-1.56548,48.80552],[-1.5831,49.20239],[-1.69033,49.31318],[-1.77046,49.42837],[-1.23367,49.49929],[-1.19497,49.44482],[-1.13853,49.38789],[-0.95913,49.39316],[-0.76553,49.35972],[-0.5209,49.35454],[-0.16348,49.29678],[-0.01118,49.33022],[0.13613,49.40151],[0.4169,49.44839],[0.43926,49.47319],[0.27764,49.46328],[0.1294,49.50845],[0.10938,49.55752],[0.12656,49.60156],[0.18672,49.70303],[0.26698,49.72181],[0.61621,49.86294],[0.92412,49.9102],[1.24551,49.99824],[1.40723,50.08852],[1.51406,50.20508],[1.54844,50.23071],[1.59277,50.2522],[1.55156,50.29395],[1.57949,50.73926],[1.60957,50.81948],[1.67227,50.88501],[1.76768,50.93569],[1.9125,50.99063],[2.4457,51.0665],[2.96016,51.26543],[3.22519,51.35161],[3.42578,51.39351],[3.58945,51.39941],[3.7165,51.36914],[3.8834,51.35449],[4.01103,51.39595],[4.11152,51.36064],[4.22617,51.38647],[4.13887,51.40151],[4.00654,51.44321],[3.82187,51.40937],[3.69355,51.4499],[3.58691,51.45391],[3.52051,51.48618],[3.44893,51.54077],[3.49961,51.57666],[3.54863,51.58911],[3.74395,51.59604],[3.88604,51.57422],[4.14131,51.45576],[4.20576,51.45669],[4.27412,51.47163],[4.23935,51.50391],[4.08047,51.55112],[4.00479,51.59585],[4.18262,51.6103],[4.15801,51.63345],[4.13457,51.6729],[3.94687,51.81055],[3.97891,51.8478],[4.02607,51.92773],[4.08486,51.99409],[4.13174,52.01191],[4.20879,52.05898],[4.37627,52.19683],[4.48281,52.30918],[4.56211,52.44258],[4.67832,52.80977],[4.72939,52.89273],[4.80842,52.93395],[4.88799,52.90835],[5.06123,52.96064],[5.3584,53.09648],[5.446,53.21406],[5.53271,53.26891],[5.87354,53.37519],[6.06221,53.40708],[6.35322,53.41528],[6.56357,53.43428],[6.81621,53.44116],[6.9124,53.37539],[6.96816,53.32729],[7.05801,53.30059],[7.19727,53.28227],[7.15205,53.32695],[7.05332,53.37583],[7.07432,53.47764],[7.10713,53.55698],[7.20645,53.65454],[7.28525,53.68135],[7.6292,53.69727],[8.00928,53.69072],[8.16709,53.54341],[8.1085,53.46768],[8.20078,53.43242],[8.24521,53.44531],[8.279,53.51118],[8.30156,53.58413],[8.33389,53.6062],[8.45137,53.55171],[8.49268,53.51436],[8.49521,53.39424],[8.53848,53.55689],[8.50625,53.67075],[8.52842,53.7811],[8.57559,53.83848],[8.61895,53.875],[8.89775,53.83569],[9.20557,53.85596],[9.32197,53.81348],[9.58535,53.60049],[9.67314,53.56562],[9.78398,53.55464],[9.63125,53.60019],[9.31201,53.85913],[9.21641,53.89121],[9.06963,53.90093],[8.97813,53.92622],[8.92041,53.96533],[8.90352,54.00029],[8.90664,54.26079],[8.85156,54.29956],[8.78037,54.31304],[8.73603,54.29521],[8.64492,54.29497],[8.62578,54.35395],[8.64805,54.39766],[8.83115,54.42754],[8.95186,54.46758],[8.95723,54.53833],[8.88096,54.59394],[8.85486,54.6231],[9.03956,54.66413],[9.52992,54.67597],[9.99305,54.5666],[10.00431,54.56264],[9.94131,54.51465],[9.86865,54.47246],[10.14346,54.48843],[10.1708,54.4502],[10.2124,54.40894],[10.35863,54.43797],[10.91212,54.24323],[11.02719,54.21429],[11.00859,54.18115],[10.81074,54.07515],[10.85459,54.00981],[10.91777,53.99531],[11.1043,54.00918],[11.39961,53.94463],[11.46113,53.96475],[11.70059,54.11353],[11.79629,54.14546],[12.11133,54.16831],[12.16865,54.22588],[12.29629,54.28379],[12.37852,54.34702],[12.57539,54.46738],[12.7791,54.4457],[12.89805,54.42266],[13.02861,54.41103],[13.14746,54.28272],[13.44805,54.14087],[13.72422,54.15322],[13.82227,54.01904],[13.86553,53.85337],[13.95039,53.80137],[14.025,53.76743],[14.25,53.73188],[14.4876,53.67188],[14.5835,53.63936],[14.57158,53.67588],[14.55215,53.70732],[14.56494,53.75352],[14.5584,53.82319],[14.35088,53.85874],[14.17217,53.87436],[14.04834,53.86309],[13.92578,53.87905],[13.90215,53.93897],[13.92168,53.99663],[13.87246,54.03628],[13.82715,54.05957],[13.82041,54.09282],[13.82773,54.12725],[14.03887,54.03457],[14.24932,53.93193],[14.38418,53.92471],[14.71572,54.01831],[15.28838,54.13989],[15.9,54.25395],[16.04277,54.26636],[16.18633,54.29038],[16.23935,54.33306],[16.29228,54.36162],[16.37559,54.43686],[16.54753,54.54604],[16.59806,54.55882],[16.88545,54.59639],[17.00703,54.65185],[17.26191,54.72954],[17.84297,54.8167],[18.08564,54.83584],[18.32344,54.83818],[18.4038,54.81209],[18.55665,54.49177],[18.66078,54.36384],[18.88917,54.305],[19.07528,54.35746],[19.40713,54.38608],[19.56016,54.43462],[19.7585,54.54482],[19.85889,54.63384],[19.94414,54.75],[19.94674,54.77299],[20.22024,54.95446],[20.39668,54.95127],[20.52031,54.99487],[20.67891,55.10264],[20.8457,55.23203],[21.01406,55.40195],[21.05762,55.47681],[21.08789,55.58311],[21.11484,55.6165],[21.11572,55.56816],[21.10391,55.48774],[21.03174,55.35049],[20.85938,55.18364],[20.59482,54.98237],[20.67773,54.95566],[20.77402,54.94702],[20.8875,54.90947],[20.9959,54.90269],[21.18887,54.93521],[21.22285,55.10776],[21.23633,55.27119],[21.20107,55.3438],[21.23789,55.45503],[21.17109,55.61773],[21.06639,55.8054],[21.05381,56.02295],[21.03021,56.16634],[21.06581,56.5832],[21.12545,56.85546],[21.25742,56.93276],[21.35078,57.01768],[21.40508,57.13101],[21.42148,57.23584],[21.45918,57.32246],[21.7152,57.55854],[22.11048,57.60908],[22.48866,57.60602],[22.74304,57.54605],[23.03779,57.39209],[23.13682,57.32383],[23.2873,57.08975],[23.64775,56.97104],[23.93115,57.0085],[24.28125,57.17231],[24.38262,57.25005],[24.40322,57.325],[24.38365,57.48081],[24.40309,57.49128],[24.37289,57.56645],[24.36299,57.64531],[24.30156,57.78413],[24.33203,57.90977],[24.46387,58.10596],[24.4875,58.26162],[24.53574,58.28301],[24.54971,58.30459],[24.5291,58.35425],[24.39219,58.38608],[24.33691,58.3814],[24.28721,58.32803],[24.23565,58.28955],[24.11484,58.26611],[24.01094,58.30664],[23.76758,58.36084],[23.70605,58.43301],[23.6915,58.50561],[23.56797,58.573],[23.50971,58.65971],[23.53066,58.71626],[23.64746,58.75415],[23.68076,58.78716],[23.53359,58.78193],[23.50361,58.78984],[23.49717,58.81953],[23.43567,58.915],[23.43512,58.92279],[23.48965,58.9605],[23.51504,58.99922],[23.47177,59.02939],[23.51699,59.10757],[23.54896,59.17817],[23.67463,59.25021],[23.78252,59.27515],[24.0834,59.29189],[24.05764,59.36144],[24.12164,59.37433],[24.17539,59.37593],[24.20953,59.39204],[24.54246,59.4591],[24.58359,59.45566],[24.87754,59.52207],[25.44375,59.52114],[25.5209,59.55947],[25.50742,59.598],[25.50888,59.63035],[25.55954,59.6336],[25.61572,59.62754],[25.79375,59.63467],[26.46084,59.55391],[26.625,59.55391],[26.85205,59.47178],[26.97471,59.45063],[27.33584,59.45049],[27.49504,59.44011],[27.7129,59.35724],[27.83418,59.41801],[27.89258,59.41421],[28.00185,59.46982],[28.03955,59.52092],[28.33558,59.66926],[28.69143,59.81114],[28.74766,59.80669],[28.86689,59.81191],[28.94727,59.82876],[28.98154,59.85478],[29.01338,59.90156],[29.04066,59.92623],[29.167,59.96638],[29.2984,59.987],[29.66973,59.95566],[30.12256,59.87358],[30.15684,59.9043],[30.17266,59.95713],[30.11448,59.9806],[30.57093,59.90241],[31.09864,59.89924],[31.62135,59.98633],[32.14747,60.16468],[32.34999,60.27784],[32.42872,60.3086],[32.52296,60.32892],[32.71363,60.35724],[32.80982,60.38721],[33.891,60.85303],[34.27064,60.95649],[34.83338,61.0412],[35.67811,61.10633],[35.95155,61.1457],[36.15907,61.26295],[36.23854,61.51063],[36.18629,61.8299],[36.05494,62.07343],[35.86525,62.27454],[35.63807,62.46668],[35.5254,62.58765],[35.43385,62.73292],[34.97169,63.67805],[34.86903,64.05207],[34.96803,64.33283],[35.0984,64.38349],[35.23854,64.36011],[35.49562,64.25776],[35.98255,64.16035],[36.20837,64.12746],[36.30195,64.03437],[36.36494,64.00283],[36.71377,63.94507],[36.97519,63.90952],[37.37275,63.81675],[37.44219,63.81338],[37.55454,63.85993],[37.71901,63.80811],[37.88282,63.78205],[38.00514,63.80646],[38.04371,63.87556],[38.06788,63.99128],[38.07594,64.1081],[38.06593,64.1803],[37.96493,64.26601],[37.95371,64.32012],[37.84356,64.36631],[37.74063,64.39697],[37.70951,64.39463],[37.60304,64.43],[37.31227,64.49445],[37.08534,64.56916],[36.90919,64.72376],[36.82508,64.92078],[36.87208,65.10309],[37.05486,65.19582],[37.14082,65.19429],[37.52813,65.10825],[38.00937,64.87876],[38.11572,64.85459],[38.22822,64.85122],[38.41211,64.85708],[38.44199,64.82715],[38.54092,64.79126],[38.61309,64.78667],[39.05352,64.71392],[39.56738,64.57056],[39.75801,64.57705],[39.788,64.60878],[39.86903,64.58552],[40.08729,64.54664],[40.28834,64.5536],[40.40382,64.64667],[40.39085,64.75731],[40.40781,64.75488],[40.44492,64.77871],[40.37539,64.89629],[40.28125,64.9981],[40.14371,65.06279],[40.084,65.1338],[40.01332,65.31159],[40.01918,65.4643],[40.09608,65.6034],[40.21574,65.718],[40.32783,65.75171],[40.51279,65.8438],[40.6916,65.96343],[40.77441,65.98789],[41.07607,66.02109],[41.47578,66.12344],[41.78086,66.25933],[42.08359,66.46592],[42.21055,66.51968],[42.31367,66.51475],[42.45078,66.48242],[42.60215,66.42251],[42.80654,66.41133],[43.00596,66.42095],[43.2332,66.41553],[43.55088,66.32129],[43.60332,66.29121],[43.65313,66.25098],[43.55039,66.17339],[43.54189,66.12339],[43.62393,66.14673],[43.73701,66.1584],[43.84375,66.14238],[43.94414,66.09868],[44.0167,66.04976],[44.10439,66.00859],[44.13242,66.06455],[44.14531,66.11274],[44.09717,66.23506],[44.2207,66.40708],[44.31641,66.48169],[44.48867,66.67178],[44.43711,66.79463],[44.4293,66.93774],[44.40391,67.0042],[44.35712,67.04404],[44.38465,67.08381],[44.3086,67.14625],[44.13905,67.1803],[43.96156,67.24348],[43.83766,67.35468],[43.82793,67.38788],[43.85635,67.43931],[44.03643,67.67065],[44.22539,67.9956],[44.23154,68.07124],[44.21387,68.1126],[44.22646,68.15444],[44.20469,68.25376],[44.16914,68.3271],[43.91808,68.41945],[44.08924,68.54654],[44.17529,68.54175],[45.07812,68.57817],[45.51943,68.54653],[45.89199,68.47969],[46.1584,68.29136],[46.35321,68.16748],[46.3672,68.03937],[46.18251,67.90131],[45.69583,67.77326],[45.52871,67.75757],[45.37412,67.68887],[44.93945,67.47744],[44.90215,67.41313],[44.93945,67.35078],[45.15313,67.28138],[45.1493,67.26942],[45.33534,67.04664],[45.70985,66.90534],[45.91699,66.87914],[45.98604,66.85313],[46.08398,66.84351],[46.29775,66.84282],[46.44853,66.81899],[46.49238,66.8002],[46.55234,66.81899],[46.69082,66.82554],[47.49648,66.92983],[47.65586,66.97593],[47.70908,67.04502],[47.76807,67.27563],[47.83926,67.35571],[47.9082,67.45469],[47.89737,67.48036],[48.05348,67.58851],[48.15203,67.62963],[48.27871,67.65039],[48.65381,67.69526],[48.8332,67.68149],[48.87793,67.73135],[48.75057,67.83555],[48.85221,67.8681],[48.95391,67.85381],[49.15527,67.87041],[49.93125,68.06514],[50.16004,68.14864],[50.69215,68.18409],[51.18299,68.27204],[51.99473,68.53877],[52.05566,68.54131],[52.12881,68.53203],[52.28535,68.45937],[52.22744,68.4186],[52.1835,68.37427],[52.25918,68.35093],[52.32227,68.3397],[52.39668,68.35171],[52.475,68.38213],[52.66973,68.42676],[52.72266,68.48403],[52.64766,68.50615],[52.5501,68.59243],[52.43506,68.6102],[52.34404,68.60815],[52.68359,68.7312],[53.41289,68.91255],[53.63049,68.95916],[53.81727,68.95154],[53.92381,68.93036],[53.87441,68.92661],[53.79766,68.90747],[53.79824,68.88467],[53.91953,68.87124],[53.9706,68.84429],[53.9293,68.81186],[53.89121,68.80151],[53.83389,68.70894],[53.75889,68.63398],[53.88611,68.55625],[53.86232,68.52479],[53.82215,68.43323],[53.82988,68.38287],[53.69004,68.40254],[53.5667,68.36709],[53.34258,68.34321],[53.29336,68.31167],[53.26055,68.26748],[53.40313,68.25684],[53.51514,68.25967],[53.92551,68.23036],[54.06605,68.19623],[54.37245,68.21082],[54.6143,68.24296],[54.71797,68.18418],[54.86133,68.20185],[54.89855,68.30558],[55.34107,68.42133],[55.67677,68.45777],[56.12989,68.48243],[56.75961,68.59381],[56.90937,68.5667],[57.12685,68.554],[57.44434,68.6415],[57.78268,68.75677],[58.14112,68.79957],[58.35243,68.84894],[58.54677,68.94611],[58.91895,69.00381],[59.05732,69.00606],[59.05986,68.97256],[59.11016,68.89629],[59.17167,68.87024],[59.13575,68.79584],[59.09022,68.67719],[59.0818,68.61133],[59.08277,68.55305],[59.10238,68.48776],[59.09902,68.44434],[59.1399,68.43583],[59.15687,68.41859],[59.20997,68.38544],[59.27955,68.35731],[59.3672,68.33375],[59.50038,68.32355],[59.60282,68.35137],[59.72568,68.35161],[59.82754,68.38032],[59.89736,68.42192],[59.94141,68.5105],[59.92719,68.5281],[60.30622,68.71258],[60.48916,68.72895],[60.6377,68.78701],[60.81514,68.89521],[60.93359,68.98677],[60.85859,69.14551],[60.66455,69.11025],[60.58263,69.19706],[60.58876,69.55262],[60.65357,69.71155],[60.73528,69.78178],[60.81299,69.82114],[60.90908,69.84712],[61.01592,69.85147],[61.77051,69.76304],[62.34615,69.74971],[63.06117,69.64008],[63.6725,69.51264],[63.84315,69.49055],[64.45714,69.46893],[64.59219,69.43564],[64.92852,69.32539],[64.89629,69.2478],[65.03154,69.26982],[65.32676,69.20137],[65.52793,69.17344],[65.73574,69.13232],[65.8127,69.077],[66.09371,69.03394],[66.24391,68.83381],[66.26295,68.7505],[66.261,68.66743],[66.24073,68.58692],[66.20436,68.51105],[66.1775,68.47059],[66.11219,68.3982],[66.07496,68.36701],[65.98286,68.32292]]],[[[5.90711,53.4691],[5.92822,53.46499],[5.9293,53.45884],[5.8804,53.45482],[5.90711,53.4691]]],[[[13.19483,54.53352],[13.30152,54.47456],[13.45802,54.35804],[13.50113,54.33754],[13.48203,54.3374],[13.41455,54.24956],[13.36435,54.24585],[13.19004,54.32563],[13.16211,54.36455],[13.15635,54.39692],[13.18125,54.50898],[13.17758,54.53716],[13.19483,54.53352]]],[[[13.71066,54.28541],[13.70732,54.28115],[13.69307,54.28838],[13.71066,54.28541]]],[[[6.75459,53.62549],[6.80088,53.62549],[6.73477,53.58252],[6.64209,53.5792],[6.66855,53.60566],[6.75459,53.62549]]],[[[6.15928,53.48394],[6.16768,53.49375],[6.29092,53.51499],[6.3334,53.51074],[6.19326,53.47681],[6.15928,53.48394]]],[[[3.69902,51.70991],[3.69854,51.72969],[3.78906,51.74644],[3.94912,51.73945],[4.04678,51.68491],[4.06758,51.66748],[4.0751,51.64878],[3.95098,51.62705],[3.81904,51.69399],[3.73184,51.67822],[3.69902,51.70991]]],[[[-2.22051,49.26636],[-2.08223,49.25537],[-2.01865,49.23125],[-2.00991,49.18081],[-2.05376,49.16982],[-2.09102,49.1874],[-2.16567,49.1874],[-2.23584,49.17637],[-2.22051,49.26636]]],[[[-1.28027,45.89712],[-1.3687,45.96768],[-1.38887,46.03296],[-1.38867,46.05039],[-1.28506,46.00269],[-1.17832,45.90405],[-1.21357,45.8166],[-1.28027,45.89712]]]]},"properties":{"name":"North European Plain","class":"plain","kind":"range","source":"ne-regions"}}]}